<?xml version="1.0" encoding="UTF-8"?>
<kml xmlns="http://www.opengis.net/kml/2.2">
<Document><name>576-master</name>
<Style id="fix"><IconStyle><Icon><href>https://maps.google.com/mapfiles/kml/paddle/red-blank.png</href></Icon><color>ff0000ff</color><hotSpot x="32" y="1" xunits="pixels" yunits="pixels"/></IconStyle></Style>
<Style id="exp"><IconStyle><Icon><href>https://maps.google.com/mapfiles/kml/paddle/blu-blank.png</href></Icon><color>ffff0000</color><hotSpot x="32" y="1" xunits="pixels" yunits="pixels"/></IconStyle></Style>
<Style id="ent"><IconStyle><Icon><href>https://maps.google.com/mapfiles/kml/paddle/grn-blank.png</href></Icon><color>ff00ff00</color><hotSpot x="32" y="1" xunits="pixels" yunits="pixels"/></IconStyle></Style>
<Style id="surf"><LineStyle><color>ff00ff00</color></LineStyle></Style>
<Style id="splay"><LineStyle><color>40ff00ff</color></LineStyle></Style>
<Placemark><MultiGeometry><LineString><altitudeMode>absolute</altitudeMode><coordinates>
13.04222997,47.52817199,2083.10
13.04225286,47.52817436,2082.12
13.04230679,47.52815341,2077.77
13.04233173,47.52813998,2075.92
13.04237110,47.52810673,2070.13
13.04239763,47.52808271,2066.93
13.04246513,47.52810753,2063.78
13.04245214,47.52812449,2058.65
13.04240251,47.52811239,2057.82
13.04236977,47.52812101,2056.15
13.04237696,47.52814903,2054.32
13.04238641,47.52815927,2054.01
13.04234648,47.52813636,2054.68
13.04229957,47.52811874,2057.81
13.04225885,47.52810994,2060.45
13.04228017,47.52815098,2059.73
13.04227051,47.52816791,2061.20
13.04229907,47.52817146,2059.38
13.04234843,47.52823385,2054.80
13.04236517,47.52825177,2053.65
13.04234246,47.52827298,2052.67
13.04235698,47.52830049,2051.35
</coordinates></LineString>
<LineString><altitudeMode>absolute</altitudeMode><coordinates>
13.04245214,47.52812449,2058.65
13.04247549,47.52811481,2056.35
</coordinates></LineString>
<LineString><altitudeMode>absolute</altitudeMode><coordinates>
13.04247549,47.52811481,2056.35
13.04249360,47.52812088,2056.10
</coordinates></LineString>
<LineString><altitudeMode>absolute</altitudeMode><coordinates>
13.04249360,47.52812088,2056.10
13.04249414,47.52813844,2044.39
</coordinates></LineString>
<LineString><altitudeMode>absolute</altitudeMode><coordinates>
13.04249414,47.52813844,2044.39
13.04250939,47.52815696,2042.62
</coordinates></LineString>
<LineString><altitudeMode>absolute</altitudeMode><coordinates>
13.04250939,47.52815696,2042.62
13.04252478,47.52817540,2040.87
</coordinates></LineString>
<LineString><altitudeMode>absolute</altitudeMode><coordinates>
13.04252478,47.52817540,2040.87
13.04251879,47.52819366,2041.27
</coordinates></LineString>
<LineString><altitudeMode>absolute</altitudeMode><coordinates>
13.04250939,47.52815696,2042.62
13.04249375,47.52816668,2043.59
</coordinates></LineString></MultiGeometry></Placemark>
</Document></kml>
