<?xml version="1.0" encoding="UTF-8"?>
<gpx version="1.0" creator="survex 1.4.17 (aven) - https://survex.com/" xmlns:xsi="http://www.w3.org/2001/XMLSchema-instance" xmlns="http://www.topografix.com/GPX/1/0" xsi:schemaLocation="http://www.topografix.com/GPX/1/0 http://www.topografix.com/GPX/1/0/gpx.xsd">
<name>576-master</name>
<time>2025-06-23T19:15:43Z</time>
<trk><name>576-master</name><trkseg>
<trkpt lon="13.04222997" lat="47.52817199"><ele>2083.10</ele></trkpt>
<trkpt lon="13.04225286" lat="47.52817436"><ele>2082.12</ele></trkpt>
<trkpt lon="13.04230679" lat="47.52815341"><ele>2077.77</ele></trkpt>
<trkpt lon="13.04233173" lat="47.52813998"><ele>2075.92</ele></trkpt>
<trkpt lon="13.04237110" lat="47.52810673"><ele>2070.13</ele></trkpt>
<trkpt lon="13.04239763" lat="47.52808271"><ele>2066.93</ele></trkpt>
<trkpt lon="13.04246513" lat="47.52810753"><ele>2063.78</ele></trkpt>
<trkpt lon="13.04245214" lat="47.52812449"><ele>2058.65</ele></trkpt>
<trkpt lon="13.04240251" lat="47.52811239"><ele>2057.82</ele></trkpt>
<trkpt lon="13.04236977" lat="47.52812101"><ele>2056.15</ele></trkpt>
<trkpt lon="13.04237696" lat="47.52814903"><ele>2054.32</ele></trkpt>
<trkpt lon="13.04238641" lat="47.52815927"><ele>2054.01</ele></trkpt>
<trkpt lon="13.04234648" lat="47.52813636"><ele>2054.68</ele></trkpt>
<trkpt lon="13.04229957" lat="47.52811874"><ele>2057.81</ele></trkpt>
<trkpt lon="13.04225885" lat="47.52810994"><ele>2060.45</ele></trkpt>
<trkpt lon="13.04228017" lat="47.52815098"><ele>2059.73</ele></trkpt>
<trkpt lon="13.04227051" lat="47.52816791"><ele>2061.20</ele></trkpt>
<trkpt lon="13.04229907" lat="47.52817146"><ele>2059.38</ele></trkpt>
<trkpt lon="13.04234843" lat="47.52823385"><ele>2054.80</ele></trkpt>
<trkpt lon="13.04236517" lat="47.52825177"><ele>2053.65</ele></trkpt>
<trkpt lon="13.04234246" lat="47.52827298"><ele>2052.67</ele></trkpt>
<trkpt lon="13.04235698" lat="47.52830049"><ele>2051.35</ele></trkpt>
</trkseg><trkseg>
<trkpt lon="13.04245214" lat="47.52812449"><ele>2058.65</ele></trkpt>
<trkpt lon="13.04247549" lat="47.52811481"><ele>2056.35</ele></trkpt>
</trkseg><trkseg>
<trkpt lon="13.04247549" lat="47.52811481"><ele>2056.35</ele></trkpt>
<trkpt lon="13.04249360" lat="47.52812088"><ele>2056.10</ele></trkpt>
</trkseg><trkseg>
<trkpt lon="13.04249360" lat="47.52812088"><ele>2056.10</ele></trkpt>
<trkpt lon="13.04249414" lat="47.52813844"><ele>2044.39</ele></trkpt>
</trkseg><trkseg>
<trkpt lon="13.04249414" lat="47.52813844"><ele>2044.39</ele></trkpt>
<trkpt lon="13.04250939" lat="47.52815696"><ele>2042.62</ele></trkpt>
</trkseg><trkseg>
<trkpt lon="13.04250939" lat="47.52815696"><ele>2042.62</ele></trkpt>
<trkpt lon="13.04252478" lat="47.52817540"><ele>2040.87</ele></trkpt>
</trkseg><trkseg>
<trkpt lon="13.04252478" lat="47.52817540"><ele>2040.87</ele></trkpt>
<trkpt lon="13.04251879" lat="47.52819366"><ele>2041.27</ele></trkpt>
</trkseg><trkseg>
<trkpt lon="13.04250939" lat="47.52815696"><ele>2042.62</ele></trkpt>
<trkpt lon="13.04249375" lat="47.52816668"><ele>2043.59</ele></trkpt>
</trkseg></trk>
</gpx>
