<?xml version="1.0" encoding="UTF-8"?>
<gpx version="1.0" creator="survex 1.4.17 (aven) - https://survex.com/" xmlns:xsi="http://www.w3.org/2001/XMLSchema-instance" xmlns="http://www.topografix.com/GPX/1/0" xsi:schemaLocation="http://www.topografix.com/GPX/1/0 http://www.topografix.com/GPX/1/0/gpx.xsd">
<name>496-master</name>
<time>2025-06-23T19:15:36Z</time>
<trk><name>496-master</name><trkseg>
<trkpt lon="13.05774997" lat="47.53473331"><ele>2010.00</ele></trkpt>
<trkpt lon="13.05773989" lat="47.53470038"><ele>2001.98</ele></trkpt>
<trkpt lon="13.05775739" lat="47.53473019"><ele>2001.35</ele></trkpt>
<trkpt lon="13.05776262" lat="47.53473253"><ele>1992.36</ele></trkpt>
<trkpt lon="13.05774505" lat="47.53472612"><ele>1991.96</ele></trkpt>
<trkpt lon="13.05773957" lat="47.53469471"><ele>1992.58</ele></trkpt>
</trkseg><trkseg>
<trkpt lon="13.05774505" lat="47.53472612"><ele>1991.96</ele></trkpt>
<trkpt lon="13.05777906" lat="47.53471184"><ele>1990.56</ele></trkpt>
<trkpt lon="13.05779856" lat="47.53470912"><ele>1982.03</ele></trkpt>
<trkpt lon="13.05782869" lat="47.53476029"><ele>1980.39</ele></trkpt>
<trkpt lon="13.05786431" lat="47.53479247"><ele>1974.00</ele></trkpt>
<trkpt lon="13.05787712" lat="47.53480547"><ele>1971.52</ele></trkpt>
<trkpt lon="13.05790604" lat="47.53482090"><ele>1963.88</ele></trkpt>
</trkseg><trkseg>
<trkpt lon="13.05790604" lat="47.53482090"><ele>1963.88</ele></trkpt>
<trkpt lon="13.05791190" lat="47.53481713"><ele>1963.30</ele></trkpt>
<trkpt lon="13.05792661" lat="47.53483600"><ele>1962.54</ele></trkpt>
<trkpt lon="13.05794568" lat="47.53485225"><ele>1960.97</ele></trkpt>
<trkpt lon="13.05792555" lat="47.53483958"><ele>1949.38</ele></trkpt>
<trkpt lon="13.05792302" lat="47.53483972"><ele>1945.60</ele></trkpt>
</trkseg><trkseg>
<trkpt lon="13.05792555" lat="47.53483958"><ele>1949.38</ele></trkpt>
<trkpt lon="13.05796697" lat="47.53486935"><ele>1951.17</ele></trkpt>
<trkpt lon="13.05804052" lat="47.53489264"><ele>1944.12</ele></trkpt>
<trkpt lon="13.05806313" lat="47.53491003"><ele>1912.60</ele></trkpt>
<trkpt lon="13.05805517" lat="47.53492762"><ele>1882.62</ele></trkpt>
<trkpt lon="13.05807464" lat="47.53489691"><ele>1883.12</ele></trkpt>
<trkpt lon="13.05809431" lat="47.53487880"><ele>1881.41</ele></trkpt>
</trkseg><trkseg>
<trkpt lon="13.05807464" lat="47.53489691"><ele>1883.12</ele></trkpt>
<trkpt lon="13.05807710" lat="47.53489524"><ele>1885.90</ele></trkpt>
<trkpt lon="13.05809609" lat="47.53485948"><ele>1884.67</ele></trkpt>
<trkpt lon="13.05814050" lat="47.53484062"><ele>1881.13</ele></trkpt>
<trkpt lon="13.05815293" lat="47.53485657"><ele>1880.49</ele></trkpt>
</trkseg><trkseg>
<trkpt lon="13.05814050" lat="47.53484062"><ele>1881.13</ele></trkpt>
<trkpt lon="13.05814661" lat="47.53481921"><ele>1882.28</ele></trkpt>
</trkseg></trk>
</gpx>
