<?xml version="1.0" encoding="UTF-8"?>
<kml xmlns="http://www.opengis.net/kml/2.2">
<Document><name>572-master</name>
<Style id="fix"><IconStyle><Icon><href>https://maps.google.com/mapfiles/kml/paddle/red-blank.png</href></Icon><color>ff0000ff</color><hotSpot x="32" y="1" xunits="pixels" yunits="pixels"/></IconStyle></Style>
<Style id="exp"><IconStyle><Icon><href>https://maps.google.com/mapfiles/kml/paddle/blu-blank.png</href></Icon><color>ffff0000</color><hotSpot x="32" y="1" xunits="pixels" yunits="pixels"/></IconStyle></Style>
<Style id="ent"><IconStyle><Icon><href>https://maps.google.com/mapfiles/kml/paddle/grn-blank.png</href></Icon><color>ff00ff00</color><hotSpot x="32" y="1" xunits="pixels" yunits="pixels"/></IconStyle></Style>
<Style id="surf"><LineStyle><color>ff00ff00</color></LineStyle></Style>
<Style id="splay"><LineStyle><color>40ff00ff</color></LineStyle></Style>
<Placemark><MultiGeometry><LineString><altitudeMode>absolute</altitudeMode><coordinates>
13.04634999,47.52383333,2101.00
13.04633081,47.52380952,2098.47
13.04633183,47.52376778,2095.40
13.04633512,47.52375434,2094.25
13.04630829,47.52371843,2095.26
13.04624946,47.52368575,2093.36
13.04632350,47.52368441,2091.67
13.04629656,47.52364426,2089.33
13.04621336,47.52360964,2091.19
13.04616970,47.52359054,2091.55
13.04614193,47.52355848,2089.82
13.04609448,47.52359133,2092.50
13.04615846,47.52369995,2087.28
13.04615846,47.52369995,2087.28
13.04608849,47.52365952,2086.29
13.04605565,47.52361019,2082.31
13.04600070,47.52362338,2080.67
13.04598166,47.52363512,2082.15
</coordinates></LineString>
<LineString><altitudeMode>absolute</altitudeMode><coordinates>
13.04615846,47.52369995,2087.28
13.04603701,47.52366855,2087.01
13.04592971,47.52366051,2083.47
13.04576557,47.52361236,2077.07
13.04576557,47.52361236,2077.07
13.04572523,47.52366134,2080.76
13.04569191,47.52366428,2088.31
</coordinates></LineString>
<LineString><altitudeMode>absolute</altitudeMode><coordinates>
13.04576557,47.52361236,2077.07
13.04576218,47.52358575,2079.11
13.04576599,47.52356179,2079.18
13.04571171,47.52353180,2082.85
13.04572271,47.52347521,2084.49
13.04566211,47.52346167,2087.22
13.04561903,47.52345536,2090.65
13.04560029,47.52343056,2090.77
13.04560084,47.52341590,2089.45
13.04552291,47.52338227,2088.74
13.04545152,47.52330502,2088.11
13.04535035,47.52330347,2088.82
13.04526705,47.52318210,2089.08
13.04520327,47.52316131,2088.06
13.04514970,47.52313709,2089.73
13.04512191,47.52309837,2090.49
13.04512191,47.52309837,2090.49
13.04507802,47.52306757,2091.60
</coordinates></LineString>
<LineString><altitudeMode>absolute</altitudeMode><coordinates>
13.04614193,47.52355848,2089.82
13.04614193,47.52355848,2089.82
13.04608001,47.52350515,2087.74
13.04607920,47.52348408,2089.77
13.04607889,47.52346023,2092.06
13.04607889,47.52346023,2092.06
13.04609147,47.52340069,2095.33
13.04608205,47.52337885,2095.59
13.04608930,47.52338023,2090.97
</coordinates></LineString>
<LineString><altitudeMode>absolute</altitudeMode><coordinates>
13.04609147,47.52340069,2095.33
13.04609147,47.52340069,2095.33
13.04614055,47.52340261,2097.27
13.04616366,47.52333101,2101.34
</coordinates></LineString>
<LineString><altitudeMode>absolute</altitudeMode><coordinates>
13.04607889,47.52346023,2092.06
13.04612631,47.52348911,2092.98
</coordinates></LineString>
<LineString><altitudeMode>absolute</altitudeMode><coordinates>
13.04612631,47.52348911,2092.98
13.04614611,47.52351401,2093.28
</coordinates></LineString>
<LineString><altitudeMode>absolute</altitudeMode><coordinates>
13.04576599,47.52356179,2079.18
13.04576599,47.52356179,2079.18
13.04579045,47.52352568,2079.68
</coordinates></LineString>
<LineString><altitudeMode>absolute</altitudeMode><coordinates>
13.04579045,47.52352568,2079.68
13.04584732,47.52348588,2086.45
</coordinates></LineString>
<LineString><altitudeMode>absolute</altitudeMode><coordinates>
13.04584732,47.52348588,2086.45
13.04585909,47.52349454,2086.55
</coordinates></LineString>
<LineString><altitudeMode>absolute</altitudeMode><coordinates>
13.04585909,47.52349454,2086.55
13.04585779,47.52349362,2088.78
13.04585209,47.52351125,2086.20
</coordinates></LineString>
<LineString><altitudeMode>absolute</altitudeMode><coordinates>
13.04572271,47.52347521,2084.49
13.04572271,47.52347521,2084.49
</coordinates></LineString>
<LineString><altitudeMode>absolute</altitudeMode><coordinates>
13.04572271,47.52347521,2084.49
13.04579367,47.52346391,2083.05
</coordinates></LineString>
<LineString><altitudeMode>absolute</altitudeMode><coordinates>
13.04579367,47.52346391,2083.05
13.04580854,47.52345346,2087.80
</coordinates></LineString>
<LineString><altitudeMode>absolute</altitudeMode><coordinates>
13.04566211,47.52346167,2087.22
13.04566211,47.52346167,2087.22
13.04567852,47.52340967,2088.16
</coordinates></LineString>
<LineString><altitudeMode>absolute</altitudeMode><coordinates>
13.04561903,47.52345536,2090.65
13.04561903,47.52345536,2090.65
13.04562195,47.52347691,2089.48
13.04564708,47.52351576,2086.22
</coordinates></LineString>
<LineString><altitudeMode>absolute</altitudeMode><coordinates>
13.04560029,47.52343056,2090.77
13.04560029,47.52343056,2090.77
13.04556209,47.52344701,2094.09
</coordinates></LineString>
<LineString><altitudeMode>absolute</altitudeMode><coordinates>
13.04556209,47.52344701,2094.09
13.04554061,47.52344214,2094.95
13.04552491,47.52347517,2096.20
</coordinates></LineString>
<LineString><altitudeMode>absolute</altitudeMode><coordinates>
13.04512191,47.52309837,2090.49
13.04511101,47.52314507,2092.07
13.04508506,47.52314283,2096.95
</coordinates></LineString>
<LineString><altitudeMode>absolute</altitudeMode><coordinates>
13.04545152,47.52330502,2088.11
13.04545152,47.52330502,2088.11
13.04554421,47.52326323,2092.62
</coordinates></LineString>
<LineString><altitudeMode>absolute</altitudeMode><coordinates>
13.04554421,47.52326323,2092.62
13.04553874,47.52324604,2092.32
</coordinates></LineString>
<LineString><altitudeMode>absolute</altitudeMode><coordinates>
13.04553874,47.52324604,2092.32
13.04557001,47.52324801,2093.80
</coordinates></LineString>
<LineString><altitudeMode>absolute</altitudeMode><coordinates>
13.04557001,47.52324801,2093.80
13.04561076,47.52325959,2094.37
</coordinates></LineString>
<LineString><altitudeMode>absolute</altitudeMode><coordinates>
13.04561076,47.52325959,2094.37
13.04563472,47.52323687,2093.45
</coordinates></LineString>
<LineString><altitudeMode>absolute</altitudeMode><coordinates>
13.04563472,47.52323687,2093.45
13.04563209,47.52321829,2094.36
</coordinates></LineString>
<LineString><altitudeMode>absolute</altitudeMode><coordinates>
13.04563209,47.52321829,2094.36
13.04567830,47.52321539,2095.70
</coordinates></LineString>
<LineString><altitudeMode>absolute</altitudeMode><coordinates>
13.04567830,47.52321539,2095.70
13.04573573,47.52314996,2099.76
</coordinates></LineString>
<LineString><altitudeMode>absolute</altitudeMode><coordinates>
13.04614611,47.52351401,2093.28
13.04614967,47.52355052,2103.89
</coordinates></LineString>
<LineString><altitudeMode>absolute</altitudeMode><coordinates>
13.04603701,47.52366855,2087.01
13.04603701,47.52366855,2087.01
13.04598719,47.52363287,2095.11
13.04600257,47.52361577,2095.57
13.04599296,47.52355999,2101.33
</coordinates></LineString></MultiGeometry></Placemark>
</Document></kml>
