<?xml version="1.0" encoding="UTF-8"?>
<gpx version="1.0" creator="survex 1.4.17 (aven) - https://survex.com/" xmlns:xsi="http://www.w3.org/2001/XMLSchema-instance" xmlns="http://www.topografix.com/GPX/1/0" xsi:schemaLocation="http://www.topografix.com/GPX/1/0 http://www.topografix.com/GPX/1/0/gpx.xsd">
<name>484-master</name>
<time>2025-06-23T19:15:29Z</time>
<trk><name>484-master</name><trkseg>
<trkpt lon="13.09298338" lat="47.54635002"><ele>1601.00</ele></trkpt>
<trkpt lon="13.09298338" lat="47.54635002"><ele>1551.00</ele></trkpt>
</trkseg></trk>
</gpx>
