<?xml version="1.0" encoding="UTF-8"?>
<gpx version="1.0" creator="survex 1.4.17 (aven) - https://survex.com/" xmlns:xsi="http://www.w3.org/2001/XMLSchema-instance" xmlns="http://www.topografix.com/GPX/1/0" xsi:schemaLocation="http://www.topografix.com/GPX/1/0 http://www.topografix.com/GPX/1/0/gpx.xsd">
<name>564-master</name>
<time>2025-05-25T22:51:45Z</time>
<trk><name>564-master</name><trkseg>
<trkpt lon="13.03670162" lat="47.52927333"><ele>2191.00</ele></trkpt>
<trkpt lon="13.03669692" lat="47.52922853"><ele>2190.64</ele></trkpt>
</trkseg><trkseg>
<trkpt lon="13.03669692" lat="47.52922853"><ele>2190.64</ele></trkpt>
<trkpt lon="13.03671241" lat="47.52916931"><ele>2182.40</ele></trkpt>
</trkseg><trkseg>
<trkpt lon="13.03671241" lat="47.52916931"><ele>2182.40</ele></trkpt>
<trkpt lon="13.03667502" lat="47.52917812"><ele>2180.97</ele></trkpt>
<trkpt lon="13.03666061" lat="47.52913684"><ele>2174.53</ele></trkpt>
</trkseg><trkseg>
<trkpt lon="13.03666061" lat="47.52913684"><ele>2174.53</ele></trkpt>
<trkpt lon="13.03658918" lat="47.52912509"><ele>2171.76</ele></trkpt>
</trkseg><trkseg>
<trkpt lon="13.03658918" lat="47.52912509"><ele>2171.76</ele></trkpt>
<trkpt lon="13.03655998" lat="47.52910650"><ele>2197.97</ele></trkpt>
</trkseg><trkseg>
<trkpt lon="13.03658918" lat="47.52912509"><ele>2171.76</ele></trkpt>
<trkpt lon="13.03665960" lat="47.52909633"><ele>2170.59</ele></trkpt>
</trkseg><trkseg>
<trkpt lon="13.03665960" lat="47.52909633"><ele>2170.59</ele></trkpt>
<trkpt lon="13.03666560" lat="47.52910660"><ele>2169.55</ele></trkpt>
</trkseg><trkseg>
<trkpt lon="13.03666560" lat="47.52910660"><ele>2169.55</ele></trkpt>
<trkpt lon="13.03664729" lat="47.52910224"><ele>2164.61</ele></trkpt>
</trkseg><trkseg>
<trkpt lon="13.03664729" lat="47.52910224"><ele>2164.61</ele></trkpt>
<trkpt lon="13.03660395" lat="47.52908872"><ele>2158.95</ele></trkpt>
</trkseg><trkseg>
<trkpt lon="13.03660395" lat="47.52908872"><ele>2158.95</ele></trkpt>
<trkpt lon="13.03654634" lat="47.52911239"><ele>2157.14</ele></trkpt>
</trkseg><trkseg>
<trkpt lon="13.03660395" lat="47.52908872"><ele>2158.95</ele></trkpt>
<trkpt lon="13.03664715" lat="47.52909882"><ele>2158.97</ele></trkpt>
<trkpt lon="13.03665730" lat="47.52906561"><ele>2159.67</ele></trkpt>
</trkseg><trkseg>
<trkpt lon="13.03665730" lat="47.52906561"><ele>2159.67</ele></trkpt>
<trkpt lon="13.03671405" lat="47.52906154"><ele>2161.66</ele></trkpt>
</trkseg><trkseg>
<trkpt lon="13.03671405" lat="47.52906154"><ele>2161.66</ele></trkpt>
<trkpt lon="13.03672851" lat="47.52906917"><ele>2162.27</ele></trkpt>
</trkseg><trkseg>
<trkpt lon="13.03665960" lat="47.52909633"><ele>2170.59</ele></trkpt>
<trkpt lon="13.03664199" lat="47.52909828"><ele>2170.71</ele></trkpt>
<trkpt lon="13.03664288" lat="47.52908867"><ele>2171.09</ele></trkpt>
</trkseg><trkseg>
<trkpt lon="13.03664288" lat="47.52908867"><ele>2171.09</ele></trkpt>
<trkpt lon="13.03663383" lat="47.52907502"><ele>2170.03</ele></trkpt>
</trkseg><trkseg>
<trkpt lon="13.03663383" lat="47.52907502"><ele>2170.03</ele></trkpt>
<trkpt lon="13.03661251" lat="47.52907303"><ele>2170.87</ele></trkpt>
</trkseg><trkseg>
<trkpt lon="13.03661251" lat="47.52907303"><ele>2170.87</ele></trkpt>
<trkpt lon="13.03656681" lat="47.52906595"><ele>2168.73</ele></trkpt>
</trkseg><trkseg>
<trkpt lon="13.03656681" lat="47.52906595"><ele>2168.73</ele></trkpt>
<trkpt lon="13.03654613" lat="47.52906110"><ele>2169.04</ele></trkpt>
</trkseg><trkseg>
<trkpt lon="13.03654613" lat="47.52906110"><ele>2169.04</ele></trkpt>
<trkpt lon="13.03651910" lat="47.52905910"><ele>2167.93</ele></trkpt>
</trkseg><trkseg>
<trkpt lon="13.03651910" lat="47.52905910"><ele>2167.93</ele></trkpt>
<trkpt lon="13.03651412" lat="47.52905731"><ele>2168.17</ele></trkpt>
<trkpt lon="13.03648616" lat="47.52905890"><ele>2167.90</ele></trkpt>
<trkpt lon="13.03649342" lat="47.52906019"><ele>2166.94</ele></trkpt>
<trkpt lon="13.03647350" lat="47.52907047"><ele>2162.87</ele></trkpt>
</trkseg><trkseg>
<trkpt lon="13.03647350" lat="47.52907047"><ele>2162.87</ele></trkpt>
<trkpt lon="13.03644340" lat="47.52905835"><ele>2162.02</ele></trkpt>
</trkseg><trkseg>
<trkpt lon="13.03644340" lat="47.52905835"><ele>2162.02</ele></trkpt>
<trkpt lon="13.03641275" lat="47.52906439"><ele>2161.13</ele></trkpt>
</trkseg><trkseg>
<trkpt lon="13.03641275" lat="47.52906439"><ele>2161.13</ele></trkpt>
<trkpt lon="13.03640649" lat="47.52907193"><ele>2161.29</ele></trkpt>
</trkseg><trkseg>
<trkpt lon="13.03640649" lat="47.52907193"><ele>2161.29</ele></trkpt>
<trkpt lon="13.03636053" lat="47.52907888"><ele>2160.75</ele></trkpt>
</trkseg><trkseg>
<trkpt lon="13.03636053" lat="47.52907888"><ele>2160.75</ele></trkpt>
<trkpt lon="13.03634471" lat="47.52909337"><ele>2160.59</ele></trkpt>
<trkpt lon="13.03634974" lat="47.52910092"><ele>2161.58</ele></trkpt>
<trkpt lon="13.03633614" lat="47.52909493"><ele>2162.46</ele></trkpt>
</trkseg><trkseg>
<trkpt lon="13.03633614" lat="47.52909493"><ele>2162.46</ele></trkpt>
<trkpt lon="13.03640284" lat="47.52908789"><ele>2203.30</ele></trkpt>
</trkseg><trkseg>
<trkpt lon="13.03633614" lat="47.52909493"><ele>2162.46</ele></trkpt>
<trkpt lon="13.03623642" lat="47.52913615"><ele>2157.80</ele></trkpt>
</trkseg></trk>
</gpx>
