<?xml version="1.0" encoding="UTF-8"?>
<kml xmlns="http://www.opengis.net/kml/2.2">
<Document><name>564-master</name>
<Style id="fix"><IconStyle><Icon><href>https://maps.google.com/mapfiles/kml/paddle/red-blank.png</href></Icon><color>ff0000ff</color><hotSpot x="32" y="1" xunits="pixels" yunits="pixels"/></IconStyle></Style>
<Style id="exp"><IconStyle><Icon><href>https://maps.google.com/mapfiles/kml/paddle/blu-blank.png</href></Icon><color>ffff0000</color><hotSpot x="32" y="1" xunits="pixels" yunits="pixels"/></IconStyle></Style>
<Style id="ent"><IconStyle><Icon><href>https://maps.google.com/mapfiles/kml/paddle/grn-blank.png</href></Icon><color>ff00ff00</color><hotSpot x="32" y="1" xunits="pixels" yunits="pixels"/></IconStyle></Style>
<Style id="surf"><LineStyle><color>ff00ff00</color></LineStyle></Style>
<Style id="splay"><LineStyle><color>40ff00ff</color></LineStyle></Style>
<Placemark><MultiGeometry><LineString><altitudeMode>absolute</altitudeMode><coordinates>
13.03670162,47.52927333,2191.00
13.03669692,47.52922853,2190.64
</coordinates></LineString>
<LineString><altitudeMode>absolute</altitudeMode><coordinates>
13.03669692,47.52922853,2190.64
13.03671241,47.52916931,2182.40
</coordinates></LineString>
<LineString><altitudeMode>absolute</altitudeMode><coordinates>
13.03671241,47.52916931,2182.40
13.03667502,47.52917812,2180.97
13.03666061,47.52913684,2174.53
</coordinates></LineString>
<LineString><altitudeMode>absolute</altitudeMode><coordinates>
13.03666061,47.52913684,2174.53
13.03658918,47.52912509,2171.76
</coordinates></LineString>
<LineString><altitudeMode>absolute</altitudeMode><coordinates>
13.03658918,47.52912509,2171.76
13.03655998,47.52910650,2197.97
</coordinates></LineString>
<LineString><altitudeMode>absolute</altitudeMode><coordinates>
13.03658918,47.52912509,2171.76
13.03665960,47.52909633,2170.59
</coordinates></LineString>
<LineString><altitudeMode>absolute</altitudeMode><coordinates>
13.03665960,47.52909633,2170.59
13.03666560,47.52910660,2169.55
</coordinates></LineString>
<LineString><altitudeMode>absolute</altitudeMode><coordinates>
13.03666560,47.52910660,2169.55
13.03664729,47.52910224,2164.61
</coordinates></LineString>
<LineString><altitudeMode>absolute</altitudeMode><coordinates>
13.03664729,47.52910224,2164.61
13.03660395,47.52908872,2158.95
</coordinates></LineString>
<LineString><altitudeMode>absolute</altitudeMode><coordinates>
13.03660395,47.52908872,2158.95
13.03654634,47.52911239,2157.14
</coordinates></LineString>
<LineString><altitudeMode>absolute</altitudeMode><coordinates>
13.03660395,47.52908872,2158.95
13.03664715,47.52909882,2158.97
13.03665730,47.52906561,2159.67
</coordinates></LineString>
<LineString><altitudeMode>absolute</altitudeMode><coordinates>
13.03665730,47.52906561,2159.67
13.03671405,47.52906154,2161.66
</coordinates></LineString>
<LineString><altitudeMode>absolute</altitudeMode><coordinates>
13.03671405,47.52906154,2161.66
13.03672851,47.52906917,2162.27
</coordinates></LineString>
<LineString><altitudeMode>absolute</altitudeMode><coordinates>
13.03665960,47.52909633,2170.59
13.03664199,47.52909828,2170.71
13.03664288,47.52908867,2171.09
</coordinates></LineString>
<LineString><altitudeMode>absolute</altitudeMode><coordinates>
13.03664288,47.52908867,2171.09
13.03663383,47.52907502,2170.03
</coordinates></LineString>
<LineString><altitudeMode>absolute</altitudeMode><coordinates>
13.03663383,47.52907502,2170.03
13.03661251,47.52907303,2170.87
</coordinates></LineString>
<LineString><altitudeMode>absolute</altitudeMode><coordinates>
13.03661251,47.52907303,2170.87
13.03656681,47.52906595,2168.73
</coordinates></LineString>
<LineString><altitudeMode>absolute</altitudeMode><coordinates>
13.03656681,47.52906595,2168.73
13.03654613,47.52906110,2169.04
</coordinates></LineString>
<LineString><altitudeMode>absolute</altitudeMode><coordinates>
13.03654613,47.52906110,2169.04
13.03651910,47.52905910,2167.93
</coordinates></LineString>
<LineString><altitudeMode>absolute</altitudeMode><coordinates>
13.03651910,47.52905910,2167.93
13.03651412,47.52905731,2168.17
13.03648616,47.52905890,2167.90
13.03649342,47.52906019,2166.94
13.03647350,47.52907047,2162.87
</coordinates></LineString>
<LineString><altitudeMode>absolute</altitudeMode><coordinates>
13.03647350,47.52907047,2162.87
13.03644340,47.52905835,2162.02
</coordinates></LineString>
<LineString><altitudeMode>absolute</altitudeMode><coordinates>
13.03644340,47.52905835,2162.02
13.03641275,47.52906439,2161.13
</coordinates></LineString>
<LineString><altitudeMode>absolute</altitudeMode><coordinates>
13.03641275,47.52906439,2161.13
13.03640649,47.52907193,2161.29
</coordinates></LineString>
<LineString><altitudeMode>absolute</altitudeMode><coordinates>
13.03640649,47.52907193,2161.29
13.03636053,47.52907888,2160.75
</coordinates></LineString>
<LineString><altitudeMode>absolute</altitudeMode><coordinates>
13.03636053,47.52907888,2160.75
13.03634471,47.52909337,2160.59
13.03634974,47.52910092,2161.58
13.03633614,47.52909493,2162.46
</coordinates></LineString>
<LineString><altitudeMode>absolute</altitudeMode><coordinates>
13.03633614,47.52909493,2162.46
13.03640284,47.52908789,2203.30
</coordinates></LineString>
<LineString><altitudeMode>absolute</altitudeMode><coordinates>
13.03633614,47.52909493,2162.46
13.03623642,47.52913615,2157.80
</coordinates></LineString></MultiGeometry></Placemark>
</Document></kml>
