<?xml version="1.0" encoding="UTF-8"?>
<kml xmlns="http://www.opengis.net/kml/2.2">
<Document><name>428-master</name>
<Style id="fix"><IconStyle><Icon><href>https://maps.google.com/mapfiles/kml/paddle/red-blank.png</href></Icon><color>ff0000ff</color><hotSpot x="32" y="1" xunits="pixels" yunits="pixels"/></IconStyle></Style>
<Style id="exp"><IconStyle><Icon><href>https://maps.google.com/mapfiles/kml/paddle/blu-blank.png</href></Icon><color>ffff0000</color><hotSpot x="32" y="1" xunits="pixels" yunits="pixels"/></IconStyle></Style>
<Style id="ent"><IconStyle><Icon><href>https://maps.google.com/mapfiles/kml/paddle/grn-blank.png</href></Icon><color>ff00ff00</color><hotSpot x="32" y="1" xunits="pixels" yunits="pixels"/></IconStyle></Style>
<Style id="surf"><LineStyle><color>ff00ff00</color></LineStyle></Style>
<Style id="splay"><LineStyle><color>40ff00ff</color></LineStyle></Style>
<Placemark><MultiGeometry><LineString><altitudeMode>absolute</altitudeMode><coordinates>
13.05030005,47.52313338,2075.00
13.05029408,47.52310448,2074.38
13.05022090,47.52310044,2071.57
13.05010922,47.52313157,2071.71
13.05008230,47.52311599,2070.56
13.04993837,47.52306010,2070.75
13.04981055,47.52306809,2075.12
13.04984309,47.52299306,2069.98
13.04990857,47.52298247,2065.91
13.04987650,47.52295529,2066.40
13.04977326,47.52300258,2065.96
13.04976122,47.52308714,2058.87
13.04969213,47.52312321,2058.25
13.04974304,47.52313695,2057.46
13.04980936,47.52318973,2041.09
13.04975994,47.52316108,2039.33
13.04970160,47.52315091,2040.88
13.04969905,47.52311235,2044.78
13.04966525,47.52313895,2045.66
13.04957032,47.52304061,2048.15
13.04950817,47.52295406,2048.32
13.04947279,47.52288723,2048.69
13.04939705,47.52283403,2051.22
13.04937869,47.52274517,2051.85
13.04948645,47.52270525,2059.49
13.04956452,47.52265250,2063.89
13.04970056,47.52260208,2066.69
13.04967508,47.52256934,2065.14
13.04967155,47.52251745,2063.94
13.04972128,47.52249472,2062.63
13.04975174,47.52249731,2060.01
13.04975174,47.52249731,2053.01
</coordinates></LineString>
<LineString><altitudeMode>absolute</altitudeMode><coordinates>
13.04937869,47.52274517,2051.85
13.04935452,47.52269140,2053.24
13.04930598,47.52262119,2058.71
13.04929639,47.52260384,2057.93
13.04920961,47.52261208,2054.16
13.04914407,47.52262051,2056.15
13.04904448,47.52262997,2058.74
13.04900202,47.52260009,2057.40
13.04902947,47.52257627,2058.38
13.04904230,47.52256353,2051.70
13.04905970,47.52257075,2046.94
13.04910225,47.52251227,2035.91
13.04906039,47.52252352,2036.12
13.04903536,47.52252130,2036.21
13.04902493,47.52249808,2036.17
13.04897090,47.52250085,2036.56
13.04892383,47.52248394,2037.79
13.04866189,47.52254418,2029.54
13.04861712,47.52254081,2027.24
13.04856320,47.52255456,2024.76
13.04852424,47.52253770,2025.15
13.04851161,47.52254522,2024.17
13.04848550,47.52253650,2024.88
13.04841054,47.52249815,2024.32
13.04831925,47.52252026,2021.56
13.04826537,47.52250090,2021.27
13.04825539,47.52254788,2018.03
13.04819177,47.52250469,2013.43
13.04822298,47.52244034,2010.44
13.04827029,47.52243988,2008.63
</coordinates></LineString>
<LineString><altitudeMode>absolute</altitudeMode><coordinates>
13.04914407,47.52262051,2056.15
13.04914407,47.52262051,2056.95
13.04919631,47.52255877,2067.14
13.04917037,47.52253817,2065.36
13.04911075,47.52251241,2068.74
13.04907057,47.52251407,2068.11
13.04900197,47.52261215,2072.67
13.04897851,47.52262858,2072.10
13.04897177,47.52265996,2070.02
13.04891972,47.52267014,2069.63
13.04895095,47.52264116,2068.67
13.04892642,47.52264713,2067.67
13.04894069,47.52268498,2065.63
13.04891609,47.52273559,2063.81
13.04890101,47.52276251,2063.81
</coordinates></LineString>
<LineString><altitudeMode>absolute</altitudeMode><coordinates>
13.04891972,47.52267014,2069.63
13.04878405,47.52268898,2077.72
</coordinates></LineString>
<LineString><altitudeMode>absolute</altitudeMode><coordinates>
13.04956452,47.52265250,2063.89
13.04957256,47.52262213,2060.25
13.04959808,47.52257874,2060.25
</coordinates></LineString>
<LineString><altitudeMode>absolute</altitudeMode><coordinates>
13.04993837,47.52306010,2070.75
13.04990776,47.52295051,2069.19
</coordinates></LineString></MultiGeometry></Placemark>
</Document></kml>
