<?xml version="1.0" encoding="UTF-8"?>
<kml xmlns="http://www.opengis.net/kml/2.2">
<Document><name>429-master</name>
<Style id="fix"><IconStyle><Icon><href>https://maps.google.com/mapfiles/kml/paddle/red-blank.png</href></Icon><color>ff0000ff</color><hotSpot x="32" y="1" xunits="pixels" yunits="pixels"/></IconStyle></Style>
<Style id="exp"><IconStyle><Icon><href>https://maps.google.com/mapfiles/kml/paddle/blu-blank.png</href></Icon><color>ffff0000</color><hotSpot x="32" y="1" xunits="pixels" yunits="pixels"/></IconStyle></Style>
<Style id="ent"><IconStyle><Icon><href>https://maps.google.com/mapfiles/kml/paddle/grn-blank.png</href></Icon><color>ff00ff00</color><hotSpot x="32" y="1" xunits="pixels" yunits="pixels"/></IconStyle></Style>
<Style id="surf"><LineStyle><color>ff00ff00</color></LineStyle></Style>
<Style id="splay"><LineStyle><color>40ff00ff</color></LineStyle></Style>
<Placemark><MultiGeometry><LineString><altitudeMode>absolute</altitudeMode><coordinates>
13.04726668,47.52283330,2140.00
13.04706406,47.52277352,2134.59
13.04708155,47.52272460,2137.01
13.04708569,47.52269524,2139.64
</coordinates></LineString>
<LineString><altitudeMode>absolute</altitudeMode><coordinates>
13.04706406,47.52277352,2134.59
13.04696517,47.52272468,2137.91
13.04689182,47.52265370,2139.75
</coordinates></LineString>
<LineString><altitudeMode>absolute</altitudeMode><coordinates>
13.04706406,47.52277352,2134.59
13.04697267,47.52285565,2137.91
13.04693779,47.52291471,2142.25
</coordinates></LineString></MultiGeometry></Placemark>
</Document></kml>
