<?xml version="1.0" encoding="UTF-8"?>
<kml xmlns="http://www.opengis.net/kml/2.2">
<Document><name>565-master</name>
<Style id="fix"><IconStyle><Icon><href>https://maps.google.com/mapfiles/kml/paddle/red-blank.png</href></Icon><color>ff0000ff</color><hotSpot x="32" y="1" xunits="pixels" yunits="pixels"/></IconStyle></Style>
<Style id="exp"><IconStyle><Icon><href>https://maps.google.com/mapfiles/kml/paddle/blu-blank.png</href></Icon><color>ffff0000</color><hotSpot x="32" y="1" xunits="pixels" yunits="pixels"/></IconStyle></Style>
<Style id="ent"><IconStyle><Icon><href>https://maps.google.com/mapfiles/kml/paddle/grn-blank.png</href></Icon><color>ff00ff00</color><hotSpot x="32" y="1" xunits="pixels" yunits="pixels"/></IconStyle></Style>
<Style id="surf"><LineStyle><color>ff00ff00</color></LineStyle></Style>
<Style id="splay"><LineStyle><color>40ff00ff</color></LineStyle></Style>
<Placemark><MultiGeometry><LineString><altitudeMode>absolute</altitudeMode><coordinates>
13.03762161,47.53000832,2122.00
13.03760607,47.53000833,2120.09
13.03758769,47.53002376,2117.90
13.03757395,47.53003585,2115.99
13.03756154,47.53004446,2115.14
13.03757276,47.53005356,2114.51
13.03752523,47.53006327,2112.61
13.03753008,47.53007919,2109.60
13.03756686,47.53005859,2109.75
13.03756337,47.53006303,2111.80
13.03752538,47.53006274,2112.56
</coordinates></LineString>
<LineString><altitudeMode>absolute</altitudeMode><coordinates>
13.03753008,47.53007919,2109.60
13.03750929,47.53008811,2112.58
</coordinates></LineString>
<LineString><altitudeMode>absolute</altitudeMode><coordinates>
13.03756686,47.53005859,2109.75
13.03757539,47.53006845,2108.48
13.03758593,47.53007088,2103.60
</coordinates></LineString>
<LineString><altitudeMode>absolute</altitudeMode><coordinates>
13.03758593,47.53007088,2103.60
13.03759067,47.53007204,2101.63
</coordinates></LineString>
<LineString><altitudeMode>absolute</altitudeMode><coordinates>
13.03753008,47.53007919,2109.60
13.03753707,47.53009488,2108.67
</coordinates></LineString>
<LineString><altitudeMode>absolute</altitudeMode><coordinates>
13.03753707,47.53009488,2108.67
13.03751749,47.53011047,2108.30
</coordinates></LineString>
<LineString><altitudeMode>absolute</altitudeMode><coordinates>
13.03751749,47.53011047,2108.30
13.03749572,47.53013494,2107.35
</coordinates></LineString>
<LineString><altitudeMode>absolute</altitudeMode><coordinates>
13.03749572,47.53013494,2107.35
13.03750017,47.53014734,2107.49
</coordinates></LineString>
<LineString><altitudeMode>absolute</altitudeMode><coordinates>
13.03750017,47.53014734,2107.49
13.03747651,47.53015467,2105.94
</coordinates></LineString>
<LineString><altitudeMode>absolute</altitudeMode><coordinates>
13.03747651,47.53015467,2105.94
13.03745947,47.53017355,2104.01
</coordinates></LineString>
<LineString><altitudeMode>absolute</altitudeMode><coordinates>
13.03745947,47.53017355,2104.01
13.03744747,47.53018522,2103.48
</coordinates></LineString></MultiGeometry></Placemark>
</Document></kml>
