<?xml version="1.0" encoding="UTF-8"?>
<gpx version="1.0" creator="survex 1.4.17 (aven) - https://survex.com/" xmlns:xsi="http://www.w3.org/2001/XMLSchema-instance" xmlns="http://www.topografix.com/GPX/1/0" xsi:schemaLocation="http://www.topografix.com/GPX/1/0 http://www.topografix.com/GPX/1/0/gpx.xsd">
<name>565-master</name>
<time>2025-05-25T22:29:07Z</time>
<trk><name>565-master</name><trkseg>
<trkpt lon="13.03762161" lat="47.53000832"><ele>2122.00</ele></trkpt>
<trkpt lon="13.03760607" lat="47.53000833"><ele>2120.09</ele></trkpt>
<trkpt lon="13.03758769" lat="47.53002376"><ele>2117.90</ele></trkpt>
<trkpt lon="13.03757395" lat="47.53003585"><ele>2115.99</ele></trkpt>
<trkpt lon="13.03756154" lat="47.53004446"><ele>2115.14</ele></trkpt>
<trkpt lon="13.03757276" lat="47.53005356"><ele>2114.51</ele></trkpt>
<trkpt lon="13.03752523" lat="47.53006327"><ele>2112.61</ele></trkpt>
<trkpt lon="13.03753008" lat="47.53007919"><ele>2109.60</ele></trkpt>
<trkpt lon="13.03756686" lat="47.53005859"><ele>2109.75</ele></trkpt>
<trkpt lon="13.03756337" lat="47.53006303"><ele>2111.80</ele></trkpt>
<trkpt lon="13.03752538" lat="47.53006274"><ele>2112.56</ele></trkpt>
</trkseg><trkseg>
<trkpt lon="13.03753008" lat="47.53007919"><ele>2109.60</ele></trkpt>
<trkpt lon="13.03750929" lat="47.53008811"><ele>2112.58</ele></trkpt>
</trkseg><trkseg>
<trkpt lon="13.03756686" lat="47.53005859"><ele>2109.75</ele></trkpt>
<trkpt lon="13.03757539" lat="47.53006845"><ele>2108.48</ele></trkpt>
<trkpt lon="13.03758593" lat="47.53007088"><ele>2103.60</ele></trkpt>
</trkseg><trkseg>
<trkpt lon="13.03758593" lat="47.53007088"><ele>2103.60</ele></trkpt>
<trkpt lon="13.03759067" lat="47.53007204"><ele>2101.63</ele></trkpt>
</trkseg><trkseg>
<trkpt lon="13.03753008" lat="47.53007919"><ele>2109.60</ele></trkpt>
<trkpt lon="13.03753707" lat="47.53009488"><ele>2108.67</ele></trkpt>
</trkseg><trkseg>
<trkpt lon="13.03753707" lat="47.53009488"><ele>2108.67</ele></trkpt>
<trkpt lon="13.03751749" lat="47.53011047"><ele>2108.30</ele></trkpt>
</trkseg><trkseg>
<trkpt lon="13.03751749" lat="47.53011047"><ele>2108.30</ele></trkpt>
<trkpt lon="13.03749572" lat="47.53013494"><ele>2107.35</ele></trkpt>
</trkseg><trkseg>
<trkpt lon="13.03749572" lat="47.53013494"><ele>2107.35</ele></trkpt>
<trkpt lon="13.03750017" lat="47.53014734"><ele>2107.49</ele></trkpt>
</trkseg><trkseg>
<trkpt lon="13.03750017" lat="47.53014734"><ele>2107.49</ele></trkpt>
<trkpt lon="13.03747651" lat="47.53015467"><ele>2105.94</ele></trkpt>
</trkseg><trkseg>
<trkpt lon="13.03747651" lat="47.53015467"><ele>2105.94</ele></trkpt>
<trkpt lon="13.03745947" lat="47.53017355"><ele>2104.01</ele></trkpt>
</trkseg><trkseg>
<trkpt lon="13.03745947" lat="47.53017355"><ele>2104.01</ele></trkpt>
<trkpt lon="13.03744747" lat="47.53018522"><ele>2103.48</ele></trkpt>
</trkseg></trk>
</gpx>
