<?xml version="1.0" encoding="UTF-8"?>
<gpx version="1.0" creator="survex 1.4.17 (aven) - https://survex.com/" xmlns:xsi="http://www.w3.org/2001/XMLSchema-instance" xmlns="http://www.topografix.com/GPX/1/0" xsi:schemaLocation="http://www.topografix.com/GPX/1/0 http://www.topografix.com/GPX/1/0/gpx.xsd">
<name>343-master</name>
<time>2025-06-23T19:15:24Z</time>
<trk><name>343-master</name><trkseg>
<trkpt lon="13.04674997" lat="47.52808334"><ele>2022.00</ele></trkpt>
<trkpt lon="13.04673526" lat="47.52806815"><ele>2006.24</ele></trkpt>
<trkpt lon="13.04673615" lat="47.52804423"><ele>2006.61</ele></trkpt>
<trkpt lon="13.04673514" lat="47.52804646"><ele>2004.63</ele></trkpt>
</trkseg></trk>
</gpx>
