<?xml version="1.0" encoding="UTF-8"?>
<gpx version="1.0" creator="survex 1.4.17 (aven) - https://survex.com/" xmlns:xsi="http://www.w3.org/2001/XMLSchema-instance" xmlns="http://www.topografix.com/GPX/1/0" xsi:schemaLocation="http://www.topografix.com/GPX/1/0 http://www.topografix.com/GPX/1/0/gpx.xsd">
<name>579-master</name>
<time>2025-06-23T19:15:44Z</time>
<trk><name>579-master</name><trkseg>
<trkpt lon="13.04700627" lat="47.52041918"><ele>2084.59</ele></trkpt>
<trkpt lon="13.04694961" lat="47.52045682"><ele>2079.99</ele></trkpt>
<trkpt lon="13.04701154" lat="47.52044906"><ele>2081.46</ele></trkpt>
<trkpt lon="13.04703394" lat="47.52044305"><ele>2082.89</ele></trkpt>
<trkpt lon="13.04700627" lat="47.52041918"><ele>2084.59</ele></trkpt>
</trkseg><trkseg>
<trkpt lon="13.04805590" lat="47.52010898"><ele>2134.00</ele></trkpt>
<trkpt lon="13.04805402" lat="47.52011660"><ele>2132.63</ele></trkpt>
<trkpt lon="13.04804918" lat="47.52012542"><ele>2131.09</ele></trkpt>
<trkpt lon="13.04802352" lat="47.52013308"><ele>2129.94</ele></trkpt>
<trkpt lon="13.04798996" lat="47.52016041"><ele>2129.11</ele></trkpt>
<trkpt lon="13.04801579" lat="47.52017686"><ele>2127.99</ele></trkpt>
<trkpt lon="13.04805023" lat="47.52020796"><ele>2126.80</ele></trkpt>
<trkpt lon="13.04798379" lat="47.52020520"><ele>2125.86</ele></trkpt>
<trkpt lon="13.04791475" lat="47.52022922"><ele>2121.82</ele></trkpt>
<trkpt lon="13.04787751" lat="47.52024488"><ele>2120.58</ele></trkpt>
<trkpt lon="13.04782130" lat="47.52018084"><ele>2118.89</ele></trkpt>
<trkpt lon="13.04781559" lat="47.52017013"><ele>2118.99</ele></trkpt>
<trkpt lon="13.04774035" lat="47.52019296"><ele>2116.72</ele></trkpt>
<trkpt lon="13.04768679" lat="47.52021158"><ele>2116.49</ele></trkpt>
<trkpt lon="13.04773615" lat="47.52024535"><ele>2116.89</ele></trkpt>
<trkpt lon="13.04764553" lat="47.52029258"><ele>2113.59</ele></trkpt>
<trkpt lon="13.04763566" lat="47.52028998"><ele>2103.93</ele></trkpt>
<trkpt lon="13.04759405" lat="47.52028378"><ele>2098.70</ele></trkpt>
<trkpt lon="13.04761306" lat="47.52025468"><ele>2093.91</ele></trkpt>
<trkpt lon="13.04758626" lat="47.52023596"><ele>2093.02</ele></trkpt>
<trkpt lon="13.04751742" lat="47.52024045"><ele>2092.53</ele></trkpt>
<trkpt lon="13.04750353" lat="47.52023887"><ele>2089.01</ele></trkpt>
<trkpt lon="13.04747756" lat="47.52025507"><ele>2090.21</ele></trkpt>
<trkpt lon="13.04749995" lat="47.52031385"><ele>2089.72</ele></trkpt>
<trkpt lon="13.04747287" lat="47.52035973"><ele>2086.93</ele></trkpt>
<trkpt lon="13.04741375" lat="47.52038158"><ele>2088.76</ele></trkpt>
<trkpt lon="13.04737374" lat="47.52032133"><ele>2088.14</ele></trkpt>
<trkpt lon="13.04731774" lat="47.52036276"><ele>2086.56</ele></trkpt>
<trkpt lon="13.04724757" lat="47.52036364"><ele>2085.95</ele></trkpt>
<trkpt lon="13.04719638" lat="47.52034342"><ele>2086.48</ele></trkpt>
<trkpt lon="13.04715833" lat="47.52037381"><ele>2086.31</ele></trkpt>
<trkpt lon="13.04711802" lat="47.52037169"><ele>2087.89</ele></trkpt>
<trkpt lon="13.04706832" lat="47.52040809"><ele>2089.62</ele></trkpt>
<trkpt lon="13.04702197" lat="47.52036114"><ele>2089.29</ele></trkpt>
<trkpt lon="13.04700627" lat="47.52041918"><ele>2084.59</ele></trkpt>
</trkseg><trkseg>
<trkpt lon="13.04694961" lat="47.52045682"><ele>2079.99</ele></trkpt>
<trkpt lon="13.04692891" lat="47.52047420"><ele>2080.04</ele></trkpt>
<trkpt lon="13.04683295" lat="47.52053987"><ele>2083.97</ele></trkpt>
<trkpt lon="13.04683837" lat="47.52058720"><ele>2084.30</ele></trkpt>
<trkpt lon="13.04686984" lat="47.52061986"><ele>2082.43</ele></trkpt>
</trkseg><trkseg>
<trkpt lon="13.04683837" lat="47.52058720"><ele>2084.30</ele></trkpt>
<trkpt lon="13.04672711" lat="47.52061428"><ele>2085.51</ele></trkpt>
<trkpt lon="13.04666507" lat="47.52057858"><ele>2086.84</ele></trkpt>
<trkpt lon="13.04658455" lat="47.52057928"><ele>2089.50</ele></trkpt>
<trkpt lon="13.04660763" lat="47.52064095"><ele>2089.07</ele></trkpt>
<trkpt lon="13.04652903" lat="47.52065761"><ele>2092.55</ele></trkpt>
<trkpt lon="13.04645552" lat="47.52065915"><ele>2097.58</ele></trkpt>
<trkpt lon="13.04646405" lat="47.52059765"><ele>2100.09</ele></trkpt>
<trkpt lon="13.04655716" lat="47.52061562"><ele>2102.40</ele></trkpt>
<trkpt lon="13.04652082" lat="47.52067133"><ele>2099.78</ele></trkpt>
</trkseg><trkseg>
<trkpt lon="13.04719638" lat="47.52034342"><ele>2086.48</ele></trkpt>
<trkpt lon="13.04718116" lat="47.52032759"><ele>2086.63</ele></trkpt>
<trkpt lon="13.04716966" lat="47.52030472"><ele>2086.35</ele></trkpt>
<trkpt lon="13.04716470" lat="47.52030238"><ele>2086.22</ele></trkpt>
<trkpt lon="13.04716799" lat="47.52028894"><ele>2077.35</ele></trkpt>
</trkseg><trkseg>
<trkpt lon="13.04768679" lat="47.52021158"><ele>2116.49</ele></trkpt>
<trkpt lon="13.04768501" lat="47.52018437"><ele>2117.53</ele></trkpt>
<trkpt lon="13.04769098" lat="47.52018474"><ele>2112.25</ele></trkpt>
</trkseg><trkseg>
<trkpt lon="13.04768501" lat="47.52018437"><ele>2117.53</ele></trkpt>
<trkpt lon="13.04764193" lat="47.52016060"><ele>2117.18</ele></trkpt>
<trkpt lon="13.04764386" lat="47.52015505"><ele>2111.94</ele></trkpt>
</trkseg><trkseg>
<trkpt lon="13.04645552" lat="47.52065915"><ele>2097.58</ele></trkpt>
<trkpt lon="13.04646597" lat="47.52065671"><ele>2095.78</ele></trkpt>
</trkseg><trkseg>
<trkpt lon="13.04646597" lat="47.52065671"><ele>2095.78</ele></trkpt>
<trkpt lon="13.04650515" lat="47.52069626"><ele>2097.17</ele></trkpt>
</trkseg><trkseg>
<trkpt lon="13.04672711" lat="47.52061428"><ele>2085.51</ele></trkpt>
<trkpt lon="13.04673915" lat="47.52061548"><ele>2085.81</ele></trkpt>
<trkpt lon="13.04674099" lat="47.52063396"><ele>2084.72</ele></trkpt>
</trkseg><trkseg>
<trkpt lon="13.04674099" lat="47.52063396"><ele>2084.72</ele></trkpt>
<trkpt lon="13.04676566" lat="47.52064580"><ele>2084.60</ele></trkpt>
</trkseg><trkseg>
<trkpt lon="13.04676566" lat="47.52064580"><ele>2084.60</ele></trkpt>
<trkpt lon="13.04675190" lat="47.52066942"><ele>2084.52</ele></trkpt>
</trkseg><trkseg>
<trkpt lon="13.04675190" lat="47.52066942"><ele>2084.52</ele></trkpt>
<trkpt lon="13.04674173" lat="47.52068922"><ele>2084.60</ele></trkpt>
</trkseg><trkseg>
<trkpt lon="13.04674173" lat="47.52068922"><ele>2084.60</ele></trkpt>
<trkpt lon="13.04675798" lat="47.52069885"><ele>2084.67</ele></trkpt>
</trkseg><trkseg>
<trkpt lon="13.04673915" lat="47.52061548"><ele>2085.81</ele></trkpt>
<trkpt lon="13.04676629" lat="47.52061459"><ele>2083.69</ele></trkpt>
</trkseg><trkseg>
<trkpt lon="13.04692891" lat="47.52047420"><ele>2080.04</ele></trkpt>
<trkpt lon="13.04691177" lat="47.52044565"><ele>2078.77</ele></trkpt>
<trkpt lon="13.04688845" lat="47.52044048"><ele>2076.59</ele></trkpt>
</trkseg><trkseg>
<trkpt lon="13.04688845" lat="47.52044048"><ele>2076.59</ele></trkpt>
<trkpt lon="13.04689939" lat="47.52042861"><ele>2075.53</ele></trkpt>
</trkseg><trkseg>
<trkpt lon="13.04741375" lat="47.52038158"><ele>2088.76</ele></trkpt>
<trkpt lon="13.04745046" lat="47.52040524"><ele>2087.99</ele></trkpt>
</trkseg><trkseg>
<trkpt lon="13.04745046" lat="47.52040524"><ele>2087.99</ele></trkpt>
<trkpt lon="13.04743248" lat="47.52042806"><ele>2089.73</ele></trkpt>
</trkseg><trkseg>
<trkpt lon="13.04805023" lat="47.52020796"><ele>2126.80</ele></trkpt>
<trkpt lon="13.04808066" lat="47.52017545"><ele>2128.49</ele></trkpt>
</trkseg><trkseg>
<trkpt lon="13.04808066" lat="47.52017545"><ele>2128.49</ele></trkpt>
<trkpt lon="13.04812116" lat="47.52014725"><ele>2129.95</ele></trkpt>
</trkseg><trkseg>
<trkpt lon="13.04812116" lat="47.52014725"><ele>2129.95</ele></trkpt>
<trkpt lon="13.04811714" lat="47.52013765"><ele>2132.51</ele></trkpt>
</trkseg></trk>
</gpx>
