<?xml version="1.0" encoding="UTF-8"?>
<kml xmlns="http://www.opengis.net/kml/2.2">
<Document><name>579-master</name>
<Style id="fix"><IconStyle><Icon><href>https://maps.google.com/mapfiles/kml/paddle/red-blank.png</href></Icon><color>ff0000ff</color><hotSpot x="32" y="1" xunits="pixels" yunits="pixels"/></IconStyle></Style>
<Style id="exp"><IconStyle><Icon><href>https://maps.google.com/mapfiles/kml/paddle/blu-blank.png</href></Icon><color>ffff0000</color><hotSpot x="32" y="1" xunits="pixels" yunits="pixels"/></IconStyle></Style>
<Style id="ent"><IconStyle><Icon><href>https://maps.google.com/mapfiles/kml/paddle/grn-blank.png</href></Icon><color>ff00ff00</color><hotSpot x="32" y="1" xunits="pixels" yunits="pixels"/></IconStyle></Style>
<Style id="surf"><LineStyle><color>ff00ff00</color></LineStyle></Style>
<Style id="splay"><LineStyle><color>40ff00ff</color></LineStyle></Style>
<Placemark><MultiGeometry><LineString><altitudeMode>absolute</altitudeMode><coordinates>
13.04700627,47.52041918,2084.59
13.04694961,47.52045682,2079.99
13.04701154,47.52044906,2081.46
13.04703394,47.52044305,2082.89
13.04700627,47.52041918,2084.59
</coordinates></LineString>
<LineString><altitudeMode>absolute</altitudeMode><coordinates>
13.04805590,47.52010898,2134.00
13.04805402,47.52011660,2132.63
13.04804918,47.52012542,2131.09
13.04802352,47.52013308,2129.94
13.04798996,47.52016041,2129.11
13.04801579,47.52017686,2127.99
13.04805023,47.52020796,2126.80
13.04798379,47.52020520,2125.86
13.04791475,47.52022922,2121.82
13.04787751,47.52024488,2120.58
13.04782130,47.52018084,2118.89
13.04781559,47.52017013,2118.99
13.04774035,47.52019296,2116.72
13.04768679,47.52021158,2116.49
13.04773615,47.52024535,2116.89
13.04764553,47.52029258,2113.59
13.04763566,47.52028998,2103.93
13.04759405,47.52028378,2098.70
13.04761306,47.52025468,2093.91
13.04758626,47.52023596,2093.02
13.04751742,47.52024045,2092.53
13.04750353,47.52023887,2089.01
13.04747756,47.52025507,2090.21
13.04749995,47.52031385,2089.72
13.04747287,47.52035973,2086.93
13.04741375,47.52038158,2088.76
13.04737374,47.52032133,2088.14
13.04731774,47.52036276,2086.56
13.04724757,47.52036364,2085.95
13.04719638,47.52034342,2086.48
13.04715833,47.52037381,2086.31
13.04711802,47.52037169,2087.89
13.04706832,47.52040809,2089.62
13.04702197,47.52036114,2089.29
13.04700627,47.52041918,2084.59
</coordinates></LineString>
<LineString><altitudeMode>absolute</altitudeMode><coordinates>
13.04694961,47.52045682,2079.99
13.04692891,47.52047420,2080.04
13.04683295,47.52053987,2083.97
13.04683837,47.52058720,2084.30
13.04686984,47.52061986,2082.43
</coordinates></LineString>
<LineString><altitudeMode>absolute</altitudeMode><coordinates>
13.04683837,47.52058720,2084.30
13.04672711,47.52061428,2085.51
13.04666507,47.52057858,2086.84
13.04658455,47.52057928,2089.50
13.04660763,47.52064095,2089.07
13.04652903,47.52065761,2092.55
13.04645552,47.52065915,2097.58
13.04646405,47.52059765,2100.09
13.04655716,47.52061562,2102.40
13.04652082,47.52067133,2099.78
</coordinates></LineString>
<LineString><altitudeMode>absolute</altitudeMode><coordinates>
13.04719638,47.52034342,2086.48
13.04718116,47.52032759,2086.63
13.04716966,47.52030472,2086.35
13.04716470,47.52030238,2086.22
13.04716799,47.52028894,2077.35
</coordinates></LineString>
<LineString><altitudeMode>absolute</altitudeMode><coordinates>
13.04768679,47.52021158,2116.49
13.04768501,47.52018437,2117.53
13.04769098,47.52018474,2112.25
</coordinates></LineString>
<LineString><altitudeMode>absolute</altitudeMode><coordinates>
13.04768501,47.52018437,2117.53
13.04764193,47.52016060,2117.18
13.04764386,47.52015505,2111.94
</coordinates></LineString>
<LineString><altitudeMode>absolute</altitudeMode><coordinates>
13.04645552,47.52065915,2097.58
13.04646597,47.52065671,2095.78
</coordinates></LineString>
<LineString><altitudeMode>absolute</altitudeMode><coordinates>
13.04646597,47.52065671,2095.78
13.04650515,47.52069626,2097.17
</coordinates></LineString>
<LineString><altitudeMode>absolute</altitudeMode><coordinates>
13.04672711,47.52061428,2085.51
13.04673915,47.52061548,2085.81
13.04674099,47.52063396,2084.72
</coordinates></LineString>
<LineString><altitudeMode>absolute</altitudeMode><coordinates>
13.04674099,47.52063396,2084.72
13.04676566,47.52064580,2084.60
</coordinates></LineString>
<LineString><altitudeMode>absolute</altitudeMode><coordinates>
13.04676566,47.52064580,2084.60
13.04675190,47.52066942,2084.52
</coordinates></LineString>
<LineString><altitudeMode>absolute</altitudeMode><coordinates>
13.04675190,47.52066942,2084.52
13.04674173,47.52068922,2084.60
</coordinates></LineString>
<LineString><altitudeMode>absolute</altitudeMode><coordinates>
13.04674173,47.52068922,2084.60
13.04675798,47.52069885,2084.67
</coordinates></LineString>
<LineString><altitudeMode>absolute</altitudeMode><coordinates>
13.04673915,47.52061548,2085.81
13.04676629,47.52061459,2083.69
</coordinates></LineString>
<LineString><altitudeMode>absolute</altitudeMode><coordinates>
13.04692891,47.52047420,2080.04
13.04691177,47.52044565,2078.77
13.04688845,47.52044048,2076.59
</coordinates></LineString>
<LineString><altitudeMode>absolute</altitudeMode><coordinates>
13.04688845,47.52044048,2076.59
13.04689939,47.52042861,2075.53
</coordinates></LineString>
<LineString><altitudeMode>absolute</altitudeMode><coordinates>
13.04741375,47.52038158,2088.76
13.04745046,47.52040524,2087.99
</coordinates></LineString>
<LineString><altitudeMode>absolute</altitudeMode><coordinates>
13.04745046,47.52040524,2087.99
13.04743248,47.52042806,2089.73
</coordinates></LineString>
<LineString><altitudeMode>absolute</altitudeMode><coordinates>
13.04805023,47.52020796,2126.80
13.04808066,47.52017545,2128.49
</coordinates></LineString>
<LineString><altitudeMode>absolute</altitudeMode><coordinates>
13.04808066,47.52017545,2128.49
13.04812116,47.52014725,2129.95
</coordinates></LineString>
<LineString><altitudeMode>absolute</altitudeMode><coordinates>
13.04812116,47.52014725,2129.95
13.04811714,47.52013765,2132.51
</coordinates></LineString></MultiGeometry></Placemark>
</Document></kml>
