<?xml version="1.0" encoding="UTF-8"?>
<kml xmlns="http://www.opengis.net/kml/2.2">
<Document><name>504-master</name>
<Style id="fix"><IconStyle><Icon><href>https://maps.google.com/mapfiles/kml/paddle/red-blank.png</href></Icon><color>ff0000ff</color><hotSpot x="32" y="1" xunits="pixels" yunits="pixels"/></IconStyle></Style>
<Style id="exp"><IconStyle><Icon><href>https://maps.google.com/mapfiles/kml/paddle/blu-blank.png</href></Icon><color>ffff0000</color><hotSpot x="32" y="1" xunits="pixels" yunits="pixels"/></IconStyle></Style>
<Style id="ent"><IconStyle><Icon><href>https://maps.google.com/mapfiles/kml/paddle/grn-blank.png</href></Icon><color>ff00ff00</color><hotSpot x="32" y="1" xunits="pixels" yunits="pixels"/></IconStyle></Style>
<Style id="surf"><LineStyle><color>ff00ff00</color></LineStyle></Style>
<Style id="splay"><LineStyle><color>40ff00ff</color></LineStyle></Style>
<Placemark><MultiGeometry><LineString><altitudeMode>absolute</altitudeMode><coordinates>
13.05324745,47.52901586,1746.06
13.05323248,47.52903621,1743.43
13.05324529,47.52906351,1739.99
13.05324529,47.52906360,1739.99
</coordinates></LineString>
<LineString><altitudeMode>absolute</altitudeMode><coordinates>
13.05324745,47.52901586,1746.06
13.05321979,47.52901674,1734.70
13.05322006,47.52901656,1734.69
13.05321998,47.52904023,1733.80
13.05321255,47.52904721,1740.04
13.05324501,47.52906378,1740.00
13.05324529,47.52906360,1739.99
</coordinates></LineString>
<LineString><altitudeMode>absolute</altitudeMode><coordinates>
13.05320391,47.52899685,1766.26
13.05321983,47.52899748,1767.44
13.05322119,47.52903620,1764.76
13.05325622,47.52901943,1758.89
13.05322868,47.52901707,1757.47
13.05320905,47.52901611,1756.70
13.05322592,47.52901261,1751.34
13.05324745,47.52901586,1746.06
</coordinates></LineString>
<LineString><altitudeMode>absolute</altitudeMode><coordinates>
13.05320391,47.52899685,1766.26
13.05323151,47.52905167,1765.84
13.05321060,47.52906742,1763.02
13.05320325,47.52908295,1748.42
</coordinates></LineString>
<LineString><altitudeMode>absolute</altitudeMode><coordinates>
13.05320325,47.52908295,1748.42
13.05323604,47.52907289,1746.05
13.05324529,47.52906360,1739.99
</coordinates></LineString>
<LineString><altitudeMode>absolute</altitudeMode><coordinates>
13.05316668,47.52945001,2012.00
13.05318000,47.52946337,2010.51
13.05317326,47.52945525,2009.38
13.05317180,47.52946602,2006.58
13.05314576,47.52944794,2003.65
13.05313613,47.52943536,2002.15
13.05310712,47.52942947,1999.58
13.05311673,47.52940669,1998.31
13.05308710,47.52942121,1996.68
13.05307389,47.52941919,1993.61
13.05306972,47.52942425,1992.36
13.05309642,47.52940985,1991.57
13.05307157,47.52944236,1986.97
13.05310702,47.52944648,1985.46
13.05311974,47.52942249,1982.75
13.05311055,47.52943727,1980.47
13.05311320,47.52941599,1978.06
13.05311642,47.52940434,1975.81
13.05311141,47.52941056,1976.19
</coordinates></LineString>
<LineString><altitudeMode>absolute</altitudeMode><coordinates>
13.05311141,47.52941056,1976.19
13.05311153,47.52939661,1974.92
13.05313126,47.52936959,1967.69
</coordinates></LineString>
<LineString><altitudeMode>absolute</altitudeMode><coordinates>
13.05313126,47.52936959,1967.69
13.05309107,47.52936423,1965.84
13.05308128,47.52935938,1963.35
13.05305140,47.52934466,1962.27
13.05304313,47.52933489,1962.40
13.05303669,47.52932236,1961.16
13.05300568,47.52932013,1958.19
13.05300630,47.52932140,1959.85
13.05300524,47.52931058,1956.81
13.05301745,47.52928568,1954.70
13.05301827,47.52926725,1953.33
13.05301392,47.52925908,1952.25
13.05305812,47.52923868,1946.84
13.05305812,47.52923868,1946.84
13.05303907,47.52922918,1946.70
13.05302385,47.52921695,1945.85
</coordinates></LineString>
<LineString><altitudeMode>absolute</altitudeMode><coordinates>
13.05302385,47.52921695,1945.85
13.05304106,47.52919709,1945.22
13.05300173,47.52918643,1941.31
13.05300527,47.52916256,1939.59
13.05303427,47.52915063,1941.97
13.05304589,47.52912743,1941.38
13.05309460,47.52912520,1938.12
13.05312125,47.52910883,1938.84
13.05312630,47.52910522,1932.98
13.05314573,47.52908999,1932.60
13.05316274,47.52908641,1932.66
13.05316708,47.52909818,1933.05
13.05319824,47.52907846,1930.87
13.05324268,47.52908749,1930.03
13.05322182,47.52907661,1913.22
13.05321474,47.52905265,1915.64
</coordinates></LineString>
<LineString><altitudeMode>absolute</altitudeMode><coordinates>
13.05321474,47.52905265,1915.64
13.05319500,47.52904034,1909.11
13.05318328,47.52902305,1902.90
13.05314475,47.52902311,1897.63
13.05312436,47.52901053,1896.10
13.05310782,47.52901952,1892.79
13.05308992,47.52902929,1891.95
13.05306800,47.52903648,1893.03
13.05305433,47.52904317,1890.03
13.05300396,47.52906517,1884.11
13.05300937,47.52907696,1880.37
13.05299920,47.52909326,1880.81
13.05300419,47.52911287,1879.19
13.05299282,47.52911483,1876.72
13.05299624,47.52909771,1866.55
13.05297181,47.52905419,1849.39
13.05301350,47.52903006,1848.40
13.05303227,47.52903983,1840.73
13.05306582,47.52902717,1828.41
13.05302885,47.52902438,1822.14
13.05306476,47.52901977,1813.45
13.05313236,47.52904927,1802.20
</coordinates></LineString>
<LineString><altitudeMode>absolute</altitudeMode><coordinates>
13.05313236,47.52904927,1802.20
13.05318166,47.52901663,1779.46
13.05320391,47.52899685,1766.26
</coordinates></LineString>
<LineString><altitudeMode>absolute</altitudeMode><coordinates>
13.05311673,47.52940669,1998.31
13.05311173,47.52939472,1997.10
13.05311179,47.52937862,1995.72
13.05307908,47.52938652,1995.07
</coordinates></LineString>
<LineString><altitudeMode>absolute</altitudeMode><coordinates>
13.05313613,47.52943536,2002.15
13.05311057,47.52943673,2001.98
</coordinates></LineString>
<LineString><altitudeMode>absolute</altitudeMode><coordinates>
13.05311057,47.52943673,2001.98
13.05310856,47.52946243,2002.79
</coordinates></LineString>
<LineString><altitudeMode>absolute</altitudeMode><coordinates>
13.05310856,47.52946243,2002.79
13.05312267,47.52947950,2003.57
</coordinates></LineString>
<LineString><altitudeMode>absolute</altitudeMode><coordinates>
13.05312267,47.52947950,2003.57
13.05313433,47.52949130,2005.87
</coordinates></LineString>
<LineString><altitudeMode>absolute</altitudeMode><coordinates>
13.05313433,47.52949130,2005.87
13.05314748,47.52950205,2005.92
</coordinates></LineString>
<LineString><altitudeMode>absolute</altitudeMode><coordinates>
13.05306972,47.52942425,1992.36
13.05305558,47.52943633,1992.58
</coordinates></LineString>
<LineString><altitudeMode>absolute</altitudeMode><coordinates>
13.05305558,47.52943633,1992.58
13.05303807,47.52943208,1993.65
</coordinates></LineString>
<LineString><altitudeMode>absolute</altitudeMode><coordinates>
13.05303807,47.52943208,1993.65
13.05303124,47.52942629,1993.27
</coordinates></LineString>
<LineString><altitudeMode>absolute</altitudeMode><coordinates>
13.05305812,47.52923868,1946.84
13.05307292,47.52925882,1949.08
</coordinates></LineString>
<LineString><altitudeMode>absolute</altitudeMode><coordinates>
13.05307292,47.52925882,1949.08
13.05306954,47.52922088,1951.12
</coordinates></LineString>
<LineString><altitudeMode>absolute</altitudeMode><coordinates>
13.05306954,47.52922088,1951.12
13.05308920,47.52924605,1950.29
13.05312660,47.52922617,1950.49
</coordinates></LineString>
<LineString><altitudeMode>absolute</altitudeMode><coordinates>
13.05318166,47.52901663,1779.46
13.05321233,47.52902786,1781.63
13.05323528,47.52898587,1782.34
13.05326202,47.52897768,1780.95
13.05325767,47.52898751,1775.13
13.05327452,47.52896665,1775.08
13.05331935,47.52895787,1768.87
13.05334974,47.52895893,1766.52
13.05335481,47.52895811,1765.54
</coordinates></LineString>
<LineString><altitudeMode>absolute</altitudeMode><coordinates>
13.05331935,47.52895787,1768.87
13.05328888,47.52896995,1768.16
13.05329918,47.52896428,1764.20
</coordinates></LineString>
<LineString><altitudeMode>absolute</altitudeMode><coordinates>
13.05321233,47.52902786,1781.63
13.05317482,47.52904702,1777.67
13.05317639,47.52905118,1773.40
13.05317992,47.52908508,1773.87
13.05315349,47.52910290,1771.85
</coordinates></LineString>
<LineString><altitudeMode>absolute</altitudeMode><coordinates>
13.05321233,47.52902786,1781.63
13.05323980,47.52901456,1780.86
</coordinates></LineString>
<LineString><altitudeMode>absolute</altitudeMode><coordinates>
13.05320391,47.52899685,1766.26
13.05317887,47.52899877,1767.31
</coordinates></LineString>
<LineString><altitudeMode>absolute</altitudeMode><coordinates>
13.05324529,47.52906360,1739.99
13.05321703,47.52909111,1741.58
13.05323687,47.52912231,1742.75
13.05322088,47.52913428,1744.55
13.05322088,47.52913428,1744.55
13.05320040,47.52914913,1749.41
13.05317548,47.52917283,1752.53
</coordinates></LineString>
<LineString><altitudeMode>absolute</altitudeMode><coordinates>
13.05322006,47.52901656,1734.69
13.05326407,47.52905159,1733.84
</coordinates></LineString>
<LineString><altitudeMode>absolute</altitudeMode><coordinates>
13.05322088,47.52913428,1744.55
13.05323086,47.52915181,1744.43
</coordinates></LineString>
<LineString><altitudeMode>absolute</altitudeMode><coordinates>
13.05323086,47.52915181,1744.43
13.05320890,47.52915648,1732.56
</coordinates></LineString>
<LineString><altitudeMode>absolute</altitudeMode><coordinates>
13.05320890,47.52915648,1732.56
13.05318360,47.52914714,1727.43
</coordinates></LineString>
<LineString><altitudeMode>absolute</altitudeMode><coordinates>
13.05318360,47.52914714,1727.43
13.05323077,47.52914344,1725.79
</coordinates></LineString>
<LineString><altitudeMode>absolute</altitudeMode><coordinates>
13.05323077,47.52914344,1725.79
13.05326051,47.52910822,1720.02
</coordinates></LineString>
<LineString><altitudeMode>absolute</altitudeMode><coordinates>
13.05326051,47.52910822,1720.02
13.05329299,47.52908133,1716.60
</coordinates></LineString>
<LineString><altitudeMode>absolute</altitudeMode><coordinates>
13.05329299,47.52908133,1716.60
13.05329132,47.52907266,1714.10
</coordinates></LineString>
<LineString><altitudeMode>absolute</altitudeMode><coordinates>
13.05302885,47.52902438,1822.14
13.05299348,47.52904322,1820.15
</coordinates></LineString>
<LineString><altitudeMode>absolute</altitudeMode><coordinates>
13.05299348,47.52904322,1820.15
13.05296474,47.52903724,1819.06
</coordinates></LineString>
<LineString><altitudeMode>absolute</altitudeMode><coordinates>
13.05296474,47.52903724,1819.06
13.05297679,47.52903457,1814.59
</coordinates></LineString>
<LineString><altitudeMode>absolute</altitudeMode><coordinates>
13.05297679,47.52903457,1814.59
13.05296745,47.52901776,1814.92
</coordinates></LineString>
<LineString><altitudeMode>absolute</altitudeMode><coordinates>
13.05329132,47.52907266,1714.10
13.05332801,47.52905403,1712.89
</coordinates></LineString>
<LineString><altitudeMode>absolute</altitudeMode><coordinates>
13.05332801,47.52905403,1712.89
13.05335209,47.52907126,1712.29
</coordinates></LineString>
<LineString><altitudeMode>absolute</altitudeMode><coordinates>
13.05335209,47.52907126,1712.29
13.05334600,47.52908151,1712.60
</coordinates></LineString>
<LineString><altitudeMode>absolute</altitudeMode><coordinates>
13.05334600,47.52908151,1712.60
13.05336691,47.52909446,1712.52
</coordinates></LineString>
<LineString><altitudeMode>absolute</altitudeMode><coordinates>
13.05336691,47.52909446,1712.52
13.05339942,47.52910275,1711.82
</coordinates></LineString>
<LineString><altitudeMode>absolute</altitudeMode><coordinates>
13.05339942,47.52910275,1711.82
13.05340938,47.52912794,1711.96
</coordinates></LineString>
<LineString><altitudeMode>absolute</altitudeMode><coordinates>
13.05340938,47.52912794,1711.96
13.05340482,47.52913983,1712.52
</coordinates></LineString>
<LineString><altitudeMode>absolute</altitudeMode><coordinates>
13.05340482,47.52913983,1712.52
13.05341554,47.52914442,1712.14
</coordinates></LineString>
<LineString><altitudeMode>absolute</altitudeMode><coordinates>
13.05341554,47.52914442,1712.14
13.05341250,47.52915130,1711.63
</coordinates></LineString>
<LineString><altitudeMode>absolute</altitudeMode><coordinates>
13.05341250,47.52915130,1711.63
13.05342238,47.52915704,1711.77
</coordinates></LineString>
<LineString><altitudeMode>absolute</altitudeMode><coordinates>
13.05342238,47.52915704,1711.77
13.05342187,47.52916018,1710.81
</coordinates></LineString>
<LineString><altitudeMode>absolute</altitudeMode><coordinates>
13.05342187,47.52916018,1710.81
13.05343435,47.52917110,1709.58
</coordinates></LineString>
<LineString><altitudeMode>absolute</altitudeMode><coordinates>
13.05302885,47.52902438,1822.14
13.05306640,47.52902583,1828.43
</coordinates></LineString>
<LineString><altitudeMode>absolute</altitudeMode><coordinates>
13.05320391,47.52899685,1766.26
13.05317875,47.52899831,1767.31
</coordinates></LineString></MultiGeometry></Placemark>
</Document></kml>
