<?xml version="1.0" encoding="UTF-8"?>
<gpx version="1.0" creator="survex 1.4.17 (aven) - https://survex.com/" xmlns:xsi="http://www.w3.org/2001/XMLSchema-instance" xmlns="http://www.topografix.com/GPX/1/0" xsi:schemaLocation="http://www.topografix.com/GPX/1/0 http://www.topografix.com/GPX/1/0/gpx.xsd">
<name>504-master</name>
<time>2025-06-23T19:15:38Z</time>
<trk><name>504-master</name><trkseg>
<trkpt lon="13.05324745" lat="47.52901586"><ele>1746.06</ele></trkpt>
<trkpt lon="13.05323248" lat="47.52903621"><ele>1743.43</ele></trkpt>
<trkpt lon="13.05324529" lat="47.52906351"><ele>1739.99</ele></trkpt>
<trkpt lon="13.05324529" lat="47.52906360"><ele>1739.99</ele></trkpt>
</trkseg><trkseg>
<trkpt lon="13.05324745" lat="47.52901586"><ele>1746.06</ele></trkpt>
<trkpt lon="13.05321979" lat="47.52901674"><ele>1734.70</ele></trkpt>
<trkpt lon="13.05322006" lat="47.52901656"><ele>1734.69</ele></trkpt>
<trkpt lon="13.05321998" lat="47.52904023"><ele>1733.80</ele></trkpt>
<trkpt lon="13.05321255" lat="47.52904721"><ele>1740.04</ele></trkpt>
<trkpt lon="13.05324501" lat="47.52906378"><ele>1740.00</ele></trkpt>
<trkpt lon="13.05324529" lat="47.52906360"><ele>1739.99</ele></trkpt>
</trkseg><trkseg>
<trkpt lon="13.05320391" lat="47.52899685"><ele>1766.26</ele></trkpt>
<trkpt lon="13.05321983" lat="47.52899748"><ele>1767.44</ele></trkpt>
<trkpt lon="13.05322119" lat="47.52903620"><ele>1764.76</ele></trkpt>
<trkpt lon="13.05325622" lat="47.52901943"><ele>1758.89</ele></trkpt>
<trkpt lon="13.05322868" lat="47.52901707"><ele>1757.47</ele></trkpt>
<trkpt lon="13.05320905" lat="47.52901611"><ele>1756.70</ele></trkpt>
<trkpt lon="13.05322592" lat="47.52901261"><ele>1751.34</ele></trkpt>
<trkpt lon="13.05324745" lat="47.52901586"><ele>1746.06</ele></trkpt>
</trkseg><trkseg>
<trkpt lon="13.05320391" lat="47.52899685"><ele>1766.26</ele></trkpt>
<trkpt lon="13.05323151" lat="47.52905167"><ele>1765.84</ele></trkpt>
<trkpt lon="13.05321060" lat="47.52906742"><ele>1763.02</ele></trkpt>
<trkpt lon="13.05320325" lat="47.52908295"><ele>1748.42</ele></trkpt>
</trkseg><trkseg>
<trkpt lon="13.05320325" lat="47.52908295"><ele>1748.42</ele></trkpt>
<trkpt lon="13.05323604" lat="47.52907289"><ele>1746.05</ele></trkpt>
<trkpt lon="13.05324529" lat="47.52906360"><ele>1739.99</ele></trkpt>
</trkseg><trkseg>
<trkpt lon="13.05316668" lat="47.52945001"><ele>2012.00</ele></trkpt>
<trkpt lon="13.05318000" lat="47.52946337"><ele>2010.51</ele></trkpt>
<trkpt lon="13.05317326" lat="47.52945525"><ele>2009.38</ele></trkpt>
<trkpt lon="13.05317180" lat="47.52946602"><ele>2006.58</ele></trkpt>
<trkpt lon="13.05314576" lat="47.52944794"><ele>2003.65</ele></trkpt>
<trkpt lon="13.05313613" lat="47.52943536"><ele>2002.15</ele></trkpt>
<trkpt lon="13.05310712" lat="47.52942947"><ele>1999.58</ele></trkpt>
<trkpt lon="13.05311673" lat="47.52940669"><ele>1998.31</ele></trkpt>
<trkpt lon="13.05308710" lat="47.52942121"><ele>1996.68</ele></trkpt>
<trkpt lon="13.05307389" lat="47.52941919"><ele>1993.61</ele></trkpt>
<trkpt lon="13.05306972" lat="47.52942425"><ele>1992.36</ele></trkpt>
<trkpt lon="13.05309642" lat="47.52940985"><ele>1991.57</ele></trkpt>
<trkpt lon="13.05307157" lat="47.52944236"><ele>1986.97</ele></trkpt>
<trkpt lon="13.05310702" lat="47.52944648"><ele>1985.46</ele></trkpt>
<trkpt lon="13.05311974" lat="47.52942249"><ele>1982.75</ele></trkpt>
<trkpt lon="13.05311055" lat="47.52943727"><ele>1980.47</ele></trkpt>
<trkpt lon="13.05311320" lat="47.52941599"><ele>1978.06</ele></trkpt>
<trkpt lon="13.05311642" lat="47.52940434"><ele>1975.81</ele></trkpt>
<trkpt lon="13.05311141" lat="47.52941056"><ele>1976.19</ele></trkpt>
</trkseg><trkseg>
<trkpt lon="13.05311141" lat="47.52941056"><ele>1976.19</ele></trkpt>
<trkpt lon="13.05311153" lat="47.52939661"><ele>1974.92</ele></trkpt>
<trkpt lon="13.05313126" lat="47.52936959"><ele>1967.69</ele></trkpt>
</trkseg><trkseg>
<trkpt lon="13.05313126" lat="47.52936959"><ele>1967.69</ele></trkpt>
<trkpt lon="13.05309107" lat="47.52936423"><ele>1965.84</ele></trkpt>
<trkpt lon="13.05308128" lat="47.52935938"><ele>1963.35</ele></trkpt>
<trkpt lon="13.05305140" lat="47.52934466"><ele>1962.27</ele></trkpt>
<trkpt lon="13.05304313" lat="47.52933489"><ele>1962.40</ele></trkpt>
<trkpt lon="13.05303669" lat="47.52932236"><ele>1961.16</ele></trkpt>
<trkpt lon="13.05300568" lat="47.52932013"><ele>1958.19</ele></trkpt>
<trkpt lon="13.05300630" lat="47.52932140"><ele>1959.85</ele></trkpt>
<trkpt lon="13.05300524" lat="47.52931058"><ele>1956.81</ele></trkpt>
<trkpt lon="13.05301745" lat="47.52928568"><ele>1954.70</ele></trkpt>
<trkpt lon="13.05301827" lat="47.52926725"><ele>1953.33</ele></trkpt>
<trkpt lon="13.05301392" lat="47.52925908"><ele>1952.25</ele></trkpt>
<trkpt lon="13.05305812" lat="47.52923868"><ele>1946.84</ele></trkpt>
<trkpt lon="13.05305812" lat="47.52923868"><ele>1946.84</ele></trkpt>
<trkpt lon="13.05303907" lat="47.52922918"><ele>1946.70</ele></trkpt>
<trkpt lon="13.05302385" lat="47.52921695"><ele>1945.85</ele></trkpt>
</trkseg><trkseg>
<trkpt lon="13.05302385" lat="47.52921695"><ele>1945.85</ele></trkpt>
<trkpt lon="13.05304106" lat="47.52919709"><ele>1945.22</ele></trkpt>
<trkpt lon="13.05300173" lat="47.52918643"><ele>1941.31</ele></trkpt>
<trkpt lon="13.05300527" lat="47.52916256"><ele>1939.59</ele></trkpt>
<trkpt lon="13.05303427" lat="47.52915063"><ele>1941.97</ele></trkpt>
<trkpt lon="13.05304589" lat="47.52912743"><ele>1941.38</ele></trkpt>
<trkpt lon="13.05309460" lat="47.52912520"><ele>1938.12</ele></trkpt>
<trkpt lon="13.05312125" lat="47.52910883"><ele>1938.84</ele></trkpt>
<trkpt lon="13.05312630" lat="47.52910522"><ele>1932.98</ele></trkpt>
<trkpt lon="13.05314573" lat="47.52908999"><ele>1932.60</ele></trkpt>
<trkpt lon="13.05316274" lat="47.52908641"><ele>1932.66</ele></trkpt>
<trkpt lon="13.05316708" lat="47.52909818"><ele>1933.05</ele></trkpt>
<trkpt lon="13.05319824" lat="47.52907846"><ele>1930.87</ele></trkpt>
<trkpt lon="13.05324268" lat="47.52908749"><ele>1930.03</ele></trkpt>
<trkpt lon="13.05322182" lat="47.52907661"><ele>1913.22</ele></trkpt>
<trkpt lon="13.05321474" lat="47.52905265"><ele>1915.64</ele></trkpt>
</trkseg><trkseg>
<trkpt lon="13.05321474" lat="47.52905265"><ele>1915.64</ele></trkpt>
<trkpt lon="13.05319500" lat="47.52904034"><ele>1909.11</ele></trkpt>
<trkpt lon="13.05318328" lat="47.52902305"><ele>1902.90</ele></trkpt>
<trkpt lon="13.05314475" lat="47.52902311"><ele>1897.63</ele></trkpt>
<trkpt lon="13.05312436" lat="47.52901053"><ele>1896.10</ele></trkpt>
<trkpt lon="13.05310782" lat="47.52901952"><ele>1892.79</ele></trkpt>
<trkpt lon="13.05308992" lat="47.52902929"><ele>1891.95</ele></trkpt>
<trkpt lon="13.05306800" lat="47.52903648"><ele>1893.03</ele></trkpt>
<trkpt lon="13.05305433" lat="47.52904317"><ele>1890.03</ele></trkpt>
<trkpt lon="13.05300396" lat="47.52906517"><ele>1884.11</ele></trkpt>
<trkpt lon="13.05300937" lat="47.52907696"><ele>1880.37</ele></trkpt>
<trkpt lon="13.05299920" lat="47.52909326"><ele>1880.81</ele></trkpt>
<trkpt lon="13.05300419" lat="47.52911287"><ele>1879.19</ele></trkpt>
<trkpt lon="13.05299282" lat="47.52911483"><ele>1876.72</ele></trkpt>
<trkpt lon="13.05299624" lat="47.52909771"><ele>1866.55</ele></trkpt>
<trkpt lon="13.05297181" lat="47.52905419"><ele>1849.39</ele></trkpt>
<trkpt lon="13.05301350" lat="47.52903006"><ele>1848.40</ele></trkpt>
<trkpt lon="13.05303227" lat="47.52903983"><ele>1840.73</ele></trkpt>
<trkpt lon="13.05306582" lat="47.52902717"><ele>1828.41</ele></trkpt>
<trkpt lon="13.05302885" lat="47.52902438"><ele>1822.14</ele></trkpt>
<trkpt lon="13.05306476" lat="47.52901977"><ele>1813.45</ele></trkpt>
<trkpt lon="13.05313236" lat="47.52904927"><ele>1802.20</ele></trkpt>
</trkseg><trkseg>
<trkpt lon="13.05313236" lat="47.52904927"><ele>1802.20</ele></trkpt>
<trkpt lon="13.05318166" lat="47.52901663"><ele>1779.46</ele></trkpt>
<trkpt lon="13.05320391" lat="47.52899685"><ele>1766.26</ele></trkpt>
</trkseg><trkseg>
<trkpt lon="13.05311673" lat="47.52940669"><ele>1998.31</ele></trkpt>
<trkpt lon="13.05311173" lat="47.52939472"><ele>1997.10</ele></trkpt>
<trkpt lon="13.05311179" lat="47.52937862"><ele>1995.72</ele></trkpt>
<trkpt lon="13.05307908" lat="47.52938652"><ele>1995.07</ele></trkpt>
</trkseg><trkseg>
<trkpt lon="13.05313613" lat="47.52943536"><ele>2002.15</ele></trkpt>
<trkpt lon="13.05311057" lat="47.52943673"><ele>2001.98</ele></trkpt>
</trkseg><trkseg>
<trkpt lon="13.05311057" lat="47.52943673"><ele>2001.98</ele></trkpt>
<trkpt lon="13.05310856" lat="47.52946243"><ele>2002.79</ele></trkpt>
</trkseg><trkseg>
<trkpt lon="13.05310856" lat="47.52946243"><ele>2002.79</ele></trkpt>
<trkpt lon="13.05312267" lat="47.52947950"><ele>2003.57</ele></trkpt>
</trkseg><trkseg>
<trkpt lon="13.05312267" lat="47.52947950"><ele>2003.57</ele></trkpt>
<trkpt lon="13.05313433" lat="47.52949130"><ele>2005.87</ele></trkpt>
</trkseg><trkseg>
<trkpt lon="13.05313433" lat="47.52949130"><ele>2005.87</ele></trkpt>
<trkpt lon="13.05314748" lat="47.52950205"><ele>2005.92</ele></trkpt>
</trkseg><trkseg>
<trkpt lon="13.05306972" lat="47.52942425"><ele>1992.36</ele></trkpt>
<trkpt lon="13.05305558" lat="47.52943633"><ele>1992.58</ele></trkpt>
</trkseg><trkseg>
<trkpt lon="13.05305558" lat="47.52943633"><ele>1992.58</ele></trkpt>
<trkpt lon="13.05303807" lat="47.52943208"><ele>1993.65</ele></trkpt>
</trkseg><trkseg>
<trkpt lon="13.05303807" lat="47.52943208"><ele>1993.65</ele></trkpt>
<trkpt lon="13.05303124" lat="47.52942629"><ele>1993.27</ele></trkpt>
</trkseg><trkseg>
<trkpt lon="13.05305812" lat="47.52923868"><ele>1946.84</ele></trkpt>
<trkpt lon="13.05307292" lat="47.52925882"><ele>1949.08</ele></trkpt>
</trkseg><trkseg>
<trkpt lon="13.05307292" lat="47.52925882"><ele>1949.08</ele></trkpt>
<trkpt lon="13.05306954" lat="47.52922088"><ele>1951.12</ele></trkpt>
</trkseg><trkseg>
<trkpt lon="13.05306954" lat="47.52922088"><ele>1951.12</ele></trkpt>
<trkpt lon="13.05308920" lat="47.52924605"><ele>1950.29</ele></trkpt>
<trkpt lon="13.05312660" lat="47.52922617"><ele>1950.49</ele></trkpt>
</trkseg><trkseg>
<trkpt lon="13.05318166" lat="47.52901663"><ele>1779.46</ele></trkpt>
<trkpt lon="13.05321233" lat="47.52902786"><ele>1781.63</ele></trkpt>
<trkpt lon="13.05323528" lat="47.52898587"><ele>1782.34</ele></trkpt>
<trkpt lon="13.05326202" lat="47.52897768"><ele>1780.95</ele></trkpt>
<trkpt lon="13.05325767" lat="47.52898751"><ele>1775.13</ele></trkpt>
<trkpt lon="13.05327452" lat="47.52896665"><ele>1775.08</ele></trkpt>
<trkpt lon="13.05331935" lat="47.52895787"><ele>1768.87</ele></trkpt>
<trkpt lon="13.05334974" lat="47.52895893"><ele>1766.52</ele></trkpt>
<trkpt lon="13.05335481" lat="47.52895811"><ele>1765.54</ele></trkpt>
</trkseg><trkseg>
<trkpt lon="13.05331935" lat="47.52895787"><ele>1768.87</ele></trkpt>
<trkpt lon="13.05328888" lat="47.52896995"><ele>1768.16</ele></trkpt>
<trkpt lon="13.05329918" lat="47.52896428"><ele>1764.20</ele></trkpt>
</trkseg><trkseg>
<trkpt lon="13.05321233" lat="47.52902786"><ele>1781.63</ele></trkpt>
<trkpt lon="13.05317482" lat="47.52904702"><ele>1777.67</ele></trkpt>
<trkpt lon="13.05317639" lat="47.52905118"><ele>1773.40</ele></trkpt>
<trkpt lon="13.05317992" lat="47.52908508"><ele>1773.87</ele></trkpt>
<trkpt lon="13.05315349" lat="47.52910290"><ele>1771.85</ele></trkpt>
</trkseg><trkseg>
<trkpt lon="13.05321233" lat="47.52902786"><ele>1781.63</ele></trkpt>
<trkpt lon="13.05323980" lat="47.52901456"><ele>1780.86</ele></trkpt>
</trkseg><trkseg>
<trkpt lon="13.05320391" lat="47.52899685"><ele>1766.26</ele></trkpt>
<trkpt lon="13.05317887" lat="47.52899877"><ele>1767.31</ele></trkpt>
</trkseg><trkseg>
<trkpt lon="13.05324529" lat="47.52906360"><ele>1739.99</ele></trkpt>
<trkpt lon="13.05321703" lat="47.52909111"><ele>1741.58</ele></trkpt>
<trkpt lon="13.05323687" lat="47.52912231"><ele>1742.75</ele></trkpt>
<trkpt lon="13.05322088" lat="47.52913428"><ele>1744.55</ele></trkpt>
<trkpt lon="13.05322088" lat="47.52913428"><ele>1744.55</ele></trkpt>
<trkpt lon="13.05320040" lat="47.52914913"><ele>1749.41</ele></trkpt>
<trkpt lon="13.05317548" lat="47.52917283"><ele>1752.53</ele></trkpt>
</trkseg><trkseg>
<trkpt lon="13.05322006" lat="47.52901656"><ele>1734.69</ele></trkpt>
<trkpt lon="13.05326407" lat="47.52905159"><ele>1733.84</ele></trkpt>
</trkseg><trkseg>
<trkpt lon="13.05322088" lat="47.52913428"><ele>1744.55</ele></trkpt>
<trkpt lon="13.05323086" lat="47.52915181"><ele>1744.43</ele></trkpt>
</trkseg><trkseg>
<trkpt lon="13.05323086" lat="47.52915181"><ele>1744.43</ele></trkpt>
<trkpt lon="13.05320890" lat="47.52915648"><ele>1732.56</ele></trkpt>
</trkseg><trkseg>
<trkpt lon="13.05320890" lat="47.52915648"><ele>1732.56</ele></trkpt>
<trkpt lon="13.05318360" lat="47.52914714"><ele>1727.43</ele></trkpt>
</trkseg><trkseg>
<trkpt lon="13.05318360" lat="47.52914714"><ele>1727.43</ele></trkpt>
<trkpt lon="13.05323077" lat="47.52914344"><ele>1725.79</ele></trkpt>
</trkseg><trkseg>
<trkpt lon="13.05323077" lat="47.52914344"><ele>1725.79</ele></trkpt>
<trkpt lon="13.05326051" lat="47.52910822"><ele>1720.02</ele></trkpt>
</trkseg><trkseg>
<trkpt lon="13.05326051" lat="47.52910822"><ele>1720.02</ele></trkpt>
<trkpt lon="13.05329299" lat="47.52908133"><ele>1716.60</ele></trkpt>
</trkseg><trkseg>
<trkpt lon="13.05329299" lat="47.52908133"><ele>1716.60</ele></trkpt>
<trkpt lon="13.05329132" lat="47.52907266"><ele>1714.10</ele></trkpt>
</trkseg><trkseg>
<trkpt lon="13.05302885" lat="47.52902438"><ele>1822.14</ele></trkpt>
<trkpt lon="13.05299348" lat="47.52904322"><ele>1820.15</ele></trkpt>
</trkseg><trkseg>
<trkpt lon="13.05299348" lat="47.52904322"><ele>1820.15</ele></trkpt>
<trkpt lon="13.05296474" lat="47.52903724"><ele>1819.06</ele></trkpt>
</trkseg><trkseg>
<trkpt lon="13.05296474" lat="47.52903724"><ele>1819.06</ele></trkpt>
<trkpt lon="13.05297679" lat="47.52903457"><ele>1814.59</ele></trkpt>
</trkseg><trkseg>
<trkpt lon="13.05297679" lat="47.52903457"><ele>1814.59</ele></trkpt>
<trkpt lon="13.05296745" lat="47.52901776"><ele>1814.92</ele></trkpt>
</trkseg><trkseg>
<trkpt lon="13.05329132" lat="47.52907266"><ele>1714.10</ele></trkpt>
<trkpt lon="13.05332801" lat="47.52905403"><ele>1712.89</ele></trkpt>
</trkseg><trkseg>
<trkpt lon="13.05332801" lat="47.52905403"><ele>1712.89</ele></trkpt>
<trkpt lon="13.05335209" lat="47.52907126"><ele>1712.29</ele></trkpt>
</trkseg><trkseg>
<trkpt lon="13.05335209" lat="47.52907126"><ele>1712.29</ele></trkpt>
<trkpt lon="13.05334600" lat="47.52908151"><ele>1712.60</ele></trkpt>
</trkseg><trkseg>
<trkpt lon="13.05334600" lat="47.52908151"><ele>1712.60</ele></trkpt>
<trkpt lon="13.05336691" lat="47.52909446"><ele>1712.52</ele></trkpt>
</trkseg><trkseg>
<trkpt lon="13.05336691" lat="47.52909446"><ele>1712.52</ele></trkpt>
<trkpt lon="13.05339942" lat="47.52910275"><ele>1711.82</ele></trkpt>
</trkseg><trkseg>
<trkpt lon="13.05339942" lat="47.52910275"><ele>1711.82</ele></trkpt>
<trkpt lon="13.05340938" lat="47.52912794"><ele>1711.96</ele></trkpt>
</trkseg><trkseg>
<trkpt lon="13.05340938" lat="47.52912794"><ele>1711.96</ele></trkpt>
<trkpt lon="13.05340482" lat="47.52913983"><ele>1712.52</ele></trkpt>
</trkseg><trkseg>
<trkpt lon="13.05340482" lat="47.52913983"><ele>1712.52</ele></trkpt>
<trkpt lon="13.05341554" lat="47.52914442"><ele>1712.14</ele></trkpt>
</trkseg><trkseg>
<trkpt lon="13.05341554" lat="47.52914442"><ele>1712.14</ele></trkpt>
<trkpt lon="13.05341250" lat="47.52915130"><ele>1711.63</ele></trkpt>
</trkseg><trkseg>
<trkpt lon="13.05341250" lat="47.52915130"><ele>1711.63</ele></trkpt>
<trkpt lon="13.05342238" lat="47.52915704"><ele>1711.77</ele></trkpt>
</trkseg><trkseg>
<trkpt lon="13.05342238" lat="47.52915704"><ele>1711.77</ele></trkpt>
<trkpt lon="13.05342187" lat="47.52916018"><ele>1710.81</ele></trkpt>
</trkseg><trkseg>
<trkpt lon="13.05342187" lat="47.52916018"><ele>1710.81</ele></trkpt>
<trkpt lon="13.05343435" lat="47.52917110"><ele>1709.58</ele></trkpt>
</trkseg><trkseg>
<trkpt lon="13.05302885" lat="47.52902438"><ele>1822.14</ele></trkpt>
<trkpt lon="13.05306640" lat="47.52902583"><ele>1828.43</ele></trkpt>
</trkseg><trkseg>
<trkpt lon="13.05320391" lat="47.52899685"><ele>1766.26</ele></trkpt>
<trkpt lon="13.05317875" lat="47.52899831"><ele>1767.31</ele></trkpt>
</trkseg></trk>
</gpx>
