<?xml version="1.0" encoding="UTF-8"?>
<gpx version="1.0" creator="survex 1.4.17 (aven) - https://survex.com/" xmlns:xsi="http://www.w3.org/2001/XMLSchema-instance" xmlns="http://www.topografix.com/GPX/1/0" xsi:schemaLocation="http://www.topografix.com/GPX/1/0 http://www.topografix.com/GPX/1/0/gpx.xsd">
<name>479-master</name>
<time>2025-06-23T19:15:28Z</time>
<trk><name>479-master</name><trkseg>
<trkpt lon="13.04440175" lat="47.53995806"><ele>1792.87</ele></trkpt>
<trkpt lon="13.04437567" lat="47.53996265"><ele>1794.15</ele></trkpt>
<trkpt lon="13.04431732" lat="47.54000233"><ele>1813.39</ele></trkpt>
<trkpt lon="13.04429697" lat="47.53996716"><ele>1820.93</ele></trkpt>
<trkpt lon="13.04428017" lat="47.53995787"><ele>1820.99</ele></trkpt>
<trkpt lon="13.04422240" lat="47.53992107"><ele>1823.28</ele></trkpt>
<trkpt lon="13.04419908" lat="47.53986588"><ele>1822.50</ele></trkpt>
<trkpt lon="13.04419784" lat="47.53978109"><ele>1819.55</ele></trkpt>
<trkpt lon="13.04424788" lat="47.53977214"><ele>1816.22</ele></trkpt>
</trkseg><trkseg>
<trkpt lon="13.04440175" lat="47.53995806"><ele>1792.87</ele></trkpt>
<trkpt lon="13.04437366" lat="47.53994174"><ele>1792.14</ele></trkpt>
<trkpt lon="13.04430332" lat="47.53996061"><ele>1794.90</ele></trkpt>
<trkpt lon="13.04430283" lat="47.53994179"><ele>1795.06</ele></trkpt>
<trkpt lon="13.04430201" lat="47.53994232"><ele>1794.17</ele></trkpt>
<trkpt lon="13.04428649" lat="47.53987358"><ele>1794.75</ele></trkpt>
<trkpt lon="13.04428212" lat="47.53986972"><ele>1801.63</ele></trkpt>
<trkpt lon="13.04426205" lat="47.53984832"><ele>1804.20</ele></trkpt>
<trkpt lon="13.04424740" lat="47.53983143"><ele>1807.49</ele></trkpt>
<trkpt lon="13.04429146" lat="47.53975074"><ele>1811.27</ele></trkpt>
<trkpt lon="13.04424788" lat="47.53977214"><ele>1816.22</ele></trkpt>
</trkseg><trkseg>
<trkpt lon="13.04510516" lat="47.54053578"><ele>1746.32</ele></trkpt>
<trkpt lon="13.04507533" lat="47.54056254"><ele>1754.79</ele></trkpt>
<trkpt lon="13.04502455" lat="47.54054521"><ele>1757.51</ele></trkpt>
<trkpt lon="13.04499566" lat="47.54056091"><ele>1757.87</ele></trkpt>
<trkpt lon="13.04496615" lat="47.54057183"><ele>1755.06</ele></trkpt>
<trkpt lon="13.04492831" lat="47.54062446"><ele>1758.29</ele></trkpt>
<trkpt lon="13.04491204" lat="47.54066890"><ele>1760.09</ele></trkpt>
<trkpt lon="13.04489221" lat="47.54071626"><ele>1761.90</ele></trkpt>
<trkpt lon="13.04492672" lat="47.54074591"><ele>1760.80</ele></trkpt>
<trkpt lon="13.04495849" lat="47.54077417"><ele>1762.75</ele></trkpt>
<trkpt lon="13.04495763" lat="47.54081509"><ele>1763.25</ele></trkpt>
<trkpt lon="13.04497458" lat="47.54080953"><ele>1764.48</ele></trkpt>
<trkpt lon="13.04498640" lat="47.54076690"><ele>1765.61</ele></trkpt>
<trkpt lon="13.04498092" lat="47.54075718"><ele>1765.61</ele></trkpt>
<trkpt lon="13.04494262" lat="47.54074357"><ele>1768.94</ele></trkpt>
<trkpt lon="13.04493201" lat="47.54075023"><ele>1768.88</ele></trkpt>
<trkpt lon="13.04488778" lat="47.54073517"><ele>1771.73</ele></trkpt>
<trkpt lon="13.04487793" lat="47.54073572"><ele>1771.62</ele></trkpt>
<trkpt lon="13.04486847" lat="47.54072926"><ele>1772.01</ele></trkpt>
<trkpt lon="13.04485956" lat="47.54073289"><ele>1773.37</ele></trkpt>
<trkpt lon="13.04484179" lat="47.54074995"><ele>1774.11</ele></trkpt>
</trkseg><trkseg>
<trkpt lon="13.04484179" lat="47.54074995"><ele>1774.11</ele></trkpt>
<trkpt lon="13.04479517" lat="47.54073125"><ele>1774.27</ele></trkpt>
<trkpt lon="13.04479532" lat="47.54073080"><ele>1781.15</ele></trkpt>
<trkpt lon="13.04475693" lat="47.54073420"><ele>1786.00</ele></trkpt>
<trkpt lon="13.04474460" lat="47.54074757"><ele>1785.56</ele></trkpt>
<trkpt lon="13.04472337" lat="47.54076089"><ele>1787.31</ele></trkpt>
<trkpt lon="13.04472635" lat="47.54078811"><ele>1788.15</ele></trkpt>
<trkpt lon="13.04468423" lat="47.54082726"><ele>1787.40</ele></trkpt>
<trkpt lon="13.04468441" lat="47.54082600"><ele>1800.28</ele></trkpt>
<trkpt lon="13.04467885" lat="47.54080746"><ele>1802.40</ele></trkpt>
<trkpt lon="13.04468049" lat="47.54077051"><ele>1803.37</ele></trkpt>
<trkpt lon="13.04470860" lat="47.54068640"><ele>1802.84</ele></trkpt>
<trkpt lon="13.04472915" lat="47.54067361"><ele>1797.46</ele></trkpt>
<trkpt lon="13.04473483" lat="47.54068523"><ele>1798.22</ele></trkpt>
<trkpt lon="13.04476157" lat="47.54064150"><ele>1797.03</ele></trkpt>
<trkpt lon="13.04477266" lat="47.54063989"><ele>1796.80</ele></trkpt>
<trkpt lon="13.04479932" lat="47.54065195"><ele>1795.94</ele></trkpt>
<trkpt lon="13.04480584" lat="47.54065521"><ele>1793.08</ele></trkpt>
<trkpt lon="13.04479658" lat="47.54065047"><ele>1789.48</ele></trkpt>
<trkpt lon="13.04482569" lat="47.54065042"><ele>1778.66</ele></trkpt>
<trkpt lon="13.04487288" lat="47.54064646"><ele>1780.12</ele></trkpt>
<trkpt lon="13.04493993" lat="47.54064094"><ele>1773.10</ele></trkpt>
</trkseg><trkseg>
<trkpt lon="13.04493993" lat="47.54064094"><ele>1773.10</ele></trkpt>
<trkpt lon="13.04500685" lat="47.54062445"><ele>1770.42</ele></trkpt>
<trkpt lon="13.04507285" lat="47.54059345"><ele>1771.71</ele></trkpt>
</trkseg><trkseg>
<trkpt lon="13.04498297" lat="47.54048052"><ele>1760.79</ele></trkpt>
<trkpt lon="13.04490443" lat="47.54045542"><ele>1759.99</ele></trkpt>
<trkpt lon="13.04491421" lat="47.54044263"><ele>1759.59</ele></trkpt>
<trkpt lon="13.04484497" lat="47.54041419"><ele>1760.12</ele></trkpt>
<trkpt lon="13.04479719" lat="47.54038044"><ele>1761.42</ele></trkpt>
<trkpt lon="13.04483270" lat="47.54036889"><ele>1761.26</ele></trkpt>
<trkpt lon="13.04479645" lat="47.54030394"><ele>1762.07</ele></trkpt>
<trkpt lon="13.04474724" lat="47.54029797"><ele>1762.60</ele></trkpt>
<trkpt lon="13.04472674" lat="47.54026658"><ele>1763.48</ele></trkpt>
<trkpt lon="13.04460442" lat="47.54028996"><ele>1765.52</ele></trkpt>
<trkpt lon="13.04456952" lat="47.54022430"><ele>1768.34</ele></trkpt>
<trkpt lon="13.04452463" lat="47.54023064"><ele>1769.07</ele></trkpt>
<trkpt lon="13.04443104" lat="47.54019944"><ele>1770.60</ele></trkpt>
<trkpt lon="13.04443104" lat="47.54019944"><ele>1769.00</ele></trkpt>
<trkpt lon="13.04441473" lat="47.54020933"><ele>1769.11</ele></trkpt>
<trkpt lon="13.04440726" lat="47.54018860"><ele>1771.17</ele></trkpt>
<trkpt lon="13.04435766" lat="47.54016814"><ele>1774.84</ele></trkpt>
<trkpt lon="13.04441203" lat="47.54012461"><ele>1778.51</ele></trkpt>
<trkpt lon="13.04441552" lat="47.54012026"><ele>1788.82</ele></trkpt>
<trkpt lon="13.04443341" lat="47.54011094"><ele>1788.94</ele></trkpt>
<trkpt lon="13.04444108" lat="47.54008696"><ele>1790.52</ele></trkpt>
<trkpt lon="13.04443384" lat="47.54007792"><ele>1791.66</ele></trkpt>
<trkpt lon="13.04445071" lat="47.54005671"><ele>1791.99</ele></trkpt>
<trkpt lon="13.04443026" lat="47.54002036"><ele>1792.75</ele></trkpt>
<trkpt lon="13.04438618" lat="47.54000152"><ele>1793.23</ele></trkpt>
<trkpt lon="13.04439891" lat="47.53999166"><ele>1792.61</ele></trkpt>
<trkpt lon="13.04440175" lat="47.53995806"><ele>1792.87</ele></trkpt>
</trkseg><trkseg>
<trkpt lon="13.04498297" lat="47.54048052"><ele>1760.79</ele></trkpt>
<trkpt lon="13.04501124" lat="47.54046714"><ele>1760.10</ele></trkpt>
<trkpt lon="13.04504562" lat="47.54048609"><ele>1755.45</ele></trkpt>
<trkpt lon="13.04508848" lat="47.54053766"><ele>1750.73</ele></trkpt>
<trkpt lon="13.04510516" lat="47.54053578"><ele>1746.32</ele></trkpt>
</trkseg><trkseg>
<trkpt lon="13.04498297" lat="47.54048052"><ele>1760.79</ele></trkpt>
<trkpt lon="13.04498116" lat="47.54046492"><ele>1766.20</ele></trkpt>
<trkpt lon="13.04501939" lat="47.54049455"><ele>1767.64</ele></trkpt>
<trkpt lon="13.04504079" lat="47.54048015"><ele>1767.67</ele></trkpt>
<trkpt lon="13.04499861" lat="47.54049941"><ele>1770.95</ele></trkpt>
<trkpt lon="13.04505493" lat="47.54055715"><ele>1770.76</ele></trkpt>
<trkpt lon="13.04507285" lat="47.54059345"><ele>1771.71</ele></trkpt>
</trkseg><trkseg>
<trkpt lon="13.04536656" lat="47.54083943"><ele>1730.56</ele></trkpt>
<trkpt lon="13.04536656" lat="47.54083943"><ele>1718.71</ele></trkpt>
<trkpt lon="13.04542924" lat="47.54085850"><ele>1716.94</ele></trkpt>
<trkpt lon="13.04546228" lat="47.54087751"><ele>1715.54</ele></trkpt>
</trkseg><trkseg>
<trkpt lon="13.04546228" lat="47.54087751"><ele>1715.54</ele></trkpt>
<trkpt lon="13.04561173" lat="47.54103258"><ele>1716.70</ele></trkpt>
</trkseg><trkseg>
<trkpt lon="13.04561173" lat="47.54103258"><ele>1716.70</ele></trkpt>
<trkpt lon="13.04561173" lat="47.54103258"><ele>1718.52</ele></trkpt>
<trkpt lon="13.04559064" lat="47.54106021"><ele>1721.95</ele></trkpt>
<trkpt lon="13.04553979" lat="47.54102667"><ele>1728.09</ele></trkpt>
<trkpt lon="13.04546741" lat="47.54095039"><ele>1730.54</ele></trkpt>
<trkpt lon="13.04542287" lat="47.54089753"><ele>1730.58</ele></trkpt>
<trkpt lon="13.04542243" lat="47.54087359"><ele>1732.49</ele></trkpt>
<trkpt lon="13.04539554" lat="47.54088204"><ele>1734.94</ele></trkpt>
<trkpt lon="13.04536656" lat="47.54083943"><ele>1730.56</ele></trkpt>
</trkseg><trkseg>
<trkpt lon="13.04510516" lat="47.54053578"><ele>1746.32</ele></trkpt>
<trkpt lon="13.04515295" lat="47.54051581"><ele>1744.78</ele></trkpt>
<trkpt lon="13.04516989" lat="47.54053176"><ele>1744.97</ele></trkpt>
<trkpt lon="13.04517918" lat="47.54051788"><ele>1744.76</ele></trkpt>
<trkpt lon="13.04519743" lat="47.54054878"><ele>1745.22</ele></trkpt>
<trkpt lon="13.04518844" lat="47.54055844"><ele>1745.02</ele></trkpt>
<trkpt lon="13.04522301" lat="47.54058287"><ele>1745.15</ele></trkpt>
<trkpt lon="13.04518035" lat="47.54062219"><ele>1742.84</ele></trkpt>
<trkpt lon="13.04520432" lat="47.54065310"><ele>1744.74</ele></trkpt>
<trkpt lon="13.04522873" lat="47.54066135"><ele>1745.14</ele></trkpt>
<trkpt lon="13.04526028" lat="47.54072784"><ele>1744.46</ele></trkpt>
<trkpt lon="13.04529338" lat="47.54072022"><ele>1733.06</ele></trkpt>
<trkpt lon="13.04529451" lat="47.54074696"><ele>1732.64</ele></trkpt>
<trkpt lon="13.04533160" lat="47.54079673"><ele>1732.64</ele></trkpt>
<trkpt lon="13.04534373" lat="47.54080998"><ele>1730.97</ele></trkpt>
<trkpt lon="13.04535229" lat="47.54083352"><ele>1730.88</ele></trkpt>
<trkpt lon="13.04536656" lat="47.54083943"><ele>1730.56</ele></trkpt>
</trkseg><trkseg>
<trkpt lon="13.04510516" lat="47.54053578"><ele>1746.32</ele></trkpt>
<trkpt lon="13.04514851" lat="47.54056352"><ele>1744.77</ele></trkpt>
<trkpt lon="13.04510169" lat="47.54057550"><ele>1757.40</ele></trkpt>
<trkpt lon="13.04507025" lat="47.54057406"><ele>1768.35</ele></trkpt>
<trkpt lon="13.04507285" lat="47.54059345"><ele>1771.71</ele></trkpt>
</trkseg><trkseg>
<trkpt lon="13.04320002" lat="47.53896672"><ele>1970.00</ele></trkpt>
<trkpt lon="13.04320002" lat="47.53896672"><ele>1943.45</ele></trkpt>
<trkpt lon="13.04319587" lat="47.53894622"><ele>1943.32</ele></trkpt>
<trkpt lon="13.04321887" lat="47.53898171"><ele>1941.40</ele></trkpt>
<trkpt lon="13.04329942" lat="47.53898110"><ele>1935.94</ele></trkpt>
<trkpt lon="13.04340817" lat="47.53903326"><ele>1928.65</ele></trkpt>
<trkpt lon="13.04342574" lat="47.53904661"><ele>1926.20</ele></trkpt>
<trkpt lon="13.04346473" lat="47.53908084"><ele>1925.78</ele></trkpt>
<trkpt lon="13.04348942" lat="47.53911023"><ele>1926.31</ele></trkpt>
</trkseg><trkseg>
<trkpt lon="13.04348942" lat="47.53911023"><ele>1926.31</ele></trkpt>
<trkpt lon="13.04353614" lat="47.53916151"><ele>1926.31</ele></trkpt>
<trkpt lon="13.04359365" lat="47.53920532"><ele>1919.79</ele></trkpt>
</trkseg><trkseg>
<trkpt lon="13.04359365" lat="47.53920532"><ele>1919.79</ele></trkpt>
<trkpt lon="13.04359603" lat="47.53919484"><ele>1916.18</ele></trkpt>
<trkpt lon="13.04364430" lat="47.53922266"><ele>1913.64</ele></trkpt>
<trkpt lon="13.04376465" lat="47.53926664"><ele>1896.50</ele></trkpt>
<trkpt lon="13.04380776" lat="47.53934008"><ele>1894.63</ele></trkpt>
<trkpt lon="13.04384802" lat="47.53936156"><ele>1891.15</ele></trkpt>
<trkpt lon="13.04387303" lat="47.53940014"><ele>1890.99</ele></trkpt>
<trkpt lon="13.04393231" lat="47.53946045"><ele>1885.76</ele></trkpt>
<trkpt lon="13.04392510" lat="47.53948273"><ele>1885.85</ele></trkpt>
<trkpt lon="13.04394625" lat="47.53948228"><ele>1886.25</ele></trkpt>
<trkpt lon="13.04399117" lat="47.53953569"><ele>1885.77</ele></trkpt>
<trkpt lon="13.04401165" lat="47.53956744"><ele>1884.95</ele></trkpt>
<trkpt lon="13.04401303" lat="47.53959815"><ele>1884.77</ele></trkpt>
<trkpt lon="13.04405550" lat="47.53966393"><ele>1878.76</ele></trkpt>
<trkpt lon="13.04408831" lat="47.53969995"><ele>1872.29</ele></trkpt>
<trkpt lon="13.04406703" lat="47.53970030"><ele>1871.76</ele></trkpt>
<trkpt lon="13.04401769" lat="47.53976218"><ele>1856.44</ele></trkpt>
<trkpt lon="13.04413046" lat="47.53975996"><ele>1852.66</ele></trkpt>
</trkseg><trkseg>
<trkpt lon="13.04413046" lat="47.53975996"><ele>1852.66</ele></trkpt>
<trkpt lon="13.04416526" lat="47.53973896"><ele>1849.66</ele></trkpt>
</trkseg><trkseg>
<trkpt lon="13.04416526" lat="47.53973896"><ele>1849.66</ele></trkpt>
<trkpt lon="13.04418328" lat="47.53972955"><ele>1830.13</ele></trkpt>
<trkpt lon="13.04424788" lat="47.53977214"><ele>1816.22</ele></trkpt>
</trkseg><trkseg>
<trkpt lon="13.04346473" lat="47.53908084"><ele>1925.78</ele></trkpt>
<trkpt lon="13.04347245" lat="47.53906270"><ele>1922.15</ele></trkpt>
<trkpt lon="13.04348698" lat="47.53903298"><ele>1921.08</ele></trkpt>
<trkpt lon="13.04349680" lat="47.53904044"><ele>1919.77</ele></trkpt>
<trkpt lon="13.04351635" lat="47.53903646"><ele>1917.10</ele></trkpt>
<trkpt lon="13.04362016" lat="47.53901411"><ele>1911.57</ele></trkpt>
</trkseg><trkseg>
<trkpt lon="13.04321887" lat="47.53898171"><ele>1941.40</ele></trkpt>
<trkpt lon="13.04324777" lat="47.53906202"><ele>1942.69</ele></trkpt>
<trkpt lon="13.04324238" lat="47.53911052"><ele>1943.74</ele></trkpt>
</trkseg><trkseg>
<trkpt lon="13.04324777" lat="47.53906202"><ele>1942.69</ele></trkpt>
<trkpt lon="13.04328528" lat="47.53907876"><ele>1945.15</ele></trkpt>
</trkseg><trkseg>
<trkpt lon="13.04359365" lat="47.53920532"><ele>1919.79</ele></trkpt>
<trkpt lon="13.04352639" lat="47.53919869"><ele>1919.63</ele></trkpt>
<trkpt lon="13.04348466" lat="47.53923442"><ele>1918.42</ele></trkpt>
<trkpt lon="13.04352602" lat="47.53925501"><ele>1917.74</ele></trkpt>
</trkseg><trkseg>
<trkpt lon="13.04401165" lat="47.53956744"><ele>1884.95</ele></trkpt>
<trkpt lon="13.04401165" lat="47.53956744"><ele>1880.05</ele></trkpt>
</trkseg><trkseg>
<trkpt lon="13.04348466" lat="47.53923442"><ele>1918.42</ele></trkpt>
<trkpt lon="13.04345752" lat="47.53924241"><ele>1915.02</ele></trkpt>
</trkseg><trkseg>
<trkpt lon="13.04345752" lat="47.53924241"><ele>1915.02</ele></trkpt>
<trkpt lon="13.04343901" lat="47.53924345"><ele>1914.92</ele></trkpt>
<trkpt lon="13.04341836" lat="47.53926640"><ele>1914.01</ele></trkpt>
<trkpt lon="13.04341836" lat="47.53926640"><ele>1912.81</ele></trkpt>
<trkpt lon="13.04338423" lat="47.53927662"><ele>1911.50</ele></trkpt>
<trkpt lon="13.04337484" lat="47.53926449"><ele>1911.21</ele></trkpt>
<trkpt lon="13.04329948" lat="47.53924368"><ele>1908.22</ele></trkpt>
<trkpt lon="13.04329295" lat="47.53925490"><ele>1907.95</ele></trkpt>
<trkpt lon="13.04327169" lat="47.53926192"><ele>1907.30</ele></trkpt>
<trkpt lon="13.04324629" lat="47.53928011"><ele>1905.83</ele></trkpt>
<trkpt lon="13.04319339" lat="47.53928758"><ele>1905.25</ele></trkpt>
<trkpt lon="13.04317681" lat="47.53929395"><ele>1904.82</ele></trkpt>
<trkpt lon="13.04317439" lat="47.53930561"><ele>1904.47</ele></trkpt>
<trkpt lon="13.04314711" lat="47.53931369"><ele>1904.23</ele></trkpt>
<trkpt lon="13.04314439" lat="47.53931545"><ele>1900.99</ele></trkpt>
<trkpt lon="13.04305823" lat="47.53925234"><ele>1900.99</ele></trkpt>
</trkseg><trkseg>
<trkpt lon="13.04314439" lat="47.53931545"><ele>1900.99</ele></trkpt>
<trkpt lon="13.04318191" lat="47.53933201"><ele>1899.77</ele></trkpt>
<trkpt lon="13.04315781" lat="47.53934762"><ele>1899.68</ele></trkpt>
<trkpt lon="13.04320131" lat="47.53937842"><ele>1898.14</ele></trkpt>
<trkpt lon="13.04320131" lat="47.53937842"><ele>1885.49</ele></trkpt>
</trkseg><trkseg>
<trkpt lon="13.04441203" lat="47.54012461"><ele>1778.51</ele></trkpt>
<trkpt lon="13.04443779" lat="47.54017877"><ele>1780.94</ele></trkpt>
</trkseg><trkseg>
<trkpt lon="13.04452463" lat="47.54023064"><ele>1769.07</ele></trkpt>
<trkpt lon="13.04450650" lat="47.54026786"><ele>1769.07</ele></trkpt>
</trkseg><trkseg>
<trkpt lon="13.04452463" lat="47.54023064"><ele>1769.07</ele></trkpt>
<trkpt lon="13.04454130" lat="47.54020771"><ele>1769.07</ele></trkpt>
</trkseg><trkseg>
<trkpt lon="13.04514851" lat="47.54056352"><ele>1744.77</ele></trkpt>
<trkpt lon="13.04516990" lat="47.54056019"><ele>1740.69</ele></trkpt>
</trkseg><trkseg>
<trkpt lon="13.04498297" lat="47.54048052"><ele>1760.79</ele></trkpt>
<trkpt lon="13.04496222" lat="47.54044156"><ele>1761.52</ele></trkpt>
<trkpt lon="13.04499260" lat="47.54038584"><ele>1764.45</ele></trkpt>
<trkpt lon="13.04497538" lat="47.54037736"><ele>1767.61</ele></trkpt>
</trkseg><trkseg>
<trkpt lon="13.04492831" lat="47.54062446"><ele>1758.29</ele></trkpt>
<trkpt lon="13.04494799" lat="47.54060635"><ele>1756.34</ele></trkpt>
<trkpt lon="13.04484219" lat="47.54058547"><ele>1764.07</ele></trkpt>
</trkseg><trkseg>
<trkpt lon="13.04495763" lat="47.54081509"><ele>1763.25</ele></trkpt>
<trkpt lon="13.04496934" lat="47.54086110"><ele>1764.84</ele></trkpt>
<trkpt lon="13.04495762" lat="47.54088681"><ele>1763.63</ele></trkpt>
<trkpt lon="13.04496209" lat="47.54091685"><ele>1762.54</ele></trkpt>
</trkseg><trkseg>
<trkpt lon="13.04542924" lat="47.54085850"><ele>1716.94</ele></trkpt>
<trkpt lon="13.04535875" lat="47.54086000"><ele>1716.94</ele></trkpt>
<trkpt lon="13.04536951" lat="47.54080286"><ele>1716.94</ele></trkpt>
</trkseg><trkseg>
<trkpt lon="13.04561173" lat="47.54103258"><ele>1716.70</ele></trkpt>
<trkpt lon="13.04561173" lat="47.54103258"><ele>1713.20</ele></trkpt>
</trkseg><trkseg>
<trkpt lon="13.04546228" lat="47.54087751"><ele>1715.54</ele></trkpt>
<trkpt lon="13.04546228" lat="47.54087751"><ele>1711.94</ele></trkpt>
</trkseg><trkseg>
<trkpt lon="13.04429146" lat="47.53975074"><ele>1811.27</ele></trkpt>
<trkpt lon="13.04427522" lat="47.53973364"><ele>1811.62</ele></trkpt>
<trkpt lon="13.04422444" lat="47.53967347"><ele>1811.76</ele></trkpt>
<trkpt lon="13.04423783" lat="47.53964221"><ele>1811.63</ele></trkpt>
<trkpt lon="13.04419528" lat="47.53955726"><ele>1811.81</ele></trkpt>
<trkpt lon="13.04415927" lat="47.53937848"><ele>1811.81</ele></trkpt>
<trkpt lon="13.04417462" lat="47.53938378"><ele>1811.55</ele></trkpt>
<trkpt lon="13.04416313" lat="47.53930691"><ele>1811.55</ele></trkpt>
<trkpt lon="13.04409263" lat="47.53921231"><ele>1814.06</ele></trkpt>
</trkseg></trk>
</gpx>
