<?xml version="1.0" encoding="UTF-8"?>
<kml xmlns="http://www.opengis.net/kml/2.2">
<Document><name>479-master</name>
<Style id="fix"><IconStyle><Icon><href>https://maps.google.com/mapfiles/kml/paddle/red-blank.png</href></Icon><color>ff0000ff</color><hotSpot x="32" y="1" xunits="pixels" yunits="pixels"/></IconStyle></Style>
<Style id="exp"><IconStyle><Icon><href>https://maps.google.com/mapfiles/kml/paddle/blu-blank.png</href></Icon><color>ffff0000</color><hotSpot x="32" y="1" xunits="pixels" yunits="pixels"/></IconStyle></Style>
<Style id="ent"><IconStyle><Icon><href>https://maps.google.com/mapfiles/kml/paddle/grn-blank.png</href></Icon><color>ff00ff00</color><hotSpot x="32" y="1" xunits="pixels" yunits="pixels"/></IconStyle></Style>
<Style id="surf"><LineStyle><color>ff00ff00</color></LineStyle></Style>
<Style id="splay"><LineStyle><color>40ff00ff</color></LineStyle></Style>
<Placemark><MultiGeometry><LineString><altitudeMode>absolute</altitudeMode><coordinates>
13.04440175,47.53995806,1792.87
13.04437567,47.53996265,1794.15
13.04431732,47.54000233,1813.39
13.04429697,47.53996716,1820.93
13.04428017,47.53995787,1820.99
13.04422240,47.53992107,1823.28
13.04419908,47.53986588,1822.50
13.04419784,47.53978109,1819.55
13.04424788,47.53977214,1816.22
</coordinates></LineString>
<LineString><altitudeMode>absolute</altitudeMode><coordinates>
13.04440175,47.53995806,1792.87
13.04437366,47.53994174,1792.14
13.04430332,47.53996061,1794.90
13.04430283,47.53994179,1795.06
13.04430201,47.53994232,1794.17
13.04428649,47.53987358,1794.75
13.04428212,47.53986972,1801.63
13.04426205,47.53984832,1804.20
13.04424740,47.53983143,1807.49
13.04429146,47.53975074,1811.27
13.04424788,47.53977214,1816.22
</coordinates></LineString>
<LineString><altitudeMode>absolute</altitudeMode><coordinates>
13.04510516,47.54053578,1746.32
13.04507533,47.54056254,1754.79
13.04502455,47.54054521,1757.51
13.04499566,47.54056091,1757.87
13.04496615,47.54057183,1755.06
13.04492831,47.54062446,1758.29
13.04491204,47.54066890,1760.09
13.04489221,47.54071626,1761.90
13.04492672,47.54074591,1760.80
13.04495849,47.54077417,1762.75
13.04495763,47.54081509,1763.25
13.04497458,47.54080953,1764.48
13.04498640,47.54076690,1765.61
13.04498092,47.54075718,1765.61
13.04494262,47.54074357,1768.94
13.04493201,47.54075023,1768.88
13.04488778,47.54073517,1771.73
13.04487793,47.54073572,1771.62
13.04486847,47.54072926,1772.01
13.04485956,47.54073289,1773.37
13.04484179,47.54074995,1774.11
</coordinates></LineString>
<LineString><altitudeMode>absolute</altitudeMode><coordinates>
13.04484179,47.54074995,1774.11
13.04479517,47.54073125,1774.27
13.04479532,47.54073080,1781.15
13.04475693,47.54073420,1786.00
13.04474460,47.54074757,1785.56
13.04472337,47.54076089,1787.31
13.04472635,47.54078811,1788.15
13.04468423,47.54082726,1787.40
13.04468441,47.54082600,1800.28
13.04467885,47.54080746,1802.40
13.04468049,47.54077051,1803.37
13.04470860,47.54068640,1802.84
13.04472915,47.54067361,1797.46
13.04473483,47.54068523,1798.22
13.04476157,47.54064150,1797.03
13.04477266,47.54063989,1796.80
13.04479932,47.54065195,1795.94
13.04480584,47.54065521,1793.08
13.04479658,47.54065047,1789.48
13.04482569,47.54065042,1778.66
13.04487288,47.54064646,1780.12
13.04493993,47.54064094,1773.10
</coordinates></LineString>
<LineString><altitudeMode>absolute</altitudeMode><coordinates>
13.04493993,47.54064094,1773.10
13.04500685,47.54062445,1770.42
13.04507285,47.54059345,1771.71
</coordinates></LineString>
<LineString><altitudeMode>absolute</altitudeMode><coordinates>
13.04498297,47.54048052,1760.79
13.04490443,47.54045542,1759.99
13.04491421,47.54044263,1759.59
13.04484497,47.54041419,1760.12
13.04479719,47.54038044,1761.42
13.04483270,47.54036889,1761.26
13.04479645,47.54030394,1762.07
13.04474724,47.54029797,1762.60
13.04472674,47.54026658,1763.48
13.04460442,47.54028996,1765.52
13.04456952,47.54022430,1768.34
13.04452463,47.54023064,1769.07
13.04443104,47.54019944,1770.60
13.04443104,47.54019944,1769.00
13.04441473,47.54020933,1769.11
13.04440726,47.54018860,1771.17
13.04435766,47.54016814,1774.84
13.04441203,47.54012461,1778.51
13.04441552,47.54012026,1788.82
13.04443341,47.54011094,1788.94
13.04444108,47.54008696,1790.52
13.04443384,47.54007792,1791.66
13.04445071,47.54005671,1791.99
13.04443026,47.54002036,1792.75
13.04438618,47.54000152,1793.23
13.04439891,47.53999166,1792.61
13.04440175,47.53995806,1792.87
</coordinates></LineString>
<LineString><altitudeMode>absolute</altitudeMode><coordinates>
13.04498297,47.54048052,1760.79
13.04501124,47.54046714,1760.10
13.04504562,47.54048609,1755.45
13.04508848,47.54053766,1750.73
13.04510516,47.54053578,1746.32
</coordinates></LineString>
<LineString><altitudeMode>absolute</altitudeMode><coordinates>
13.04498297,47.54048052,1760.79
13.04498116,47.54046492,1766.20
13.04501939,47.54049455,1767.64
13.04504079,47.54048015,1767.67
13.04499861,47.54049941,1770.95
13.04505493,47.54055715,1770.76
13.04507285,47.54059345,1771.71
</coordinates></LineString>
<LineString><altitudeMode>absolute</altitudeMode><coordinates>
13.04536656,47.54083943,1730.56
13.04536656,47.54083943,1718.71
13.04542924,47.54085850,1716.94
13.04546228,47.54087751,1715.54
</coordinates></LineString>
<LineString><altitudeMode>absolute</altitudeMode><coordinates>
13.04546228,47.54087751,1715.54
13.04561173,47.54103258,1716.70
</coordinates></LineString>
<LineString><altitudeMode>absolute</altitudeMode><coordinates>
13.04561173,47.54103258,1716.70
13.04561173,47.54103258,1718.52
13.04559064,47.54106021,1721.95
13.04553979,47.54102667,1728.09
13.04546741,47.54095039,1730.54
13.04542287,47.54089753,1730.58
13.04542243,47.54087359,1732.49
13.04539554,47.54088204,1734.94
13.04536656,47.54083943,1730.56
</coordinates></LineString>
<LineString><altitudeMode>absolute</altitudeMode><coordinates>
13.04510516,47.54053578,1746.32
13.04515295,47.54051581,1744.78
13.04516989,47.54053176,1744.97
13.04517918,47.54051788,1744.76
13.04519743,47.54054878,1745.22
13.04518844,47.54055844,1745.02
13.04522301,47.54058287,1745.15
13.04518035,47.54062219,1742.84
13.04520432,47.54065310,1744.74
13.04522873,47.54066135,1745.14
13.04526028,47.54072784,1744.46
13.04529338,47.54072022,1733.06
13.04529451,47.54074696,1732.64
13.04533160,47.54079673,1732.64
13.04534373,47.54080998,1730.97
13.04535229,47.54083352,1730.88
13.04536656,47.54083943,1730.56
</coordinates></LineString>
<LineString><altitudeMode>absolute</altitudeMode><coordinates>
13.04510516,47.54053578,1746.32
13.04514851,47.54056352,1744.77
13.04510169,47.54057550,1757.40
13.04507025,47.54057406,1768.35
13.04507285,47.54059345,1771.71
</coordinates></LineString>
<LineString><altitudeMode>absolute</altitudeMode><coordinates>
13.04320002,47.53896672,1970.00
13.04320002,47.53896672,1943.45
13.04319587,47.53894622,1943.32
13.04321887,47.53898171,1941.40
13.04329942,47.53898110,1935.94
13.04340817,47.53903326,1928.65
13.04342574,47.53904661,1926.20
13.04346473,47.53908084,1925.78
13.04348942,47.53911023,1926.31
</coordinates></LineString>
<LineString><altitudeMode>absolute</altitudeMode><coordinates>
13.04348942,47.53911023,1926.31
13.04353614,47.53916151,1926.31
13.04359365,47.53920532,1919.79
</coordinates></LineString>
<LineString><altitudeMode>absolute</altitudeMode><coordinates>
13.04359365,47.53920532,1919.79
13.04359603,47.53919484,1916.18
13.04364430,47.53922266,1913.64
13.04376465,47.53926664,1896.50
13.04380776,47.53934008,1894.63
13.04384802,47.53936156,1891.15
13.04387303,47.53940014,1890.99
13.04393231,47.53946045,1885.76
13.04392510,47.53948273,1885.85
13.04394625,47.53948228,1886.25
13.04399117,47.53953569,1885.77
13.04401165,47.53956744,1884.95
13.04401303,47.53959815,1884.77
13.04405550,47.53966393,1878.76
13.04408831,47.53969995,1872.29
13.04406703,47.53970030,1871.76
13.04401769,47.53976218,1856.44
13.04413046,47.53975996,1852.66
</coordinates></LineString>
<LineString><altitudeMode>absolute</altitudeMode><coordinates>
13.04413046,47.53975996,1852.66
13.04416526,47.53973896,1849.66
</coordinates></LineString>
<LineString><altitudeMode>absolute</altitudeMode><coordinates>
13.04416526,47.53973896,1849.66
13.04418328,47.53972955,1830.13
13.04424788,47.53977214,1816.22
</coordinates></LineString>
<LineString><altitudeMode>absolute</altitudeMode><coordinates>
13.04346473,47.53908084,1925.78
13.04347245,47.53906270,1922.15
13.04348698,47.53903298,1921.08
13.04349680,47.53904044,1919.77
13.04351635,47.53903646,1917.10
13.04362016,47.53901411,1911.57
</coordinates></LineString>
<LineString><altitudeMode>absolute</altitudeMode><coordinates>
13.04321887,47.53898171,1941.40
13.04324777,47.53906202,1942.69
13.04324238,47.53911052,1943.74
</coordinates></LineString>
<LineString><altitudeMode>absolute</altitudeMode><coordinates>
13.04324777,47.53906202,1942.69
13.04328528,47.53907876,1945.15
</coordinates></LineString>
<LineString><altitudeMode>absolute</altitudeMode><coordinates>
13.04359365,47.53920532,1919.79
13.04352639,47.53919869,1919.63
13.04348466,47.53923442,1918.42
13.04352602,47.53925501,1917.74
</coordinates></LineString>
<LineString><altitudeMode>absolute</altitudeMode><coordinates>
13.04401165,47.53956744,1884.95
13.04401165,47.53956744,1880.05
</coordinates></LineString>
<LineString><altitudeMode>absolute</altitudeMode><coordinates>
13.04348466,47.53923442,1918.42
13.04345752,47.53924241,1915.02
</coordinates></LineString>
<LineString><altitudeMode>absolute</altitudeMode><coordinates>
13.04345752,47.53924241,1915.02
13.04343901,47.53924345,1914.92
13.04341836,47.53926640,1914.01
13.04341836,47.53926640,1912.81
13.04338423,47.53927662,1911.50
13.04337484,47.53926449,1911.21
13.04329948,47.53924368,1908.22
13.04329295,47.53925490,1907.95
13.04327169,47.53926192,1907.30
13.04324629,47.53928011,1905.83
13.04319339,47.53928758,1905.25
13.04317681,47.53929395,1904.82
13.04317439,47.53930561,1904.47
13.04314711,47.53931369,1904.23
13.04314439,47.53931545,1900.99
13.04305823,47.53925234,1900.99
</coordinates></LineString>
<LineString><altitudeMode>absolute</altitudeMode><coordinates>
13.04314439,47.53931545,1900.99
13.04318191,47.53933201,1899.77
13.04315781,47.53934762,1899.68
13.04320131,47.53937842,1898.14
13.04320131,47.53937842,1885.49
</coordinates></LineString>
<LineString><altitudeMode>absolute</altitudeMode><coordinates>
13.04441203,47.54012461,1778.51
13.04443779,47.54017877,1780.94
</coordinates></LineString>
<LineString><altitudeMode>absolute</altitudeMode><coordinates>
13.04452463,47.54023064,1769.07
13.04450650,47.54026786,1769.07
</coordinates></LineString>
<LineString><altitudeMode>absolute</altitudeMode><coordinates>
13.04452463,47.54023064,1769.07
13.04454130,47.54020771,1769.07
</coordinates></LineString>
<LineString><altitudeMode>absolute</altitudeMode><coordinates>
13.04514851,47.54056352,1744.77
13.04516990,47.54056019,1740.69
</coordinates></LineString>
<LineString><altitudeMode>absolute</altitudeMode><coordinates>
13.04498297,47.54048052,1760.79
13.04496222,47.54044156,1761.52
13.04499260,47.54038584,1764.45
13.04497538,47.54037736,1767.61
</coordinates></LineString>
<LineString><altitudeMode>absolute</altitudeMode><coordinates>
13.04492831,47.54062446,1758.29
13.04494799,47.54060635,1756.34
13.04484219,47.54058547,1764.07
</coordinates></LineString>
<LineString><altitudeMode>absolute</altitudeMode><coordinates>
13.04495763,47.54081509,1763.25
13.04496934,47.54086110,1764.84
13.04495762,47.54088681,1763.63
13.04496209,47.54091685,1762.54
</coordinates></LineString>
<LineString><altitudeMode>absolute</altitudeMode><coordinates>
13.04542924,47.54085850,1716.94
13.04535875,47.54086000,1716.94
13.04536951,47.54080286,1716.94
</coordinates></LineString>
<LineString><altitudeMode>absolute</altitudeMode><coordinates>
13.04561173,47.54103258,1716.70
13.04561173,47.54103258,1713.20
</coordinates></LineString>
<LineString><altitudeMode>absolute</altitudeMode><coordinates>
13.04546228,47.54087751,1715.54
13.04546228,47.54087751,1711.94
</coordinates></LineString>
<LineString><altitudeMode>absolute</altitudeMode><coordinates>
13.04429146,47.53975074,1811.27
13.04427522,47.53973364,1811.62
13.04422444,47.53967347,1811.76
13.04423783,47.53964221,1811.63
13.04419528,47.53955726,1811.81
13.04415927,47.53937848,1811.81
13.04417462,47.53938378,1811.55
13.04416313,47.53930691,1811.55
13.04409263,47.53921231,1814.06
</coordinates></LineString></MultiGeometry></Placemark>
</Document></kml>
