<?xml version="1.0" encoding="UTF-8"?>
<gpx version="1.0" creator="survex 1.4.17 (aven) - https://survex.com/" xmlns:xsi="http://www.w3.org/2001/XMLSchema-instance" xmlns="http://www.topografix.com/GPX/1/0" xsi:schemaLocation="http://www.topografix.com/GPX/1/0 http://www.topografix.com/GPX/1/0/gpx.xsd">
<name>488-master</name>
<time>2025-06-23T19:15:30Z</time>
<trk><name>488-master</name><trkseg>
<trkpt lon="13.03772167" lat="47.53641670"><ele>1954.00</ele></trkpt>
<trkpt lon="13.03774846" lat="47.53641446"><ele>1951.20</ele></trkpt>
<trkpt lon="13.03772133" lat="47.53642228"><ele>1947.91</ele></trkpt>
<trkpt lon="13.03771327" lat="47.53640306"><ele>1946.47</ele></trkpt>
<trkpt lon="13.03770499" lat="47.53638654"><ele>1945.06</ele></trkpt>
</trkseg><trkseg>
<trkpt lon="13.03771327" lat="47.53640306"><ele>1946.47</ele></trkpt>
<trkpt lon="13.03772077" lat="47.53636234"><ele>1947.61</ele></trkpt>
<trkpt lon="13.03770952" lat="47.53631841"><ele>1948.75</ele></trkpt>
<trkpt lon="13.03770472" lat="47.53632607"><ele>1949.71</ele></trkpt>
<trkpt lon="13.03768575" lat="47.53631441"><ele>1947.64</ele></trkpt>
<trkpt lon="13.03768467" lat="47.53626868"><ele>1947.82</ele></trkpt>
</trkseg></trk>
</gpx>
