<?xml version="1.0" encoding="UTF-8"?>
<gpx version="1.0" creator="survex 1.4.17 (aven) - https://survex.com/" xmlns:xsi="http://www.w3.org/2001/XMLSchema-instance" xmlns="http://www.topografix.com/GPX/1/0" xsi:schemaLocation="http://www.topografix.com/GPX/1/0 http://www.topografix.com/GPX/1/0/gpx.xsd">
<name>492-master</name>
<time>2025-06-23T19:15:31Z</time>
<trk><name>492-master</name><trkseg>
<trkpt lon="13.03821664" lat="47.53303333"><ele>2040.00</ele></trkpt>
<trkpt lon="13.03831009" lat="47.53302881"><ele>2037.29</ele></trkpt>
<trkpt lon="13.03833109" lat="47.53302503"><ele>2034.96</ele></trkpt>
<trkpt lon="13.03842325" lat="47.53308320"><ele>2030.53</ele></trkpt>
<trkpt lon="13.03848534" lat="47.53303954"><ele>2033.25</ele></trkpt>
<trkpt lon="13.03870163" lat="47.53299735"><ele>2041.52</ele></trkpt>
<trkpt lon="13.03875915" lat="47.53299051"><ele>2045.34</ele></trkpt>
</trkseg><trkseg>
<trkpt lon="13.03875915" lat="47.53299051"><ele>2045.34</ele></trkpt>
<trkpt lon="13.03880112" lat="47.53299447"><ele>2045.12</ele></trkpt>
<trkpt lon="13.03885025" lat="47.53290271"><ele>2045.12</ele></trkpt>
</trkseg><trkseg>
<trkpt lon="13.03885025" lat="47.53290271"><ele>2045.12</ele></trkpt>
<trkpt lon="13.03887316" lat="47.53285478"><ele>2041.89</ele></trkpt>
<trkpt lon="13.03893041" lat="47.53281977"><ele>2045.52</ele></trkpt>
</trkseg></trk>
</gpx>
