<?xml version="1.0" encoding="UTF-8"?>
<gpx version="1.0" creator="survex 1.4.17 (aven) - https://survex.com/" xmlns:xsi="http://www.w3.org/2001/XMLSchema-instance" xmlns="http://www.topografix.com/GPX/1/0" xsi:schemaLocation="http://www.topografix.com/GPX/1/0 http://www.topografix.com/GPX/1/0/gpx.xsd">
<name>Plynacych_Kamieni-master</name>
<time>2025-06-23T19:15:45Z</time>
<trk><name>Plynacych_Kamieni-master</name><trkseg>
<trkpt lon="13.05821664" lat="47.53288332"><ele>1990.00</ele></trkpt>
<trkpt lon="13.05822200" lat="47.53285695"><ele>1983.03</ele></trkpt>
<trkpt lon="13.05823336" lat="47.53285868"><ele>1980.87</ele></trkpt>
<trkpt lon="13.05822490" lat="47.53286105"><ele>1973.08</ele></trkpt>
<trkpt lon="13.05826111" lat="47.53284844"><ele>1969.30</ele></trkpt>
<trkpt lon="13.05826843" lat="47.53282661"><ele>1962.44</ele></trkpt>
<trkpt lon="13.05826211" lat="47.53281777"><ele>1960.77</ele></trkpt>
<trkpt lon="13.05826509" lat="47.53277661"><ele>1943.67</ele></trkpt>
<trkpt lon="13.05822686" lat="47.53280449"><ele>1940.12</ele></trkpt>
<trkpt lon="13.05822686" lat="47.53280449"><ele>1939.62</ele></trkpt>
</trkseg></trk>
</gpx>
