<?xml version="1.0" encoding="UTF-8"?>
<gpx version="1.0" creator="survex 1.4.17 (aven) - https://survex.com/" xmlns:xsi="http://www.w3.org/2001/XMLSchema-instance" xmlns="http://www.topografix.com/GPX/1/0" xsi:schemaLocation="http://www.topografix.com/GPX/1/0 http://www.topografix.com/GPX/1/0/gpx.xsd">
<name>485-master</name>
<time>2025-06-23T19:15:29Z</time>
<trk><name>485-master</name><trkseg>
<trkpt lon="13.03466663" lat="47.53647163"><ele>2007.00</ele></trkpt>
<trkpt lon="13.03466560" lat="47.53648502"><ele>2003.12</ele></trkpt>
<trkpt lon="13.03462160" lat="47.53649948"><ele>1999.43</ele></trkpt>
<trkpt lon="13.03459923" lat="47.53651511"><ele>1997.11</ele></trkpt>
<trkpt lon="13.03458906" lat="47.53652420"><ele>1995.64</ele></trkpt>
<trkpt lon="13.03453316" lat="47.53654421"><ele>1991.51</ele></trkpt>
<trkpt lon="13.03453206" lat="47.53655238"><ele>1991.02</ele></trkpt>
</trkseg></trk>
</gpx>
