<?xml version="1.0" encoding="UTF-8"?>
<gpx version="1.0" creator="survex 1.4.17 (aven) - https://survex.com/" xmlns:xsi="http://www.w3.org/2001/XMLSchema-instance" xmlns="http://www.topografix.com/GPX/1/0" xsi:schemaLocation="http://www.topografix.com/GPX/1/0 http://www.topografix.com/GPX/1/0/gpx.xsd">
<name>562-master</name>
<time>2025-06-23T19:15:39Z</time>
<trk><name>562-master</name><trkseg>
<trkpt lon="13.05808338" lat="47.53202334"><ele>1993.00</ele></trkpt>
<trkpt lon="13.05802713" lat="47.53191656"><ele>1970.26</ele></trkpt>
<trkpt lon="13.05802713" lat="47.53191656"><ele>1949.26</ele></trkpt>
</trkseg></trk>
</gpx>
