<?xml version="1.0" encoding="UTF-8"?>
<kml xmlns="http://www.opengis.net/kml/2.2">
<Document><name>426-master</name>
<Style id="fix"><IconStyle><Icon><href>https://maps.google.com/mapfiles/kml/paddle/red-blank.png</href></Icon><color>ff0000ff</color><hotSpot x="32" y="1" xunits="pixels" yunits="pixels"/></IconStyle></Style>
<Style id="exp"><IconStyle><Icon><href>https://maps.google.com/mapfiles/kml/paddle/blu-blank.png</href></Icon><color>ffff0000</color><hotSpot x="32" y="1" xunits="pixels" yunits="pixels"/></IconStyle></Style>
<Style id="ent"><IconStyle><Icon><href>https://maps.google.com/mapfiles/kml/paddle/grn-blank.png</href></Icon><color>ff00ff00</color><hotSpot x="32" y="1" xunits="pixels" yunits="pixels"/></IconStyle></Style>
<Style id="surf"><LineStyle><color>ff00ff00</color></LineStyle></Style>
<Style id="splay"><LineStyle><color>40ff00ff</color></LineStyle></Style>
<Placemark><MultiGeometry><LineString><altitudeMode>absolute</altitudeMode><coordinates>
13.04337352,47.52620278,2033.30
13.04334379,47.52621280,2031.66
13.04332726,47.52621072,2030.77
13.04330839,47.52621795,2028.65
13.04327973,47.52622412,2027.44
13.04327401,47.52625651,2025.24
13.04330189,47.52627120,2026.71
13.04331966,47.52626494,2027.83
13.04333242,47.52627541,2028.06
13.04334311,47.52626669,2028.89
13.04338203,47.52625628,2031.60
13.04339316,47.52625701,2032.18
13.04338550,47.52624131,2032.79
13.04337352,47.52620278,2033.30
</coordinates></LineString>
<LineString><altitudeMode>absolute</altitudeMode><coordinates>
13.04386668,47.52636668,2052.00
13.04382399,47.52637495,2050.26
13.04379952,47.52637580,2049.98
13.04373130,47.52634890,2048.73
13.04369716,47.52632753,2049.38
13.04368715,47.52628947,2049.76
13.04365444,47.52627587,2048.24
13.04359242,47.52622883,2046.00
13.04354998,47.52616961,2044.59
13.04348203,47.52617133,2042.65
13.04338521,47.52617787,2042.56
13.04339583,47.52621387,2041.47
13.04338283,47.52621670,2039.66
13.04338782,47.52622543,2037.66
13.04338396,47.52622221,2036.43
13.04337767,47.52622336,2035.11
13.04338474,47.52622969,2033.45
13.04337352,47.52620278,2033.30
</coordinates></LineString>
<LineString><altitudeMode>absolute</altitudeMode><coordinates>
13.04365444,47.52627587,2048.24
13.04372805,47.52625418,2050.26
13.04377661,47.52626662,2050.45
</coordinates></LineString>
<LineString><altitudeMode>absolute</altitudeMode><coordinates>
13.04348203,47.52617133,2042.65
13.04338296,47.52611700,2048.03
13.04335295,47.52609867,2049.32
</coordinates></LineString>
<LineString><altitudeMode>absolute</altitudeMode><coordinates>
13.04348203,47.52617133,2042.65
13.04338196,47.52629722,2052.69
</coordinates></LineString>
<LineString><altitudeMode>absolute</altitudeMode><coordinates>
13.04338521,47.52617787,2042.56
13.04332878,47.52620912,2045.85
</coordinates></LineString>
<LineString><altitudeMode>absolute</altitudeMode><coordinates>
13.04337352,47.52620278,2033.30
13.04337300,47.52623822,2032.88
</coordinates></LineString>
<LineString><altitudeMode>absolute</altitudeMode><coordinates>
13.04327401,47.52625651,2025.24
13.04324916,47.52626382,2024.39
13.04318745,47.52627978,2022.16
13.04308219,47.52628464,2017.17
13.04301763,47.52630216,2015.19
13.04300998,47.52627234,2014.39
13.04295567,47.52628221,2013.54
13.04293747,47.52625004,2012.56
13.04291634,47.52624311,2012.81
13.04290951,47.52620169,2011.85
13.04286069,47.52618196,2011.60
13.04284688,47.52616031,2013.46
13.04286242,47.52614969,2014.96
13.04282808,47.52614433,2017.19
13.04285392,47.52605335,2019.86
13.04282673,47.52605217,2019.37
13.04282195,47.52601996,2018.93
13.04283892,47.52601368,2016.80
13.04285793,47.52600267,2016.46
</coordinates></LineString>
<LineString><altitudeMode>absolute</altitudeMode><coordinates>
13.04318745,47.52627978,2022.16
13.04319816,47.52628842,2020.12
</coordinates></LineString>
<LineString><altitudeMode>absolute</altitudeMode><coordinates>
13.04286069,47.52618196,2011.60
13.04286477,47.52622244,2008.53
13.04287027,47.52621740,2007.02
13.04287824,47.52623176,2005.88
</coordinates></LineString>
<LineString><altitudeMode>absolute</altitudeMode><coordinates>
13.04282673,47.52605217,2019.37
13.04283632,47.52605152,2020.20
13.04282028,47.52605764,2021.33
13.04279830,47.52604142,2022.77
</coordinates></LineString>
<LineString><altitudeMode>absolute</altitudeMode><coordinates>
13.04279830,47.52604142,2022.77
13.04274032,47.52603216,2024.81
13.04273785,47.52605227,2025.93
</coordinates></LineString>
<LineString><altitudeMode>absolute</altitudeMode><coordinates>
13.04282808,47.52614433,2017.19
13.04281595,47.52617058,2018.79
13.04277384,47.52618831,2020.28
</coordinates></LineString></MultiGeometry></Placemark>
</Document></kml>
