<?xml version="1.0" encoding="UTF-8"?>
<gpx version="1.0" creator="survex 1.4.17 (aven) - https://survex.com/" xmlns:xsi="http://www.w3.org/2001/XMLSchema-instance" xmlns="http://www.topografix.com/GPX/1/0" xsi:schemaLocation="http://www.topografix.com/GPX/1/0 http://www.topografix.com/GPX/1/0/gpx.xsd">
<name>506-master</name>
<time>2025-06-23T19:15:38Z</time>
<trk><name>506-master</name><trkseg>
<trkpt lon="13.05224170" lat="47.52760996"><ele>2033.00</ele></trkpt>
<trkpt lon="13.05221186" lat="47.52761945"><ele>2028.77</ele></trkpt>
</trkseg><trkseg>
<trkpt lon="13.05221186" lat="47.52761945"><ele>2028.77</ele></trkpt>
<trkpt lon="13.05221369" lat="47.52760949"><ele>2020.46</ele></trkpt>
</trkseg><trkseg>
<trkpt lon="13.05221369" lat="47.52760949"><ele>2020.46</ele></trkpt>
<trkpt lon="13.05220640" lat="47.52761629"><ele>2015.59</ele></trkpt>
</trkseg><trkseg>
<trkpt lon="13.05220640" lat="47.52761629"><ele>2015.59</ele></trkpt>
<trkpt lon="13.05219568" lat="47.52761872"><ele>2002.20</ele></trkpt>
<trkpt lon="13.05218085" lat="47.52762810"><ele>1996.57</ele></trkpt>
</trkseg><trkseg>
<trkpt lon="13.05218085" lat="47.52762810"><ele>1996.57</ele></trkpt>
<trkpt lon="13.05219852" lat="47.52762813"><ele>1988.71</ele></trkpt>
</trkseg><trkseg>
<trkpt lon="13.05219852" lat="47.52762813"><ele>1988.71</ele></trkpt>
<trkpt lon="13.05221380" lat="47.52759932"><ele>1983.31</ele></trkpt>
</trkseg><trkseg>
<trkpt lon="13.05221380" lat="47.52759932"><ele>1983.31</ele></trkpt>
<trkpt lon="13.05215631" lat="47.52764154"><ele>1980.41</ele></trkpt>
</trkseg><trkseg>
<trkpt lon="13.05215631" lat="47.52764154"><ele>1980.41</ele></trkpt>
<trkpt lon="13.05212668" lat="47.52763429"><ele>1984.48</ele></trkpt>
</trkseg><trkseg>
<trkpt lon="13.05212668" lat="47.52763429"><ele>1984.48</ele></trkpt>
<trkpt lon="13.05200659" lat="47.52763413"><ele>1991.19</ele></trkpt>
</trkseg><trkseg>
<trkpt lon="13.05200659" lat="47.52763413"><ele>1991.19</ele></trkpt>
<trkpt lon="13.05198380" lat="47.52771131"><ele>1995.73</ele></trkpt>
</trkseg></trk>
</gpx>
