<?xml version="1.0" encoding="UTF-8"?>
<kml xmlns="http://www.opengis.net/kml/2.2">
<Document><name>506-master</name>
<Style id="fix"><IconStyle><Icon><href>https://maps.google.com/mapfiles/kml/paddle/red-blank.png</href></Icon><color>ff0000ff</color><hotSpot x="32" y="1" xunits="pixels" yunits="pixels"/></IconStyle></Style>
<Style id="exp"><IconStyle><Icon><href>https://maps.google.com/mapfiles/kml/paddle/blu-blank.png</href></Icon><color>ffff0000</color><hotSpot x="32" y="1" xunits="pixels" yunits="pixels"/></IconStyle></Style>
<Style id="ent"><IconStyle><Icon><href>https://maps.google.com/mapfiles/kml/paddle/grn-blank.png</href></Icon><color>ff00ff00</color><hotSpot x="32" y="1" xunits="pixels" yunits="pixels"/></IconStyle></Style>
<Style id="surf"><LineStyle><color>ff00ff00</color></LineStyle></Style>
<Style id="splay"><LineStyle><color>40ff00ff</color></LineStyle></Style>
<Placemark><MultiGeometry><LineString><altitudeMode>absolute</altitudeMode><coordinates>
13.05224170,47.52760996,2033.00
13.05221186,47.52761945,2028.77
</coordinates></LineString>
<LineString><altitudeMode>absolute</altitudeMode><coordinates>
13.05221186,47.52761945,2028.77
13.05221369,47.52760949,2020.46
</coordinates></LineString>
<LineString><altitudeMode>absolute</altitudeMode><coordinates>
13.05221369,47.52760949,2020.46
13.05220640,47.52761629,2015.59
</coordinates></LineString>
<LineString><altitudeMode>absolute</altitudeMode><coordinates>
13.05220640,47.52761629,2015.59
13.05219568,47.52761872,2002.20
13.05218085,47.52762810,1996.57
</coordinates></LineString>
<LineString><altitudeMode>absolute</altitudeMode><coordinates>
13.05218085,47.52762810,1996.57
13.05219852,47.52762813,1988.71
</coordinates></LineString>
<LineString><altitudeMode>absolute</altitudeMode><coordinates>
13.05219852,47.52762813,1988.71
13.05221380,47.52759932,1983.31
</coordinates></LineString>
<LineString><altitudeMode>absolute</altitudeMode><coordinates>
13.05221380,47.52759932,1983.31
13.05215631,47.52764154,1980.41
</coordinates></LineString>
<LineString><altitudeMode>absolute</altitudeMode><coordinates>
13.05215631,47.52764154,1980.41
13.05212668,47.52763429,1984.48
</coordinates></LineString>
<LineString><altitudeMode>absolute</altitudeMode><coordinates>
13.05212668,47.52763429,1984.48
13.05200659,47.52763413,1991.19
</coordinates></LineString>
<LineString><altitudeMode>absolute</altitudeMode><coordinates>
13.05200659,47.52763413,1991.19
13.05198380,47.52771131,1995.73
</coordinates></LineString></MultiGeometry></Placemark>
</Document></kml>
