<?xml version="1.0" encoding="UTF-8"?>
<gpx version="1.0" creator="survex 1.4.17 (aven) - https://survex.com/" xmlns:xsi="http://www.w3.org/2001/XMLSchema-instance" xmlns="http://www.topografix.com/GPX/1/0" xsi:schemaLocation="http://www.topografix.com/GPX/1/0 http://www.topografix.com/GPX/1/0/gpx.xsd">
<name>425-master</name>
<time>2025-06-23T19:15:27Z</time>
<trk><name>425-master</name><trkseg>
<trkpt lon="13.04298338" lat="47.52773331"><ele>2090.00</ele></trkpt>
<trkpt lon="13.04309491" lat="47.52774934"><ele>2083.12</ele></trkpt>
<trkpt lon="13.04320930" lat="47.52773861"><ele>2076.38</ele></trkpt>
<trkpt lon="13.04321934" lat="47.52777234"><ele>2075.59</ele></trkpt>
<trkpt lon="13.04328549" lat="47.52777608"><ele>2069.35</ele></trkpt>
<trkpt lon="13.04334091" lat="47.52777559"><ele>2068.82</ele></trkpt>
<trkpt lon="13.04338537" lat="47.52776267"><ele>2067.44</ele></trkpt>
<trkpt lon="13.04345738" lat="47.52780889"><ele>2066.02</ele></trkpt>
<trkpt lon="13.04369538" lat="47.52783257"><ele>2062.27</ele></trkpt>
<trkpt lon="13.04372159" lat="47.52787792"><ele>2061.05</ele></trkpt>
<trkpt lon="13.04378429" lat="47.52792803"><ele>2061.17</ele></trkpt>
<trkpt lon="13.04391387" lat="47.52793393"><ele>2059.62</ele></trkpt>
<trkpt lon="13.04390889" lat="47.52789641"><ele>2061.75</ele></trkpt>
<trkpt lon="13.04393797" lat="47.52787558"><ele>2059.51</ele></trkpt>
<trkpt lon="13.04397369" lat="47.52783660"><ele>2057.21</ele></trkpt>
<trkpt lon="13.04391570" lat="47.52780267"><ele>2059.49</ele></trkpt>
<trkpt lon="13.04394163" lat="47.52777702"><ele>2060.80</ele></trkpt>
<trkpt lon="13.04397940" lat="47.52779395"><ele>2061.96</ele></trkpt>
<trkpt lon="13.04400018" lat="47.52782094"><ele>2060.03</ele></trkpt>
<trkpt lon="13.04408581" lat="47.52780828"><ele>2059.93</ele></trkpt>
<trkpt lon="13.04413615" lat="47.52785881"><ele>2062.37</ele></trkpt>
</trkseg><trkseg>
<trkpt lon="13.04393797" lat="47.52787558"><ele>2059.51</ele></trkpt>
<trkpt lon="13.04401723" lat="47.52787333"><ele>2055.85</ele></trkpt>
</trkseg><trkseg>
<trkpt lon="13.04391570" lat="47.52780267"><ele>2059.49</ele></trkpt>
<trkpt lon="13.04388963" lat="47.52782841"><ele>2058.18</ele></trkpt>
<trkpt lon="13.04379760" lat="47.52779877"><ele>2055.28</ele></trkpt>
<trkpt lon="13.04375298" lat="47.52780539"><ele>2053.67</ele></trkpt>
<trkpt lon="13.04370430" lat="47.52776757"><ele>2054.10</ele></trkpt>
<trkpt lon="13.04367032" lat="47.52773460"><ele>2054.67</ele></trkpt>
<trkpt lon="13.04369600" lat="47.52771938"><ele>2053.83</ele></trkpt>
<trkpt lon="13.04375638" lat="47.52771762"><ele>2048.51</ele></trkpt>
<trkpt lon="13.04370234" lat="47.52769168"><ele>2045.97</ele></trkpt>
</trkseg><trkseg>
<trkpt lon="13.04369600" lat="47.52771938"><ele>2053.83</ele></trkpt>
<trkpt lon="13.04370884" lat="47.52768145"><ele>2054.66</ele></trkpt>
<trkpt lon="13.04369172" lat="47.52764876"><ele>2056.33</ele></trkpt>
<trkpt lon="13.04369852" lat="47.52764447"><ele>2057.03</ele></trkpt>
<trkpt lon="13.04376440" lat="47.52761644"><ele>2052.34</ele></trkpt>
<trkpt lon="13.04374344" lat="47.52758323"><ele>2047.49</ele></trkpt>
</trkseg><trkseg>
<trkpt lon="13.04369852" lat="47.52764447"><ele>2057.03</ele></trkpt>
<trkpt lon="13.04369852" lat="47.52764447"><ele>2057.93</ele></trkpt>
<trkpt lon="13.04368225" lat="47.52763555"><ele>2059.61</ele></trkpt>
<trkpt lon="13.04363120" lat="47.52759716"><ele>2056.80</ele></trkpt>
<trkpt lon="13.04355162" lat="47.52765060"><ele>2055.73</ele></trkpt>
<trkpt lon="13.04345180" lat="47.52767337"><ele>2051.69</ele></trkpt>
<trkpt lon="13.04339844" lat="47.52764690"><ele>2052.08</ele></trkpt>
<trkpt lon="13.04337995" lat="47.52756560"><ele>2045.44</ele></trkpt>
<trkpt lon="13.04331813" lat="47.52755600"><ele>2044.99</ele></trkpt>
</trkseg><trkseg>
<trkpt lon="13.04345180" lat="47.52767337"><ele>2051.69</ele></trkpt>
<trkpt lon="13.04341956" lat="47.52765059"><ele>2050.24</ele></trkpt>
<trkpt lon="13.04338134" lat="47.52769241"><ele>2053.94</ele></trkpt>
<trkpt lon="13.04326223" lat="47.52765853"><ele>2048.60</ele></trkpt>
</trkseg></trk>
</gpx>
