<?xml version="1.0" encoding="UTF-8"?>
<gpx version="1.0" creator="survex 1.4.17 (aven) - https://survex.com/" xmlns:xsi="http://www.w3.org/2001/XMLSchema-instance" xmlns="http://www.topografix.com/GPX/1/0" xsi:schemaLocation="http://www.topografix.com/GPX/1/0 http://www.topografix.com/GPX/1/0/gpx.xsd">
<name>493-master</name>
<time>2025-06-23T19:15:31Z</time>
<trk><name>493-master</name><trkseg>
<trkpt lon="13.04153332" lat="47.53786664"><ele>1985.00</ele></trkpt>
<trkpt lon="13.04165230" lat="47.53792941"><ele>1980.41</ele></trkpt>
<trkpt lon="13.04172030" lat="47.53789458"><ele>1978.69</ele></trkpt>
<trkpt lon="13.04172030" lat="47.53789458"><ele>1977.29</ele></trkpt>
<trkpt lon="13.04175987" lat="47.53787042"><ele>1976.44</ele></trkpt>
<trkpt lon="13.04175190" lat="47.53780982"><ele>1973.98</ele></trkpt>
</trkseg></trk>
</gpx>
