<?xml version="1.0" encoding="UTF-8"?>
<kml xmlns="http://www.opengis.net/kml/2.2">
<Document><name>158-master</name>
<Style id="fix"><IconStyle><Icon><href>https://maps.google.com/mapfiles/kml/paddle/red-blank.png</href></Icon><color>ff0000ff</color><hotSpot x="32" y="1" xunits="pixels" yunits="pixels"/></IconStyle></Style>
<Style id="exp"><IconStyle><Icon><href>https://maps.google.com/mapfiles/kml/paddle/blu-blank.png</href></Icon><color>ffff0000</color><hotSpot x="32" y="1" xunits="pixels" yunits="pixels"/></IconStyle></Style>
<Style id="ent"><IconStyle><Icon><href>https://maps.google.com/mapfiles/kml/paddle/grn-blank.png</href></Icon><color>ff00ff00</color><hotSpot x="32" y="1" xunits="pixels" yunits="pixels"/></IconStyle></Style>
<Style id="surf"><LineStyle><color>ff00ff00</color></LineStyle></Style>
<Style id="splay"><LineStyle><color>40ff00ff</color></LineStyle></Style>
<Placemark><MultiGeometry><LineString><altitudeMode>absolute</altitudeMode><coordinates>
13.06436673,47.53001669,2025.00
13.06428204,47.53005782,2019.30
13.06421386,47.53004416,2018.01
13.06418902,47.53005472,2016.46
13.06418674,47.53005531,2012.47
13.06416450,47.53007113,2013.65
13.06412542,47.53007182,2005.04
13.06413372,47.53002319,2003.74
13.06417654,47.53001834,2002.50
13.06415259,47.52997249,2003.98
13.06420418,47.52994979,2005.24
13.06420255,47.52994697,2003.48
13.06428479,47.52996158,2003.28
13.06428479,47.52996158,1998.88
13.06421279,47.52996136,1997.11
13.06419918,47.52996635,1990.42
13.06417730,47.52997966,1984.84
13.06415476,47.52995687,1985.37
13.06421556,47.52992208,1985.65
</coordinates></LineString>
<LineString><altitudeMode>absolute</altitudeMode><coordinates>
13.06428479,47.52996158,1998.88
13.06434412,47.52996304,1999.37
13.06437831,47.52997279,1999.15
13.06438993,47.52996750,1998.84
13.06445274,47.52995389,1998.22
13.06452239,47.52996398,1997.54
13.06455019,47.52995950,1998.35
13.06456183,47.52996077,1997.40
13.06456477,47.52994948,1996.44
13.06458243,47.52994249,1995.50
13.06460530,47.52994936,1992.20
13.06460530,47.52994936,1969.00
13.06460530,47.52994936,1956.80
</coordinates></LineString>
<LineString><altitudeMode>absolute</altitudeMode><coordinates>
13.06460530,47.52994936,1969.00
13.06457466,47.52994794,1961.87
13.06451547,47.52997133,1934.86
</coordinates></LineString>
<LineString><altitudeMode>absolute</altitudeMode><coordinates>
13.06451547,47.52997133,1934.86
13.06451286,47.53000980,1933.51
13.06448870,47.53001290,1932.98
13.06449883,47.53001928,1933.16
13.06449212,47.53003536,1932.98
13.06447024,47.53003427,1932.23
13.06446290,47.53004612,1931.96
13.06449363,47.53005950,1931.52
13.06449145,47.53006100,1931.80
13.06445470,47.53007747,1931.24
13.06445959,47.53008196,1931.10
13.06441219,47.53009556,1929.85
13.06436731,47.53013089,1928.12
13.06433955,47.53013060,1927.92
13.06430799,47.53012521,1927.15
13.06426679,47.53011848,1926.48
13.06424520,47.53012019,1925.09
13.06421547,47.53011951,1923.90
13.06420116,47.53012907,1923.58
13.06419192,47.53012037,1923.44
13.06417683,47.53012605,1923.01
13.06417547,47.53011604,1922.20
13.06419306,47.53011112,1915.39
13.06422488,47.53011651,1915.74
13.06419162,47.53015015,1911.31
13.06421800,47.53016616,1909.38
13.06421933,47.53015880,1906.10
</coordinates></LineString>
<LineString><altitudeMode>absolute</altitudeMode><coordinates>
13.06421933,47.53015880,1906.10
13.06423445,47.53017769,1899.93
</coordinates></LineString>
<LineString><altitudeMode>absolute</altitudeMode><coordinates>
13.06423445,47.53017769,1899.93
13.06424762,47.53018088,1899.46
</coordinates></LineString>
<LineString><altitudeMode>absolute</altitudeMode><coordinates>
13.06424762,47.53018088,1899.46
13.06425162,47.53018769,1899.02
</coordinates></LineString>
<LineString><altitudeMode>absolute</altitudeMode><coordinates>
13.06425162,47.53018769,1899.02
13.06425988,47.53019062,1899.30
</coordinates></LineString>
<LineString><altitudeMode>absolute</altitudeMode><coordinates>
13.06425988,47.53019062,1899.30
13.06426454,47.53019772,1899.41
</coordinates></LineString>
<LineString><altitudeMode>absolute</altitudeMode><coordinates>
13.06426454,47.53019772,1899.41
13.06425962,47.53020124,1899.20
</coordinates></LineString>
<LineString><altitudeMode>absolute</altitudeMode><coordinates>
13.06425962,47.53020124,1899.20
13.06425316,47.53020725,1899.02
</coordinates></LineString>
<LineString><altitudeMode>absolute</altitudeMode><coordinates>
13.06425316,47.53020725,1899.02
13.06424516,47.53022601,1898.70
</coordinates></LineString>
<LineString><altitudeMode>absolute</altitudeMode><coordinates>
13.06424516,47.53022601,1898.70
13.06425096,47.53023096,1898.80
</coordinates></LineString>
<LineString><altitudeMode>absolute</altitudeMode><coordinates>
13.06425096,47.53023096,1898.80
13.06427120,47.53024417,1898.40
</coordinates></LineString>
<LineString><altitudeMode>absolute</altitudeMode><coordinates>
13.06427120,47.53024417,1898.40
13.06431237,47.53025171,1898.81
</coordinates></LineString>
<LineString><altitudeMode>absolute</altitudeMode><coordinates>
13.06431237,47.53025171,1898.81
13.06432656,47.53025249,1898.62
</coordinates></LineString>
<LineString><altitudeMode>absolute</altitudeMode><coordinates>
13.06432656,47.53025249,1898.62
13.06434111,47.53025066,1898.31
</coordinates></LineString>
<LineString><altitudeMode>absolute</altitudeMode><coordinates>
13.06434111,47.53025066,1898.31
13.06435616,47.53026037,1896.76
</coordinates></LineString>
<LineString><altitudeMode>absolute</altitudeMode><coordinates>
13.06435616,47.53026037,1896.76
13.06436593,47.53023695,1895.81
</coordinates></LineString>
<LineString><altitudeMode>absolute</altitudeMode><coordinates>
13.06436593,47.53023695,1895.81
13.06433595,47.53021404,1894.10
</coordinates></LineString>
<LineString><altitudeMode>absolute</altitudeMode><coordinates>
13.06435616,47.53026037,1896.76
13.06437820,47.53026812,1896.35
</coordinates></LineString>
<LineString><altitudeMode>absolute</altitudeMode><coordinates>
13.06437820,47.53026812,1896.35
13.06437570,47.53027815,1896.19
</coordinates></LineString>
<LineString><altitudeMode>absolute</altitudeMode><coordinates>
13.06437570,47.53027815,1896.19
13.06436129,47.53028358,1896.45
</coordinates></LineString>
<LineString><altitudeMode>absolute</altitudeMode><coordinates>
13.06436129,47.53028358,1896.45
13.06435550,47.53028915,1896.32
</coordinates></LineString>
<LineString><altitudeMode>absolute</altitudeMode><coordinates>
13.06435550,47.53028915,1896.32
13.06435274,47.53029558,1896.06
</coordinates></LineString>
<LineString><altitudeMode>absolute</altitudeMode><coordinates>
13.06435274,47.53029558,1896.06
13.06434089,47.53029619,1895.99
</coordinates></LineString></MultiGeometry></Placemark>
</Document></kml>
