<?xml version="1.0" encoding="UTF-8"?>
<gpx version="1.0" creator="survex 1.4.17 (aven) - https://survex.com/" xmlns:xsi="http://www.w3.org/2001/XMLSchema-instance" xmlns="http://www.topografix.com/GPX/1/0" xsi:schemaLocation="http://www.topografix.com/GPX/1/0 http://www.topografix.com/GPX/1/0/gpx.xsd">
<name>158-master</name>
<time>2025-06-23T19:15:24Z</time>
<trk><name>158-master</name><trkseg>
<trkpt lon="13.06436673" lat="47.53001669"><ele>2025.00</ele></trkpt>
<trkpt lon="13.06428204" lat="47.53005782"><ele>2019.30</ele></trkpt>
<trkpt lon="13.06421386" lat="47.53004416"><ele>2018.01</ele></trkpt>
<trkpt lon="13.06418902" lat="47.53005472"><ele>2016.46</ele></trkpt>
<trkpt lon="13.06418674" lat="47.53005531"><ele>2012.47</ele></trkpt>
<trkpt lon="13.06416450" lat="47.53007113"><ele>2013.65</ele></trkpt>
<trkpt lon="13.06412542" lat="47.53007182"><ele>2005.04</ele></trkpt>
<trkpt lon="13.06413372" lat="47.53002319"><ele>2003.74</ele></trkpt>
<trkpt lon="13.06417654" lat="47.53001834"><ele>2002.50</ele></trkpt>
<trkpt lon="13.06415259" lat="47.52997249"><ele>2003.98</ele></trkpt>
<trkpt lon="13.06420418" lat="47.52994979"><ele>2005.24</ele></trkpt>
<trkpt lon="13.06420255" lat="47.52994697"><ele>2003.48</ele></trkpt>
<trkpt lon="13.06428479" lat="47.52996158"><ele>2003.28</ele></trkpt>
<trkpt lon="13.06428479" lat="47.52996158"><ele>1998.88</ele></trkpt>
<trkpt lon="13.06421279" lat="47.52996136"><ele>1997.11</ele></trkpt>
<trkpt lon="13.06419918" lat="47.52996635"><ele>1990.42</ele></trkpt>
<trkpt lon="13.06417730" lat="47.52997966"><ele>1984.84</ele></trkpt>
<trkpt lon="13.06415476" lat="47.52995687"><ele>1985.37</ele></trkpt>
<trkpt lon="13.06421556" lat="47.52992208"><ele>1985.65</ele></trkpt>
</trkseg><trkseg>
<trkpt lon="13.06428479" lat="47.52996158"><ele>1998.88</ele></trkpt>
<trkpt lon="13.06434412" lat="47.52996304"><ele>1999.37</ele></trkpt>
<trkpt lon="13.06437831" lat="47.52997279"><ele>1999.15</ele></trkpt>
<trkpt lon="13.06438993" lat="47.52996750"><ele>1998.84</ele></trkpt>
<trkpt lon="13.06445274" lat="47.52995389"><ele>1998.22</ele></trkpt>
<trkpt lon="13.06452239" lat="47.52996398"><ele>1997.54</ele></trkpt>
<trkpt lon="13.06455019" lat="47.52995950"><ele>1998.35</ele></trkpt>
<trkpt lon="13.06456183" lat="47.52996077"><ele>1997.40</ele></trkpt>
<trkpt lon="13.06456477" lat="47.52994948"><ele>1996.44</ele></trkpt>
<trkpt lon="13.06458243" lat="47.52994249"><ele>1995.50</ele></trkpt>
<trkpt lon="13.06460530" lat="47.52994936"><ele>1992.20</ele></trkpt>
<trkpt lon="13.06460530" lat="47.52994936"><ele>1969.00</ele></trkpt>
<trkpt lon="13.06460530" lat="47.52994936"><ele>1956.80</ele></trkpt>
</trkseg><trkseg>
<trkpt lon="13.06460530" lat="47.52994936"><ele>1969.00</ele></trkpt>
<trkpt lon="13.06457466" lat="47.52994794"><ele>1961.87</ele></trkpt>
<trkpt lon="13.06451547" lat="47.52997133"><ele>1934.86</ele></trkpt>
</trkseg><trkseg>
<trkpt lon="13.06451547" lat="47.52997133"><ele>1934.86</ele></trkpt>
<trkpt lon="13.06451286" lat="47.53000980"><ele>1933.51</ele></trkpt>
<trkpt lon="13.06448870" lat="47.53001290"><ele>1932.98</ele></trkpt>
<trkpt lon="13.06449883" lat="47.53001928"><ele>1933.16</ele></trkpt>
<trkpt lon="13.06449212" lat="47.53003536"><ele>1932.98</ele></trkpt>
<trkpt lon="13.06447024" lat="47.53003427"><ele>1932.23</ele></trkpt>
<trkpt lon="13.06446290" lat="47.53004612"><ele>1931.96</ele></trkpt>
<trkpt lon="13.06449363" lat="47.53005950"><ele>1931.52</ele></trkpt>
<trkpt lon="13.06449145" lat="47.53006100"><ele>1931.80</ele></trkpt>
<trkpt lon="13.06445470" lat="47.53007747"><ele>1931.24</ele></trkpt>
<trkpt lon="13.06445959" lat="47.53008196"><ele>1931.10</ele></trkpt>
<trkpt lon="13.06441219" lat="47.53009556"><ele>1929.85</ele></trkpt>
<trkpt lon="13.06436731" lat="47.53013089"><ele>1928.12</ele></trkpt>
<trkpt lon="13.06433955" lat="47.53013060"><ele>1927.92</ele></trkpt>
<trkpt lon="13.06430799" lat="47.53012521"><ele>1927.15</ele></trkpt>
<trkpt lon="13.06426679" lat="47.53011848"><ele>1926.48</ele></trkpt>
<trkpt lon="13.06424520" lat="47.53012019"><ele>1925.09</ele></trkpt>
<trkpt lon="13.06421547" lat="47.53011951"><ele>1923.90</ele></trkpt>
<trkpt lon="13.06420116" lat="47.53012907"><ele>1923.58</ele></trkpt>
<trkpt lon="13.06419192" lat="47.53012037"><ele>1923.44</ele></trkpt>
<trkpt lon="13.06417683" lat="47.53012605"><ele>1923.01</ele></trkpt>
<trkpt lon="13.06417547" lat="47.53011604"><ele>1922.20</ele></trkpt>
<trkpt lon="13.06419306" lat="47.53011112"><ele>1915.39</ele></trkpt>
<trkpt lon="13.06422488" lat="47.53011651"><ele>1915.74</ele></trkpt>
<trkpt lon="13.06419162" lat="47.53015015"><ele>1911.31</ele></trkpt>
<trkpt lon="13.06421800" lat="47.53016616"><ele>1909.38</ele></trkpt>
<trkpt lon="13.06421933" lat="47.53015880"><ele>1906.10</ele></trkpt>
</trkseg><trkseg>
<trkpt lon="13.06421933" lat="47.53015880"><ele>1906.10</ele></trkpt>
<trkpt lon="13.06423445" lat="47.53017769"><ele>1899.93</ele></trkpt>
</trkseg><trkseg>
<trkpt lon="13.06423445" lat="47.53017769"><ele>1899.93</ele></trkpt>
<trkpt lon="13.06424762" lat="47.53018088"><ele>1899.46</ele></trkpt>
</trkseg><trkseg>
<trkpt lon="13.06424762" lat="47.53018088"><ele>1899.46</ele></trkpt>
<trkpt lon="13.06425162" lat="47.53018769"><ele>1899.02</ele></trkpt>
</trkseg><trkseg>
<trkpt lon="13.06425162" lat="47.53018769"><ele>1899.02</ele></trkpt>
<trkpt lon="13.06425988" lat="47.53019062"><ele>1899.30</ele></trkpt>
</trkseg><trkseg>
<trkpt lon="13.06425988" lat="47.53019062"><ele>1899.30</ele></trkpt>
<trkpt lon="13.06426454" lat="47.53019772"><ele>1899.41</ele></trkpt>
</trkseg><trkseg>
<trkpt lon="13.06426454" lat="47.53019772"><ele>1899.41</ele></trkpt>
<trkpt lon="13.06425962" lat="47.53020124"><ele>1899.20</ele></trkpt>
</trkseg><trkseg>
<trkpt lon="13.06425962" lat="47.53020124"><ele>1899.20</ele></trkpt>
<trkpt lon="13.06425316" lat="47.53020725"><ele>1899.02</ele></trkpt>
</trkseg><trkseg>
<trkpt lon="13.06425316" lat="47.53020725"><ele>1899.02</ele></trkpt>
<trkpt lon="13.06424516" lat="47.53022601"><ele>1898.70</ele></trkpt>
</trkseg><trkseg>
<trkpt lon="13.06424516" lat="47.53022601"><ele>1898.70</ele></trkpt>
<trkpt lon="13.06425096" lat="47.53023096"><ele>1898.80</ele></trkpt>
</trkseg><trkseg>
<trkpt lon="13.06425096" lat="47.53023096"><ele>1898.80</ele></trkpt>
<trkpt lon="13.06427120" lat="47.53024417"><ele>1898.40</ele></trkpt>
</trkseg><trkseg>
<trkpt lon="13.06427120" lat="47.53024417"><ele>1898.40</ele></trkpt>
<trkpt lon="13.06431237" lat="47.53025171"><ele>1898.81</ele></trkpt>
</trkseg><trkseg>
<trkpt lon="13.06431237" lat="47.53025171"><ele>1898.81</ele></trkpt>
<trkpt lon="13.06432656" lat="47.53025249"><ele>1898.62</ele></trkpt>
</trkseg><trkseg>
<trkpt lon="13.06432656" lat="47.53025249"><ele>1898.62</ele></trkpt>
<trkpt lon="13.06434111" lat="47.53025066"><ele>1898.31</ele></trkpt>
</trkseg><trkseg>
<trkpt lon="13.06434111" lat="47.53025066"><ele>1898.31</ele></trkpt>
<trkpt lon="13.06435616" lat="47.53026037"><ele>1896.76</ele></trkpt>
</trkseg><trkseg>
<trkpt lon="13.06435616" lat="47.53026037"><ele>1896.76</ele></trkpt>
<trkpt lon="13.06436593" lat="47.53023695"><ele>1895.81</ele></trkpt>
</trkseg><trkseg>
<trkpt lon="13.06436593" lat="47.53023695"><ele>1895.81</ele></trkpt>
<trkpt lon="13.06433595" lat="47.53021404"><ele>1894.10</ele></trkpt>
</trkseg><trkseg>
<trkpt lon="13.06435616" lat="47.53026037"><ele>1896.76</ele></trkpt>
<trkpt lon="13.06437820" lat="47.53026812"><ele>1896.35</ele></trkpt>
</trkseg><trkseg>
<trkpt lon="13.06437820" lat="47.53026812"><ele>1896.35</ele></trkpt>
<trkpt lon="13.06437570" lat="47.53027815"><ele>1896.19</ele></trkpt>
</trkseg><trkseg>
<trkpt lon="13.06437570" lat="47.53027815"><ele>1896.19</ele></trkpt>
<trkpt lon="13.06436129" lat="47.53028358"><ele>1896.45</ele></trkpt>
</trkseg><trkseg>
<trkpt lon="13.06436129" lat="47.53028358"><ele>1896.45</ele></trkpt>
<trkpt lon="13.06435550" lat="47.53028915"><ele>1896.32</ele></trkpt>
</trkseg><trkseg>
<trkpt lon="13.06435550" lat="47.53028915"><ele>1896.32</ele></trkpt>
<trkpt lon="13.06435274" lat="47.53029558"><ele>1896.06</ele></trkpt>
</trkseg><trkseg>
<trkpt lon="13.06435274" lat="47.53029558"><ele>1896.06</ele></trkpt>
<trkpt lon="13.06434089" lat="47.53029619"><ele>1895.99</ele></trkpt>
</trkseg></trk>
</gpx>
