<?xml version="1.0" encoding="UTF-8"?>
<kml xmlns="http://www.opengis.net/kml/2.2">
<Document><name>421-master</name>
<Style id="fix"><IconStyle><Icon><href>https://maps.google.com/mapfiles/kml/paddle/red-blank.png</href></Icon><color>ff0000ff</color><hotSpot x="32" y="1" xunits="pixels" yunits="pixels"/></IconStyle></Style>
<Style id="exp"><IconStyle><Icon><href>https://maps.google.com/mapfiles/kml/paddle/blu-blank.png</href></Icon><color>ffff0000</color><hotSpot x="32" y="1" xunits="pixels" yunits="pixels"/></IconStyle></Style>
<Style id="ent"><IconStyle><Icon><href>https://maps.google.com/mapfiles/kml/paddle/grn-blank.png</href></Icon><color>ff00ff00</color><hotSpot x="32" y="1" xunits="pixels" yunits="pixels"/></IconStyle></Style>
<Style id="surf"><LineStyle><color>ff00ff00</color></LineStyle></Style>
<Style id="splay"><LineStyle><color>40ff00ff</color></LineStyle></Style>
<Placemark><MultiGeometry><LineString><altitudeMode>absolute</altitudeMode><coordinates>
13.06608329,47.53596667,1950.00
13.06606555,47.53597924,1948.15
13.06602354,47.53602326,1945.89
13.06603508,47.53609256,1943.49
13.06603215,47.53609629,1943.22
13.06601952,47.53612181,1942.17
13.06599394,47.53614531,1940.44
13.06600756,47.53616516,1937.81
13.06599609,47.53618800,1938.64
13.06600987,47.53619256,1937.96
13.06603213,47.53620139,1938.57
13.06610609,47.53621029,1938.77
</coordinates></LineString>
<LineString><altitudeMode>absolute</altitudeMode><coordinates>
13.06599609,47.53618800,1938.64
13.06595394,47.53617793,1938.03
</coordinates></LineString>
<LineString><altitudeMode>absolute</altitudeMode><coordinates>
13.06595394,47.53617793,1938.03
13.06589321,47.53617070,1939.43
</coordinates></LineString>
<LineString><altitudeMode>absolute</altitudeMode><coordinates>
13.06589321,47.53617070,1939.43
13.06584673,47.53615561,1938.55
</coordinates></LineString>
<LineString><altitudeMode>absolute</altitudeMode><coordinates>
13.06599609,47.53618800,1938.64
13.06599534,47.53617584,1937.88
13.06599865,47.53617617,1935.13
13.06598701,47.53617471,1933.04
</coordinates></LineString>
<LineString><altitudeMode>absolute</altitudeMode><coordinates>
13.06598701,47.53617471,1933.04
13.06584304,47.53613314,1918.23
</coordinates></LineString>
<LineString><altitudeMode>absolute</altitudeMode><coordinates>
13.06598701,47.53617471,1933.04
13.06602334,47.53615868,1902.41
</coordinates></LineString></MultiGeometry></Placemark>
</Document></kml>
