<?xml version="1.0" encoding="UTF-8"?>
<gpx version="1.0" creator="survex 1.4.17 (aven) - https://survex.com/" xmlns:xsi="http://www.w3.org/2001/XMLSchema-instance" xmlns="http://www.topografix.com/GPX/1/0" xsi:schemaLocation="http://www.topografix.com/GPX/1/0 http://www.topografix.com/GPX/1/0/gpx.xsd">
<name>421-master</name>
<time>2025-06-23T19:15:26Z</time>
<trk><name>421-master</name><trkseg>
<trkpt lon="13.06608329" lat="47.53596667"><ele>1950.00</ele></trkpt>
<trkpt lon="13.06606555" lat="47.53597924"><ele>1948.15</ele></trkpt>
<trkpt lon="13.06602354" lat="47.53602326"><ele>1945.89</ele></trkpt>
<trkpt lon="13.06603508" lat="47.53609256"><ele>1943.49</ele></trkpt>
<trkpt lon="13.06603215" lat="47.53609629"><ele>1943.22</ele></trkpt>
<trkpt lon="13.06601952" lat="47.53612181"><ele>1942.17</ele></trkpt>
<trkpt lon="13.06599394" lat="47.53614531"><ele>1940.44</ele></trkpt>
<trkpt lon="13.06600756" lat="47.53616516"><ele>1937.81</ele></trkpt>
<trkpt lon="13.06599609" lat="47.53618800"><ele>1938.64</ele></trkpt>
<trkpt lon="13.06600987" lat="47.53619256"><ele>1937.96</ele></trkpt>
<trkpt lon="13.06603213" lat="47.53620139"><ele>1938.57</ele></trkpt>
<trkpt lon="13.06610609" lat="47.53621029"><ele>1938.77</ele></trkpt>
</trkseg><trkseg>
<trkpt lon="13.06599609" lat="47.53618800"><ele>1938.64</ele></trkpt>
<trkpt lon="13.06595394" lat="47.53617793"><ele>1938.03</ele></trkpt>
</trkseg><trkseg>
<trkpt lon="13.06595394" lat="47.53617793"><ele>1938.03</ele></trkpt>
<trkpt lon="13.06589321" lat="47.53617070"><ele>1939.43</ele></trkpt>
</trkseg><trkseg>
<trkpt lon="13.06589321" lat="47.53617070"><ele>1939.43</ele></trkpt>
<trkpt lon="13.06584673" lat="47.53615561"><ele>1938.55</ele></trkpt>
</trkseg><trkseg>
<trkpt lon="13.06599609" lat="47.53618800"><ele>1938.64</ele></trkpt>
<trkpt lon="13.06599534" lat="47.53617584"><ele>1937.88</ele></trkpt>
<trkpt lon="13.06599865" lat="47.53617617"><ele>1935.13</ele></trkpt>
<trkpt lon="13.06598701" lat="47.53617471"><ele>1933.04</ele></trkpt>
</trkseg><trkseg>
<trkpt lon="13.06598701" lat="47.53617471"><ele>1933.04</ele></trkpt>
<trkpt lon="13.06584304" lat="47.53613314"><ele>1918.23</ele></trkpt>
</trkseg><trkseg>
<trkpt lon="13.06598701" lat="47.53617471"><ele>1933.04</ele></trkpt>
<trkpt lon="13.06602334" lat="47.53615868"><ele>1902.41</ele></trkpt>
</trkseg></trk>
</gpx>
