<?xml version="1.0" encoding="UTF-8"?>
<kml xmlns="http://www.opengis.net/kml/2.2">
<Document><name>424-master</name>
<Style id="fix"><IconStyle><Icon><href>https://maps.google.com/mapfiles/kml/paddle/red-blank.png</href></Icon><color>ff0000ff</color><hotSpot x="32" y="1" xunits="pixels" yunits="pixels"/></IconStyle></Style>
<Style id="exp"><IconStyle><Icon><href>https://maps.google.com/mapfiles/kml/paddle/blu-blank.png</href></Icon><color>ffff0000</color><hotSpot x="32" y="1" xunits="pixels" yunits="pixels"/></IconStyle></Style>
<Style id="ent"><IconStyle><Icon><href>https://maps.google.com/mapfiles/kml/paddle/grn-blank.png</href></Icon><color>ff00ff00</color><hotSpot x="32" y="1" xunits="pixels" yunits="pixels"/></IconStyle></Style>
<Style id="surf"><LineStyle><color>ff00ff00</color></LineStyle></Style>
<Style id="splay"><LineStyle><color>40ff00ff</color></LineStyle></Style>
<Placemark><MultiGeometry><LineString><altitudeMode>absolute</altitudeMode><coordinates>
13.04958337,47.52131665,2072.00
13.04953413,47.52132967,2070.61
13.04950955,47.52141941,2064.51
13.04948177,47.52147734,2063.84
13.04948523,47.52148784,2063.92
13.04940640,47.52151808,2062.30
13.04942248,47.52157873,2055.68
13.04942130,47.52163207,2053.01
13.04931693,47.52165234,2052.37
13.04932478,47.52169495,2049.06
</coordinates></LineString>
<LineString><altitudeMode>absolute</altitudeMode><coordinates>
13.04932478,47.52169495,2049.06
13.04931403,47.52166957,2047.45
13.04928470,47.52165467,2046.74
13.04924000,47.52169225,2045.54
13.04921169,47.52177149,2040.74
13.04920898,47.52178008,2040.54
13.04914877,47.52178446,2039.21
13.04914187,47.52181655,2036.77
13.04909955,47.52185453,2034.28
13.04902695,47.52188137,2029.75
13.04900173,47.52189506,2029.17
13.04900307,47.52195925,2027.92
13.04909424,47.52202973,2020.84
</coordinates></LineString>
<LineString><altitudeMode>absolute</altitudeMode><coordinates>
13.04900307,47.52195925,2027.92
13.04897025,47.52184135,2020.03
</coordinates></LineString>
<LineString><altitudeMode>absolute</altitudeMode><coordinates>
13.04932478,47.52169495,2049.06
13.04938219,47.52166587,2045.13
13.04942316,47.52160700,2046.04
13.04952515,47.52163294,2045.49
13.04955310,47.52172088,2042.86
13.04964314,47.52173609,2042.08
13.04968190,47.52173333,2041.64
13.04970766,47.52171928,2041.54
13.04974381,47.52172952,2041.24
13.04978729,47.52171749,2040.16
13.04983292,47.52171943,2040.87
13.04990770,47.52170883,2043.28
13.04997533,47.52168343,2045.01
13.05001180,47.52168504,2045.02
13.05000884,47.52168598,2045.01
</coordinates></LineString>
<LineString><altitudeMode>absolute</altitudeMode><coordinates>
13.04978729,47.52171749,2040.16
13.04979923,47.52176106,2030.96
13.04982587,47.52178419,2028.04
13.04983507,47.52186209,2028.20
13.04987500,47.52184927,2024.56
13.04992715,47.52183288,2019.84
13.04993059,47.52182970,2010.95
13.04989973,47.52186283,2002.42
13.04987708,47.52187199,1998.21
13.04990598,47.52189146,1998.44
13.04989760,47.52189879,1998.17
13.04990647,47.52190695,1998.20
13.04985277,47.52189704,1995.81
13.04978191,47.52189853,1980.18
13.04979347,47.52188757,1981.70
13.04981939,47.52185859,1983.53
</coordinates></LineString>
<LineString><altitudeMode>absolute</altitudeMode><coordinates>
13.04993059,47.52182970,2010.95
13.04988083,47.52181383,2010.31
</coordinates></LineString>
<LineString><altitudeMode>absolute</altitudeMode><coordinates>
13.04988083,47.52181383,2010.31
13.04986751,47.52180047,2010.71
</coordinates></LineString>
<LineString><altitudeMode>absolute</altitudeMode><coordinates>
13.04986751,47.52180047,2010.71
13.04984595,47.52180496,2010.48
</coordinates></LineString>
<LineString><altitudeMode>absolute</altitudeMode><coordinates>
13.04932478,47.52169495,2049.06
13.04932738,47.52166782,2054.01
13.04943100,47.52164996,2053.75
13.04944216,47.52161038,2056.40
13.04947224,47.52152649,2064.09
13.04954194,47.52150959,2065.71
13.04956239,47.52143093,2067.69
13.04967093,47.52135548,2073.21
</coordinates></LineString></MultiGeometry></Placemark>
</Document></kml>
