<?xml version="1.0" encoding="UTF-8"?>
<gpx version="1.0" creator="survex 1.4.17 (aven) - https://survex.com/" xmlns:xsi="http://www.w3.org/2001/XMLSchema-instance" xmlns="http://www.topografix.com/GPX/1/0" xsi:schemaLocation="http://www.topografix.com/GPX/1/0 http://www.topografix.com/GPX/1/0/gpx.xsd">
<name>424-master</name>
<time>2025-06-23T19:15:26Z</time>
<trk><name>424-master</name><trkseg>
<trkpt lon="13.04958337" lat="47.52131665"><ele>2072.00</ele></trkpt>
<trkpt lon="13.04953413" lat="47.52132967"><ele>2070.61</ele></trkpt>
<trkpt lon="13.04950955" lat="47.52141941"><ele>2064.51</ele></trkpt>
<trkpt lon="13.04948177" lat="47.52147734"><ele>2063.84</ele></trkpt>
<trkpt lon="13.04948523" lat="47.52148784"><ele>2063.92</ele></trkpt>
<trkpt lon="13.04940640" lat="47.52151808"><ele>2062.30</ele></trkpt>
<trkpt lon="13.04942248" lat="47.52157873"><ele>2055.68</ele></trkpt>
<trkpt lon="13.04942130" lat="47.52163207"><ele>2053.01</ele></trkpt>
<trkpt lon="13.04931693" lat="47.52165234"><ele>2052.37</ele></trkpt>
<trkpt lon="13.04932478" lat="47.52169495"><ele>2049.06</ele></trkpt>
</trkseg><trkseg>
<trkpt lon="13.04932478" lat="47.52169495"><ele>2049.06</ele></trkpt>
<trkpt lon="13.04931403" lat="47.52166957"><ele>2047.45</ele></trkpt>
<trkpt lon="13.04928470" lat="47.52165467"><ele>2046.74</ele></trkpt>
<trkpt lon="13.04924000" lat="47.52169225"><ele>2045.54</ele></trkpt>
<trkpt lon="13.04921169" lat="47.52177149"><ele>2040.74</ele></trkpt>
<trkpt lon="13.04920898" lat="47.52178008"><ele>2040.54</ele></trkpt>
<trkpt lon="13.04914877" lat="47.52178446"><ele>2039.21</ele></trkpt>
<trkpt lon="13.04914187" lat="47.52181655"><ele>2036.77</ele></trkpt>
<trkpt lon="13.04909955" lat="47.52185453"><ele>2034.28</ele></trkpt>
<trkpt lon="13.04902695" lat="47.52188137"><ele>2029.75</ele></trkpt>
<trkpt lon="13.04900173" lat="47.52189506"><ele>2029.17</ele></trkpt>
<trkpt lon="13.04900307" lat="47.52195925"><ele>2027.92</ele></trkpt>
<trkpt lon="13.04909424" lat="47.52202973"><ele>2020.84</ele></trkpt>
</trkseg><trkseg>
<trkpt lon="13.04900307" lat="47.52195925"><ele>2027.92</ele></trkpt>
<trkpt lon="13.04897025" lat="47.52184135"><ele>2020.03</ele></trkpt>
</trkseg><trkseg>
<trkpt lon="13.04932478" lat="47.52169495"><ele>2049.06</ele></trkpt>
<trkpt lon="13.04938219" lat="47.52166587"><ele>2045.13</ele></trkpt>
<trkpt lon="13.04942316" lat="47.52160700"><ele>2046.04</ele></trkpt>
<trkpt lon="13.04952515" lat="47.52163294"><ele>2045.49</ele></trkpt>
<trkpt lon="13.04955310" lat="47.52172088"><ele>2042.86</ele></trkpt>
<trkpt lon="13.04964314" lat="47.52173609"><ele>2042.08</ele></trkpt>
<trkpt lon="13.04968190" lat="47.52173333"><ele>2041.64</ele></trkpt>
<trkpt lon="13.04970766" lat="47.52171928"><ele>2041.54</ele></trkpt>
<trkpt lon="13.04974381" lat="47.52172952"><ele>2041.24</ele></trkpt>
<trkpt lon="13.04978729" lat="47.52171749"><ele>2040.16</ele></trkpt>
<trkpt lon="13.04983292" lat="47.52171943"><ele>2040.87</ele></trkpt>
<trkpt lon="13.04990770" lat="47.52170883"><ele>2043.28</ele></trkpt>
<trkpt lon="13.04997533" lat="47.52168343"><ele>2045.01</ele></trkpt>
<trkpt lon="13.05001180" lat="47.52168504"><ele>2045.02</ele></trkpt>
<trkpt lon="13.05000884" lat="47.52168598"><ele>2045.01</ele></trkpt>
</trkseg><trkseg>
<trkpt lon="13.04978729" lat="47.52171749"><ele>2040.16</ele></trkpt>
<trkpt lon="13.04979923" lat="47.52176106"><ele>2030.96</ele></trkpt>
<trkpt lon="13.04982587" lat="47.52178419"><ele>2028.04</ele></trkpt>
<trkpt lon="13.04983507" lat="47.52186209"><ele>2028.20</ele></trkpt>
<trkpt lon="13.04987500" lat="47.52184927"><ele>2024.56</ele></trkpt>
<trkpt lon="13.04992715" lat="47.52183288"><ele>2019.84</ele></trkpt>
<trkpt lon="13.04993059" lat="47.52182970"><ele>2010.95</ele></trkpt>
<trkpt lon="13.04989973" lat="47.52186283"><ele>2002.42</ele></trkpt>
<trkpt lon="13.04987708" lat="47.52187199"><ele>1998.21</ele></trkpt>
<trkpt lon="13.04990598" lat="47.52189146"><ele>1998.44</ele></trkpt>
<trkpt lon="13.04989760" lat="47.52189879"><ele>1998.17</ele></trkpt>
<trkpt lon="13.04990647" lat="47.52190695"><ele>1998.20</ele></trkpt>
<trkpt lon="13.04985277" lat="47.52189704"><ele>1995.81</ele></trkpt>
<trkpt lon="13.04978191" lat="47.52189853"><ele>1980.18</ele></trkpt>
<trkpt lon="13.04979347" lat="47.52188757"><ele>1981.70</ele></trkpt>
<trkpt lon="13.04981939" lat="47.52185859"><ele>1983.53</ele></trkpt>
</trkseg><trkseg>
<trkpt lon="13.04993059" lat="47.52182970"><ele>2010.95</ele></trkpt>
<trkpt lon="13.04988083" lat="47.52181383"><ele>2010.31</ele></trkpt>
</trkseg><trkseg>
<trkpt lon="13.04988083" lat="47.52181383"><ele>2010.31</ele></trkpt>
<trkpt lon="13.04986751" lat="47.52180047"><ele>2010.71</ele></trkpt>
</trkseg><trkseg>
<trkpt lon="13.04986751" lat="47.52180047"><ele>2010.71</ele></trkpt>
<trkpt lon="13.04984595" lat="47.52180496"><ele>2010.48</ele></trkpt>
</trkseg><trkseg>
<trkpt lon="13.04932478" lat="47.52169495"><ele>2049.06</ele></trkpt>
<trkpt lon="13.04932738" lat="47.52166782"><ele>2054.01</ele></trkpt>
<trkpt lon="13.04943100" lat="47.52164996"><ele>2053.75</ele></trkpt>
<trkpt lon="13.04944216" lat="47.52161038"><ele>2056.40</ele></trkpt>
<trkpt lon="13.04947224" lat="47.52152649"><ele>2064.09</ele></trkpt>
<trkpt lon="13.04954194" lat="47.52150959"><ele>2065.71</ele></trkpt>
<trkpt lon="13.04956239" lat="47.52143093"><ele>2067.69</ele></trkpt>
<trkpt lon="13.04967093" lat="47.52135548"><ele>2073.21</ele></trkpt>
</trkseg></trk>
</gpx>
