<?xml version="1.0" encoding="UTF-8"?>
<kml xmlns="http://www.opengis.net/kml/2.2">
<Document><name>494-master</name>
<Style id="fix"><IconStyle><Icon><href>https://maps.google.com/mapfiles/kml/paddle/red-blank.png</href></Icon><color>ff0000ff</color><hotSpot x="32" y="1" xunits="pixels" yunits="pixels"/></IconStyle></Style>
<Style id="exp"><IconStyle><Icon><href>https://maps.google.com/mapfiles/kml/paddle/blu-blank.png</href></Icon><color>ffff0000</color><hotSpot x="32" y="1" xunits="pixels" yunits="pixels"/></IconStyle></Style>
<Style id="ent"><IconStyle><Icon><href>https://maps.google.com/mapfiles/kml/paddle/grn-blank.png</href></Icon><color>ff00ff00</color><hotSpot x="32" y="1" xunits="pixels" yunits="pixels"/></IconStyle></Style>
<Style id="surf"><LineStyle><color>ff00ff00</color></LineStyle></Style>
<Style id="splay"><LineStyle><color>40ff00ff</color></LineStyle></Style>
<Placemark><MultiGeometry><LineString><altitudeMode>absolute</altitudeMode><coordinates>
13.05888335,47.53079997,2025.00
13.05884127,47.53078801,2021.44
13.05884127,47.53078801,1964.74
13.05882946,47.53081282,1963.69
13.05883028,47.53082660,1959.48
13.05880594,47.53083816,1957.07
13.05879269,47.53082993,1956.76
13.05879269,47.53082993,1944.90
13.05879269,47.53082993,1943.66
</coordinates></LineString>
<LineString><altitudeMode>absolute</altitudeMode><coordinates>
13.05879269,47.53082993,1944.90
13.05874103,47.53086163,1944.90
13.05874103,47.53086163,1927.46
13.05864487,47.53085730,1927.96
13.05862922,47.53087098,1928.86
13.05861978,47.53086398,1929.05
</coordinates></LineString>
<LineString><altitudeMode>absolute</altitudeMode><coordinates>
13.05861978,47.53086398,1929.05
13.05866359,47.53086850,1920.36
13.05870321,47.53088204,1888.55
</coordinates></LineString>
<LineString><altitudeMode>absolute</altitudeMode><coordinates>
13.05870321,47.53088204,1888.55
13.05870321,47.53088204,1869.39
13.05870696,47.53086330,1869.25
13.05870696,47.53086330,1856.06
13.05872808,47.53087050,1856.34
13.05872808,47.53087050,1848.91
13.05871147,47.53088875,1849.29
</coordinates></LineString>
<LineString><altitudeMode>absolute</altitudeMode><coordinates>
13.05870321,47.53088204,1888.55
13.05870321,47.53088204,1835.15
</coordinates></LineString>
<LineString><altitudeMode>absolute</altitudeMode><coordinates>
13.05870321,47.53088204,1835.15
13.05870258,47.53086305,1848.51
13.05868964,47.53082863,1845.64
13.05868964,47.53082863,1836.40
13.05867483,47.53080517,1836.35
13.05867483,47.53080517,1827.60
13.05868587,47.53076873,1829.44
13.05863513,47.53077561,1828.32
</coordinates></LineString>
<LineString><altitudeMode>absolute</altitudeMode><coordinates>
13.05870321,47.53088204,1835.15
13.05865241,47.53090134,1834.85
13.05864410,47.53092846,1833.28
13.05861528,47.53094624,1830.90
13.05859667,47.53091389,1831.04
13.05855449,47.53094818,1825.72
13.05853448,47.53096098,1825.16
13.05853448,47.53096098,1797.36
13.05845522,47.53099896,1794.99
13.05845522,47.53099896,1784.79
13.05846015,47.53108147,1782.84
13.05846015,47.53108147,1775.44
13.05845265,47.53110816,1774.22
13.05840643,47.53111493,1773.91
13.05840453,47.53112336,1773.55
13.05842487,47.53113747,1773.58
13.05842487,47.53113747,1769.88
13.05844022,47.53115690,1768.58
13.05838879,47.53118248,1770.73
</coordinates></LineString></MultiGeometry></Placemark>
</Document></kml>
