<?xml version="1.0" encoding="UTF-8"?>
<gpx version="1.0" creator="survex 1.4.17 (aven) - https://survex.com/" xmlns:xsi="http://www.w3.org/2001/XMLSchema-instance" xmlns="http://www.topografix.com/GPX/1/0" xsi:schemaLocation="http://www.topografix.com/GPX/1/0 http://www.topografix.com/GPX/1/0/gpx.xsd">
<name>494-master</name>
<time>2025-06-23T19:15:31Z</time>
<trk><name>494-master</name><trkseg>
<trkpt lon="13.05888335" lat="47.53079997"><ele>2025.00</ele></trkpt>
<trkpt lon="13.05884127" lat="47.53078801"><ele>2021.44</ele></trkpt>
<trkpt lon="13.05884127" lat="47.53078801"><ele>1964.74</ele></trkpt>
<trkpt lon="13.05882946" lat="47.53081282"><ele>1963.69</ele></trkpt>
<trkpt lon="13.05883028" lat="47.53082660"><ele>1959.48</ele></trkpt>
<trkpt lon="13.05880594" lat="47.53083816"><ele>1957.07</ele></trkpt>
<trkpt lon="13.05879269" lat="47.53082993"><ele>1956.76</ele></trkpt>
<trkpt lon="13.05879269" lat="47.53082993"><ele>1944.90</ele></trkpt>
<trkpt lon="13.05879269" lat="47.53082993"><ele>1943.66</ele></trkpt>
</trkseg><trkseg>
<trkpt lon="13.05879269" lat="47.53082993"><ele>1944.90</ele></trkpt>
<trkpt lon="13.05874103" lat="47.53086163"><ele>1944.90</ele></trkpt>
<trkpt lon="13.05874103" lat="47.53086163"><ele>1927.46</ele></trkpt>
<trkpt lon="13.05864487" lat="47.53085730"><ele>1927.96</ele></trkpt>
<trkpt lon="13.05862922" lat="47.53087098"><ele>1928.86</ele></trkpt>
<trkpt lon="13.05861978" lat="47.53086398"><ele>1929.05</ele></trkpt>
</trkseg><trkseg>
<trkpt lon="13.05861978" lat="47.53086398"><ele>1929.05</ele></trkpt>
<trkpt lon="13.05866359" lat="47.53086850"><ele>1920.36</ele></trkpt>
<trkpt lon="13.05870321" lat="47.53088204"><ele>1888.55</ele></trkpt>
</trkseg><trkseg>
<trkpt lon="13.05870321" lat="47.53088204"><ele>1888.55</ele></trkpt>
<trkpt lon="13.05870321" lat="47.53088204"><ele>1869.39</ele></trkpt>
<trkpt lon="13.05870696" lat="47.53086330"><ele>1869.25</ele></trkpt>
<trkpt lon="13.05870696" lat="47.53086330"><ele>1856.06</ele></trkpt>
<trkpt lon="13.05872808" lat="47.53087050"><ele>1856.34</ele></trkpt>
<trkpt lon="13.05872808" lat="47.53087050"><ele>1848.91</ele></trkpt>
<trkpt lon="13.05871147" lat="47.53088875"><ele>1849.29</ele></trkpt>
</trkseg><trkseg>
<trkpt lon="13.05870321" lat="47.53088204"><ele>1888.55</ele></trkpt>
<trkpt lon="13.05870321" lat="47.53088204"><ele>1835.15</ele></trkpt>
</trkseg><trkseg>
<trkpt lon="13.05870321" lat="47.53088204"><ele>1835.15</ele></trkpt>
<trkpt lon="13.05870258" lat="47.53086305"><ele>1848.51</ele></trkpt>
<trkpt lon="13.05868964" lat="47.53082863"><ele>1845.64</ele></trkpt>
<trkpt lon="13.05868964" lat="47.53082863"><ele>1836.40</ele></trkpt>
<trkpt lon="13.05867483" lat="47.53080517"><ele>1836.35</ele></trkpt>
<trkpt lon="13.05867483" lat="47.53080517"><ele>1827.60</ele></trkpt>
<trkpt lon="13.05868587" lat="47.53076873"><ele>1829.44</ele></trkpt>
<trkpt lon="13.05863513" lat="47.53077561"><ele>1828.32</ele></trkpt>
</trkseg><trkseg>
<trkpt lon="13.05870321" lat="47.53088204"><ele>1835.15</ele></trkpt>
<trkpt lon="13.05865241" lat="47.53090134"><ele>1834.85</ele></trkpt>
<trkpt lon="13.05864410" lat="47.53092846"><ele>1833.28</ele></trkpt>
<trkpt lon="13.05861528" lat="47.53094624"><ele>1830.90</ele></trkpt>
<trkpt lon="13.05859667" lat="47.53091389"><ele>1831.04</ele></trkpt>
<trkpt lon="13.05855449" lat="47.53094818"><ele>1825.72</ele></trkpt>
<trkpt lon="13.05853448" lat="47.53096098"><ele>1825.16</ele></trkpt>
<trkpt lon="13.05853448" lat="47.53096098"><ele>1797.36</ele></trkpt>
<trkpt lon="13.05845522" lat="47.53099896"><ele>1794.99</ele></trkpt>
<trkpt lon="13.05845522" lat="47.53099896"><ele>1784.79</ele></trkpt>
<trkpt lon="13.05846015" lat="47.53108147"><ele>1782.84</ele></trkpt>
<trkpt lon="13.05846015" lat="47.53108147"><ele>1775.44</ele></trkpt>
<trkpt lon="13.05845265" lat="47.53110816"><ele>1774.22</ele></trkpt>
<trkpt lon="13.05840643" lat="47.53111493"><ele>1773.91</ele></trkpt>
<trkpt lon="13.05840453" lat="47.53112336"><ele>1773.55</ele></trkpt>
<trkpt lon="13.05842487" lat="47.53113747"><ele>1773.58</ele></trkpt>
<trkpt lon="13.05842487" lat="47.53113747"><ele>1769.88</ele></trkpt>
<trkpt lon="13.05844022" lat="47.53115690"><ele>1768.58</ele></trkpt>
<trkpt lon="13.05838879" lat="47.53118248"><ele>1770.73</ele></trkpt>
</trkseg></trk>
</gpx>
