<?xml version="1.0" encoding="UTF-8"?>
<kml xmlns="http://www.opengis.net/kml/2.2">
<Document><name>481-master</name>
<Style id="fix"><IconStyle><Icon><href>https://maps.google.com/mapfiles/kml/paddle/red-blank.png</href></Icon><color>ff0000ff</color><hotSpot x="32" y="1" xunits="pixels" yunits="pixels"/></IconStyle></Style>
<Style id="exp"><IconStyle><Icon><href>https://maps.google.com/mapfiles/kml/paddle/blu-blank.png</href></Icon><color>ffff0000</color><hotSpot x="32" y="1" xunits="pixels" yunits="pixels"/></IconStyle></Style>
<Style id="ent"><IconStyle><Icon><href>https://maps.google.com/mapfiles/kml/paddle/grn-blank.png</href></Icon><color>ff00ff00</color><hotSpot x="32" y="1" xunits="pixels" yunits="pixels"/></IconStyle></Style>
<Style id="surf"><LineStyle><color>ff00ff00</color></LineStyle></Style>
<Style id="splay"><LineStyle><color>40ff00ff</color></LineStyle></Style>
<Placemark><MultiGeometry><LineString><altitudeMode>absolute</altitudeMode><coordinates>
13.03888328,47.53071667,2130.00
13.03886070,47.53072006,2128.78
13.03885223,47.53072631,2128.70
13.03883077,47.53073170,2128.39
13.03882796,47.53072877,2128.01
13.03881154,47.53072732,2127.67
13.03879798,47.53072025,2127.79
13.03878295,47.53072449,2126.03
13.03877380,47.53070958,2126.87
13.03874769,47.53071507,2125.42
13.03874175,47.53072478,2125.00
13.03874175,47.53072478,2118.24
13.03869989,47.53072847,2120.07
13.03867530,47.53074659,2119.83
13.03861041,47.53074458,2117.01
13.03861041,47.53074458,2113.15
13.03858997,47.53074396,2113.71
13.03856661,47.53075399,2113.15
13.03855894,47.53075665,2111.75
13.03856037,47.53076451,2112.20
13.03853312,47.53077205,2111.60
13.03852848,47.53078583,2111.18
13.03851139,47.53078095,2109.63
13.03850076,47.53078472,2109.63
13.03847868,47.53077094,2109.02
13.03844521,47.53077801,2107.79
13.03841944,47.53077415,2096.57
13.03836148,47.53075363,2088.04
13.03836026,47.53074722,2079.82
13.03837138,47.53075902,2081.67
13.03837804,47.53077974,2072.86
13.03837971,47.53080641,2056.03
13.03837004,47.53085555,2040.88
</coordinates></LineString>
<LineString><altitudeMode>absolute</altitudeMode><coordinates>
13.03836026,47.53074722,2079.82
13.03834930,47.53071329,2084.42
13.03834930,47.53071329,2069.51
13.03835753,47.53069580,2069.15
13.03833752,47.53070139,2067.20
13.03833752,47.53070139,2041.96
</coordinates></LineString>
<LineString><altitudeMode>absolute</altitudeMode><coordinates>
13.03841944,47.53077415,2096.57
13.03837374,47.53078822,2092.52
13.03835606,47.53081698,2090.52
13.03838968,47.53084185,2091.52
13.03838757,47.53085216,2091.21
13.03838622,47.53087392,2089.18
13.03840540,47.53091555,2089.69
13.03836950,47.53093770,2087.13
13.03836673,47.53097976,2085.43
13.03835754,47.53102658,2082.98
13.03839470,47.53101354,2082.98
13.03845406,47.53103921,2083.44
13.03848187,47.53107730,2080.60
13.03848187,47.53107730,2069.40
13.03849907,47.53109703,2069.76
13.03849256,47.53119338,2070.51
13.03847879,47.53126315,2064.83
13.03849273,47.53130280,2065.38
13.03847726,47.53132908,2067.59
13.03845859,47.53135945,2068.78
13.03841241,47.53139006,2067.38
13.03841072,47.53143170,2066.90
13.03846114,47.53148349,2061.70
13.03858285,47.53146542,2064.39
13.03871571,47.53145851,2063.51
13.03880750,47.53144478,2067.43
13.03884770,47.53144277,2068.66
13.03889259,47.53142896,2069.86
13.03893528,47.53137804,2073.32
13.03903200,47.53141380,2074.34
13.03905781,47.53140587,2080.21
13.03910985,47.53132137,2086.82
13.03919717,47.53133141,2090.37
13.03922975,47.53134834,2091.55
13.03928334,47.53134368,2094.10
13.03930830,47.53137254,2092.44
13.03932767,47.53138412,2092.61
13.03937755,47.53138624,2094.45
13.03940710,47.53140600,2093.78
13.03945684,47.53138705,2095.26
13.03951214,47.53140041,2092.05
13.03953490,47.53140998,2086.18
13.03957857,47.53140767,2077.61
13.03958286,47.53140297,2076.82
</coordinates></LineString>
<LineString><altitudeMode>absolute</altitudeMode><coordinates>
13.03958286,47.53140297,2076.82
13.03951965,47.53137004,2075.44
13.03946346,47.53134838,2079.52
13.03942593,47.53133937,2083.96
13.03940975,47.53133846,2084.46
13.03939820,47.53130272,2085.62
13.03936520,47.53128614,2086.17
13.03934560,47.53126664,2085.00
13.03931551,47.53122914,2084.16
13.03931531,47.53120241,2087.03
13.03930936,47.53118396,2089.13
13.03929396,47.53115859,2088.60
</coordinates></LineString>
<LineString><altitudeMode>absolute</altitudeMode><coordinates>
13.03931531,47.53120241,2087.03
13.03929659,47.53119840,2086.77
13.03928571,47.53119453,2085.67
13.03927569,47.53120327,2085.67
13.03923151,47.53121565,2083.15
</coordinates></LineString>
<LineString><altitudeMode>absolute</altitudeMode><coordinates>
13.03838757,47.53085216,2091.21
13.03847434,47.53085905,2073.17
</coordinates></LineString>
<LineString><altitudeMode>absolute</altitudeMode><coordinates>
13.03836950,47.53093770,2087.13
13.03835122,47.53093253,2087.00
13.03832252,47.53091125,2081.87
</coordinates></LineString>
<LineString><altitudeMode>absolute</altitudeMode><coordinates>
13.03928334,47.53134368,2094.10
13.03929455,47.53132453,2093.13
13.03928377,47.53131417,2096.01
</coordinates></LineString>
<LineString><altitudeMode>absolute</altitudeMode><coordinates>
13.03958286,47.53140297,2076.82
13.03961413,47.53136976,2075.23
13.03963300,47.53138377,2072.21
13.03966038,47.53140142,2071.18
</coordinates></LineString>
<LineString><altitudeMode>absolute</altitudeMode><coordinates>
13.03963300,47.53138377,2072.21
13.03957858,47.53136448,2072.62
</coordinates></LineString>
<LineString><altitudeMode>absolute</altitudeMode><coordinates>
13.03835606,47.53081698,2090.52
13.03826829,47.53076230,2084.23
13.03822692,47.53076348,2083.10
13.03824453,47.53072608,2081.51
13.03817637,47.53069054,2080.94
13.03813732,47.53067952,2080.67
13.03809632,47.53067072,2079.49
13.03809535,47.53065406,2077.93
13.03811267,47.53063150,2082.83
13.03805852,47.53059773,2081.86
13.03805852,47.53059773,2076.96
</coordinates></LineString>
<LineString><altitudeMode>absolute</altitudeMode><coordinates>
13.03805852,47.53059773,2081.86
13.03805037,47.53059894,2080.51
13.03799840,47.53060669,2078.19
</coordinates></LineString></MultiGeometry></Placemark>
</Document></kml>
