<?xml version="1.0" encoding="UTF-8"?>
<gpx version="1.0" creator="survex 1.4.17 (aven) - https://survex.com/" xmlns:xsi="http://www.w3.org/2001/XMLSchema-instance" xmlns="http://www.topografix.com/GPX/1/0" xsi:schemaLocation="http://www.topografix.com/GPX/1/0 http://www.topografix.com/GPX/1/0/gpx.xsd">
<name>574-master</name>
<time>2025-06-23T19:15:42Z</time>
<trk><name>574-master</name><trkseg>
<trkpt lon="13.04196668" lat="47.52906670"><ele>2086.00</ele></trkpt>
<trkpt lon="13.04193234" lat="47.52904695"><ele>2084.50</ele></trkpt>
<trkpt lon="13.04189817" lat="47.52906553"><ele>2082.58</ele></trkpt>
<trkpt lon="13.04192112" lat="47.52908086"><ele>2080.95</ele></trkpt>
</trkseg><trkseg>
<trkpt lon="13.04189817" lat="47.52906553"><ele>2082.58</ele></trkpt>
<trkpt lon="13.04187135" lat="47.52907209"><ele>2088.68</ele></trkpt>
</trkseg><trkseg>
<trkpt lon="13.04193234" lat="47.52904695"><ele>2084.50</ele></trkpt>
<trkpt lon="13.04192001" lat="47.52904269"><ele>2086.83</ele></trkpt>
<trkpt lon="13.04190451" lat="47.52902020"><ele>2086.14</ele></trkpt>
<trkpt lon="13.04194242" lat="47.52897612"><ele>2089.27</ele></trkpt>
<trkpt lon="13.04200691" lat="47.52897119"><ele>2085.35</ele></trkpt>
<trkpt lon="13.04204448" lat="47.52897184"><ele>2084.98</ele></trkpt>
<trkpt lon="13.04204849" lat="47.52899629"><ele>2081.17</ele></trkpt>
</trkseg><trkseg>
<trkpt lon="13.04194242" lat="47.52897612"><ele>2089.27</ele></trkpt>
<trkpt lon="13.04192971" lat="47.52892137"><ele>2086.95</ele></trkpt>
<trkpt lon="13.04197080" lat="47.52888824"><ele>2088.26</ele></trkpt>
<trkpt lon="13.04199739" lat="47.52887709"><ele>2089.46</ele></trkpt>
</trkseg><trkseg>
<trkpt lon="13.04200691" lat="47.52897119"><ele>2085.35</ele></trkpt>
<trkpt lon="13.04201111" lat="47.52895462"><ele>2082.68</ele></trkpt>
<trkpt lon="13.04204424" lat="47.52896049"><ele>2079.56</ele></trkpt>
</trkseg><trkseg>
<trkpt lon="13.04190451" lat="47.52902020"><ele>2086.14</ele></trkpt>
<trkpt lon="13.04185867" lat="47.52901311"><ele>2085.60</ele></trkpt>
</trkseg><trkseg>
<trkpt lon="13.04185867" lat="47.52901311"><ele>2085.60</ele></trkpt>
<trkpt lon="13.04185517" lat="47.52901080"><ele>2092.30</ele></trkpt>
</trkseg><trkseg>
<trkpt lon="13.04185517" lat="47.52901080"><ele>2092.30</ele></trkpt>
<trkpt lon="13.04185361" lat="47.52902410"><ele>2092.17</ele></trkpt>
<trkpt lon="13.04188314" lat="47.52901236"><ele>2094.14</ele></trkpt>
</trkseg><trkseg>
<trkpt lon="13.04185361" lat="47.52902410"><ele>2092.17</ele></trkpt>
<trkpt lon="13.04180263" lat="47.52902313"><ele>2093.12</ele></trkpt>
</trkseg><trkseg>
<trkpt lon="13.04192971" lat="47.52892137"><ele>2086.95</ele></trkpt>
<trkpt lon="13.04188231" lat="47.52889195"><ele>2087.42</ele></trkpt>
</trkseg><trkseg>
<trkpt lon="13.04196668" lat="47.52906670"><ele>2086.00</ele></trkpt>
<trkpt lon="13.04195078" lat="47.52908712"><ele>2085.79</ele></trkpt>
</trkseg><trkseg>
<trkpt lon="13.04195078" lat="47.52908712"><ele>2085.79</ele></trkpt>
<trkpt lon="13.04194034" lat="47.52909981"><ele>2083.84</ele></trkpt>
<trkpt lon="13.04193756" lat="47.52912100"><ele>2088.53</ele></trkpt>
</trkseg><trkseg>
<trkpt lon="13.04193756" lat="47.52912100"><ele>2088.53</ele></trkpt>
<trkpt lon="13.04188837" lat="47.52908597"><ele>2092.35</ele></trkpt>
</trkseg><trkseg>
<trkpt lon="13.04190451" lat="47.52902020"><ele>2086.14</ele></trkpt>
<trkpt lon="13.04195706" lat="47.52903954"><ele>2087.89</ele></trkpt>
</trkseg><trkseg>
<trkpt lon="13.04188314" lat="47.52901236"><ele>2094.14</ele></trkpt>
<trkpt lon="13.04194213" lat="47.52901598"><ele>2095.99</ele></trkpt>
</trkseg><trkseg>
<trkpt lon="13.04188231" lat="47.52889195"><ele>2087.42</ele></trkpt>
<trkpt lon="13.04188575" lat="47.52891387"><ele>2102.58</ele></trkpt>
</trkseg><trkseg>
<trkpt lon="13.04192971" lat="47.52892137"><ele>2086.95</ele></trkpt>
<trkpt lon="13.04189440" lat="47.52892410"><ele>2084.30</ele></trkpt>
<trkpt lon="13.04188799" lat="47.52893218"><ele>2100.46</ele></trkpt>
</trkseg><trkseg>
<trkpt lon="13.04193756" lat="47.52912100"><ele>2088.53</ele></trkpt>
<trkpt lon="13.04194725" lat="47.52911397"><ele>2091.02</ele></trkpt>
</trkseg><trkseg>
<trkpt lon="13.04188837" lat="47.52908597"><ele>2092.35</ele></trkpt>
<trkpt lon="13.04189204" lat="47.52908396"><ele>2096.06</ele></trkpt>
</trkseg></trk>
</gpx>
