<?xml version="1.0" encoding="UTF-8"?>
<kml xmlns="http://www.opengis.net/kml/2.2">
<Document><name>574-master</name>
<Style id="fix"><IconStyle><Icon><href>https://maps.google.com/mapfiles/kml/paddle/red-blank.png</href></Icon><color>ff0000ff</color><hotSpot x="32" y="1" xunits="pixels" yunits="pixels"/></IconStyle></Style>
<Style id="exp"><IconStyle><Icon><href>https://maps.google.com/mapfiles/kml/paddle/blu-blank.png</href></Icon><color>ffff0000</color><hotSpot x="32" y="1" xunits="pixels" yunits="pixels"/></IconStyle></Style>
<Style id="ent"><IconStyle><Icon><href>https://maps.google.com/mapfiles/kml/paddle/grn-blank.png</href></Icon><color>ff00ff00</color><hotSpot x="32" y="1" xunits="pixels" yunits="pixels"/></IconStyle></Style>
<Style id="surf"><LineStyle><color>ff00ff00</color></LineStyle></Style>
<Style id="splay"><LineStyle><color>40ff00ff</color></LineStyle></Style>
<Placemark><MultiGeometry><LineString><altitudeMode>absolute</altitudeMode><coordinates>
13.04196668,47.52906670,2086.00
13.04193234,47.52904695,2084.50
13.04189817,47.52906553,2082.58
13.04192112,47.52908086,2080.95
</coordinates></LineString>
<LineString><altitudeMode>absolute</altitudeMode><coordinates>
13.04189817,47.52906553,2082.58
13.04187135,47.52907209,2088.68
</coordinates></LineString>
<LineString><altitudeMode>absolute</altitudeMode><coordinates>
13.04193234,47.52904695,2084.50
13.04192001,47.52904269,2086.83
13.04190451,47.52902020,2086.14
13.04194242,47.52897612,2089.27
13.04200691,47.52897119,2085.35
13.04204448,47.52897184,2084.98
13.04204849,47.52899629,2081.17
</coordinates></LineString>
<LineString><altitudeMode>absolute</altitudeMode><coordinates>
13.04194242,47.52897612,2089.27
13.04192971,47.52892137,2086.95
13.04197080,47.52888824,2088.26
13.04199739,47.52887709,2089.46
</coordinates></LineString>
<LineString><altitudeMode>absolute</altitudeMode><coordinates>
13.04200691,47.52897119,2085.35
13.04201111,47.52895462,2082.68
13.04204424,47.52896049,2079.56
</coordinates></LineString>
<LineString><altitudeMode>absolute</altitudeMode><coordinates>
13.04190451,47.52902020,2086.14
13.04185867,47.52901311,2085.60
</coordinates></LineString>
<LineString><altitudeMode>absolute</altitudeMode><coordinates>
13.04185867,47.52901311,2085.60
13.04185517,47.52901080,2092.30
</coordinates></LineString>
<LineString><altitudeMode>absolute</altitudeMode><coordinates>
13.04185517,47.52901080,2092.30
13.04185361,47.52902410,2092.17
13.04188314,47.52901236,2094.14
</coordinates></LineString>
<LineString><altitudeMode>absolute</altitudeMode><coordinates>
13.04185361,47.52902410,2092.17
13.04180263,47.52902313,2093.12
</coordinates></LineString>
<LineString><altitudeMode>absolute</altitudeMode><coordinates>
13.04192971,47.52892137,2086.95
13.04188231,47.52889195,2087.42
</coordinates></LineString>
<LineString><altitudeMode>absolute</altitudeMode><coordinates>
13.04196668,47.52906670,2086.00
13.04195078,47.52908712,2085.79
</coordinates></LineString>
<LineString><altitudeMode>absolute</altitudeMode><coordinates>
13.04195078,47.52908712,2085.79
13.04194034,47.52909981,2083.84
13.04193756,47.52912100,2088.53
</coordinates></LineString>
<LineString><altitudeMode>absolute</altitudeMode><coordinates>
13.04193756,47.52912100,2088.53
13.04188837,47.52908597,2092.35
</coordinates></LineString>
<LineString><altitudeMode>absolute</altitudeMode><coordinates>
13.04190451,47.52902020,2086.14
13.04195706,47.52903954,2087.89
</coordinates></LineString>
<LineString><altitudeMode>absolute</altitudeMode><coordinates>
13.04188314,47.52901236,2094.14
13.04194213,47.52901598,2095.99
</coordinates></LineString>
<LineString><altitudeMode>absolute</altitudeMode><coordinates>
13.04188231,47.52889195,2087.42
13.04188575,47.52891387,2102.58
</coordinates></LineString>
<LineString><altitudeMode>absolute</altitudeMode><coordinates>
13.04192971,47.52892137,2086.95
13.04189440,47.52892410,2084.30
13.04188799,47.52893218,2100.46
</coordinates></LineString>
<LineString><altitudeMode>absolute</altitudeMode><coordinates>
13.04193756,47.52912100,2088.53
13.04194725,47.52911397,2091.02
</coordinates></LineString>
<LineString><altitudeMode>absolute</altitudeMode><coordinates>
13.04188837,47.52908597,2092.35
13.04189204,47.52908396,2096.06
</coordinates></LineString></MultiGeometry></Placemark>
</Document></kml>
