<?xml version="1.0" encoding="UTF-8"?>
<gpx version="1.0" creator="survex 1.4.17 (aven) - https://survex.com/" xmlns:xsi="http://www.w3.org/2001/XMLSchema-instance" xmlns="http://www.topografix.com/GPX/1/0" xsi:schemaLocation="http://www.topografix.com/GPX/1/0 http://www.topografix.com/GPX/1/0/gpx.xsd">
<name>503-master</name>
<time>2025-05-15T22:17:33Z</time>
<trk><name>503-master</name><trkseg>
<trkpt lon="13.05016671" lat="47.53231666"><ele>1932.00</ele></trkpt>
<trkpt lon="13.05007144" lat="47.53240268"><ele>1928.73</ele></trkpt>
<trkpt lon="13.05009932" lat="47.53243555"><ele>1929.26</ele></trkpt>
</trkseg><trkseg>
<trkpt lon="13.05007144" lat="47.53240268"><ele>1928.73</ele></trkpt>
<trkpt lon="13.05003444" lat="47.53244399"><ele>1929.43</ele></trkpt>
<trkpt lon="13.05002156" lat="47.53246509"><ele>1934.36</ele></trkpt>
</trkseg><trkseg>
<trkpt lon="13.05007144" lat="47.53240268"><ele>1928.73</ele></trkpt>
<trkpt lon="13.04996111" lat="47.53236112"><ele>1930.10</ele></trkpt>
</trkseg></trk>
</gpx>
