<?xml version="1.0" encoding="UTF-8"?>
<kml xmlns="http://www.opengis.net/kml/2.2">
<Document><name>581-master</name>
<Style id="fix"><IconStyle><Icon><href>https://maps.google.com/mapfiles/kml/paddle/red-blank.png</href></Icon><color>ff0000ff</color><hotSpot x="32" y="1" xunits="pixels" yunits="pixels"/></IconStyle></Style>
<Style id="exp"><IconStyle><Icon><href>https://maps.google.com/mapfiles/kml/paddle/blu-blank.png</href></Icon><color>ffff0000</color><hotSpot x="32" y="1" xunits="pixels" yunits="pixels"/></IconStyle></Style>
<Style id="ent"><IconStyle><Icon><href>https://maps.google.com/mapfiles/kml/paddle/grn-blank.png</href></Icon><color>ff00ff00</color><hotSpot x="32" y="1" xunits="pixels" yunits="pixels"/></IconStyle></Style>
<Style id="surf"><LineStyle><color>ff00ff00</color></LineStyle></Style>
<Style id="splay"><LineStyle><color>40ff00ff</color></LineStyle></Style>
<Placemark><MultiGeometry><LineString><altitudeMode>absolute</altitudeMode><coordinates>
13.03641663,47.53649991,1974.00
13.03643230,47.53650009,1966.43
13.03643021,47.53650635,1960.67
13.03644796,47.53650783,1957.91
13.03642304,47.53648490,1956.23
13.03645734,47.53648423,1953.18
13.03646395,47.53649226,1951.41
13.03645030,47.53649851,1950.51
13.03646082,47.53650868,1949.90
13.03645772,47.53652743,1945.49
13.03647796,47.53651212,1939.39
13.03647404,47.53649972,1935.61
13.03648066,47.53647536,1933.78
13.03651901,47.53646603,1924.35
13.03649362,47.53647720,1921.02
13.03652342,47.53648671,1919.13
13.03654222,47.53648865,1916.75
13.03657904,47.53648128,1914.42
13.03660500,47.53649063,1912.31
13.03661776,47.53651172,1908.04
13.03664463,47.53650031,1898.98
13.03664728,47.53649693,1886.41
13.03667483,47.53647446,1886.21
</coordinates></LineString>
<LineString><altitudeMode>absolute</altitudeMode><coordinates>
13.03651901,47.53646603,1924.35
13.03654788,47.53643323,1926.25
</coordinates></LineString>
<LineString><altitudeMode>absolute</altitudeMode><coordinates>
13.03654788,47.53643323,1926.25
13.03656524,47.53640950,1927.64
</coordinates></LineString>
<LineString><altitudeMode>absolute</altitudeMode><coordinates>
13.03656524,47.53640950,1927.64
13.03655416,47.53638943,1927.16
</coordinates></LineString>
<LineString><altitudeMode>absolute</altitudeMode><coordinates>
13.03655416,47.53638943,1927.16
13.03657143,47.53638963,1920.29
13.03654510,47.53638657,1918.96
13.03656371,47.53638644,1916.06
13.03654654,47.53637310,1909.83
13.03659389,47.53635744,1909.52
13.03665079,47.53632476,1910.84
</coordinates></LineString>
<LineString><altitudeMode>absolute</altitudeMode><coordinates>
13.03665079,47.53632476,1910.84
13.03667489,47.53633409,1910.97
</coordinates></LineString>
<LineString><altitudeMode>absolute</altitudeMode><coordinates>
13.03667489,47.53633409,1910.97
13.03669225,47.53633879,1911.03
</coordinates></LineString>
<LineString><altitudeMode>absolute</altitudeMode><coordinates>
13.03669225,47.53633879,1911.03
13.03671383,47.53633736,1902.62
</coordinates></LineString>
<LineString><altitudeMode>absolute</altitudeMode><coordinates>
13.03671383,47.53633736,1902.62
13.03672528,47.53632271,1901.05
</coordinates></LineString>
<LineString><altitudeMode>absolute</altitudeMode><coordinates>
13.03672528,47.53632271,1901.05
13.03674496,47.53630100,1900.60
</coordinates></LineString>
<LineString><altitudeMode>absolute</altitudeMode><coordinates>
13.03674496,47.53630100,1900.60
13.03674659,47.53632119,1890.03
</coordinates></LineString>
<LineString><altitudeMode>absolute</altitudeMode><coordinates>
13.03674659,47.53632119,1890.03
13.03676470,47.53628109,1873.67
</coordinates></LineString>
<LineString><altitudeMode>absolute</altitudeMode><coordinates>
13.03676470,47.53628109,1873.67
13.03681973,47.53626269,1873.00
</coordinates></LineString>
<LineString><altitudeMode>absolute</altitudeMode><coordinates>
13.03681973,47.53626269,1873.00
13.03685205,47.53625118,1872.85
</coordinates></LineString>
<LineString><altitudeMode>absolute</altitudeMode><coordinates>
13.03685205,47.53625118,1872.85
13.03686341,47.53625309,1870.47
</coordinates></LineString>
<LineString><altitudeMode>absolute</altitudeMode><coordinates>
13.03686341,47.53625309,1870.47
13.03687542,47.53625896,1862.65
</coordinates></LineString>
<LineString><altitudeMode>absolute</altitudeMode><coordinates>
13.03687542,47.53625896,1862.65
13.03686490,47.53627003,1855.09
</coordinates></LineString>
<LineString><altitudeMode>absolute</altitudeMode><coordinates>
13.03686490,47.53627003,1855.09
13.03690780,47.53629200,1853.34
</coordinates></LineString>
<LineString><altitudeMode>absolute</altitudeMode><coordinates>
13.03690780,47.53629200,1853.34
13.03692575,47.53629177,1851.20
</coordinates></LineString></MultiGeometry></Placemark>
</Document></kml>
