<?xml version="1.0" encoding="UTF-8"?>
<gpx version="1.0" creator="survex 1.4.17 (aven) - https://survex.com/" xmlns:xsi="http://www.w3.org/2001/XMLSchema-instance" xmlns="http://www.topografix.com/GPX/1/0" xsi:schemaLocation="http://www.topografix.com/GPX/1/0 http://www.topografix.com/GPX/1/0/gpx.xsd">
<name>581-master</name>
<time>2025-06-23T19:15:44Z</time>
<trk><name>581-master</name><trkseg>
<trkpt lon="13.03641663" lat="47.53649991"><ele>1974.00</ele></trkpt>
<trkpt lon="13.03643230" lat="47.53650009"><ele>1966.43</ele></trkpt>
<trkpt lon="13.03643021" lat="47.53650635"><ele>1960.67</ele></trkpt>
<trkpt lon="13.03644796" lat="47.53650783"><ele>1957.91</ele></trkpt>
<trkpt lon="13.03642304" lat="47.53648490"><ele>1956.23</ele></trkpt>
<trkpt lon="13.03645734" lat="47.53648423"><ele>1953.18</ele></trkpt>
<trkpt lon="13.03646395" lat="47.53649226"><ele>1951.41</ele></trkpt>
<trkpt lon="13.03645030" lat="47.53649851"><ele>1950.51</ele></trkpt>
<trkpt lon="13.03646082" lat="47.53650868"><ele>1949.90</ele></trkpt>
<trkpt lon="13.03645772" lat="47.53652743"><ele>1945.49</ele></trkpt>
<trkpt lon="13.03647796" lat="47.53651212"><ele>1939.39</ele></trkpt>
<trkpt lon="13.03647404" lat="47.53649972"><ele>1935.61</ele></trkpt>
<trkpt lon="13.03648066" lat="47.53647536"><ele>1933.78</ele></trkpt>
<trkpt lon="13.03651901" lat="47.53646603"><ele>1924.35</ele></trkpt>
<trkpt lon="13.03649362" lat="47.53647720"><ele>1921.02</ele></trkpt>
<trkpt lon="13.03652342" lat="47.53648671"><ele>1919.13</ele></trkpt>
<trkpt lon="13.03654222" lat="47.53648865"><ele>1916.75</ele></trkpt>
<trkpt lon="13.03657904" lat="47.53648128"><ele>1914.42</ele></trkpt>
<trkpt lon="13.03660500" lat="47.53649063"><ele>1912.31</ele></trkpt>
<trkpt lon="13.03661776" lat="47.53651172"><ele>1908.04</ele></trkpt>
<trkpt lon="13.03664463" lat="47.53650031"><ele>1898.98</ele></trkpt>
<trkpt lon="13.03664728" lat="47.53649693"><ele>1886.41</ele></trkpt>
<trkpt lon="13.03667483" lat="47.53647446"><ele>1886.21</ele></trkpt>
</trkseg><trkseg>
<trkpt lon="13.03651901" lat="47.53646603"><ele>1924.35</ele></trkpt>
<trkpt lon="13.03654788" lat="47.53643323"><ele>1926.25</ele></trkpt>
</trkseg><trkseg>
<trkpt lon="13.03654788" lat="47.53643323"><ele>1926.25</ele></trkpt>
<trkpt lon="13.03656524" lat="47.53640950"><ele>1927.64</ele></trkpt>
</trkseg><trkseg>
<trkpt lon="13.03656524" lat="47.53640950"><ele>1927.64</ele></trkpt>
<trkpt lon="13.03655416" lat="47.53638943"><ele>1927.16</ele></trkpt>
</trkseg><trkseg>
<trkpt lon="13.03655416" lat="47.53638943"><ele>1927.16</ele></trkpt>
<trkpt lon="13.03657143" lat="47.53638963"><ele>1920.29</ele></trkpt>
<trkpt lon="13.03654510" lat="47.53638657"><ele>1918.96</ele></trkpt>
<trkpt lon="13.03656371" lat="47.53638644"><ele>1916.06</ele></trkpt>
<trkpt lon="13.03654654" lat="47.53637310"><ele>1909.83</ele></trkpt>
<trkpt lon="13.03659389" lat="47.53635744"><ele>1909.52</ele></trkpt>
<trkpt lon="13.03665079" lat="47.53632476"><ele>1910.84</ele></trkpt>
</trkseg><trkseg>
<trkpt lon="13.03665079" lat="47.53632476"><ele>1910.84</ele></trkpt>
<trkpt lon="13.03667489" lat="47.53633409"><ele>1910.97</ele></trkpt>
</trkseg><trkseg>
<trkpt lon="13.03667489" lat="47.53633409"><ele>1910.97</ele></trkpt>
<trkpt lon="13.03669225" lat="47.53633879"><ele>1911.03</ele></trkpt>
</trkseg><trkseg>
<trkpt lon="13.03669225" lat="47.53633879"><ele>1911.03</ele></trkpt>
<trkpt lon="13.03671383" lat="47.53633736"><ele>1902.62</ele></trkpt>
</trkseg><trkseg>
<trkpt lon="13.03671383" lat="47.53633736"><ele>1902.62</ele></trkpt>
<trkpt lon="13.03672528" lat="47.53632271"><ele>1901.05</ele></trkpt>
</trkseg><trkseg>
<trkpt lon="13.03672528" lat="47.53632271"><ele>1901.05</ele></trkpt>
<trkpt lon="13.03674496" lat="47.53630100"><ele>1900.60</ele></trkpt>
</trkseg><trkseg>
<trkpt lon="13.03674496" lat="47.53630100"><ele>1900.60</ele></trkpt>
<trkpt lon="13.03674659" lat="47.53632119"><ele>1890.03</ele></trkpt>
</trkseg><trkseg>
<trkpt lon="13.03674659" lat="47.53632119"><ele>1890.03</ele></trkpt>
<trkpt lon="13.03676470" lat="47.53628109"><ele>1873.67</ele></trkpt>
</trkseg><trkseg>
<trkpt lon="13.03676470" lat="47.53628109"><ele>1873.67</ele></trkpt>
<trkpt lon="13.03681973" lat="47.53626269"><ele>1873.00</ele></trkpt>
</trkseg><trkseg>
<trkpt lon="13.03681973" lat="47.53626269"><ele>1873.00</ele></trkpt>
<trkpt lon="13.03685205" lat="47.53625118"><ele>1872.85</ele></trkpt>
</trkseg><trkseg>
<trkpt lon="13.03685205" lat="47.53625118"><ele>1872.85</ele></trkpt>
<trkpt lon="13.03686341" lat="47.53625309"><ele>1870.47</ele></trkpt>
</trkseg><trkseg>
<trkpt lon="13.03686341" lat="47.53625309"><ele>1870.47</ele></trkpt>
<trkpt lon="13.03687542" lat="47.53625896"><ele>1862.65</ele></trkpt>
</trkseg><trkseg>
<trkpt lon="13.03687542" lat="47.53625896"><ele>1862.65</ele></trkpt>
<trkpt lon="13.03686490" lat="47.53627003"><ele>1855.09</ele></trkpt>
</trkseg><trkseg>
<trkpt lon="13.03686490" lat="47.53627003"><ele>1855.09</ele></trkpt>
<trkpt lon="13.03690780" lat="47.53629200"><ele>1853.34</ele></trkpt>
</trkseg><trkseg>
<trkpt lon="13.03690780" lat="47.53629200"><ele>1853.34</ele></trkpt>
<trkpt lon="13.03692575" lat="47.53629177"><ele>1851.20</ele></trkpt>
</trkseg></trk>
</gpx>
