<?xml version="1.0" encoding="UTF-8"?>
<kml xmlns="http://www.opengis.net/kml/2.2">
<Document><name>563-master</name>
<Style id="fix"><IconStyle><Icon><href>https://maps.google.com/mapfiles/kml/paddle/red-blank.png</href></Icon><color>ff0000ff</color><hotSpot x="32" y="1" xunits="pixels" yunits="pixels"/></IconStyle></Style>
<Style id="exp"><IconStyle><Icon><href>https://maps.google.com/mapfiles/kml/paddle/blu-blank.png</href></Icon><color>ffff0000</color><hotSpot x="32" y="1" xunits="pixels" yunits="pixels"/></IconStyle></Style>
<Style id="ent"><IconStyle><Icon><href>https://maps.google.com/mapfiles/kml/paddle/grn-blank.png</href></Icon><color>ff00ff00</color><hotSpot x="32" y="1" xunits="pixels" yunits="pixels"/></IconStyle></Style>
<Style id="surf"><LineStyle><color>ff00ff00</color></LineStyle></Style>
<Style id="splay"><LineStyle><color>40ff00ff</color></LineStyle></Style>
<Placemark><MultiGeometry><LineString><altitudeMode>absolute</altitudeMode><coordinates>
13.03712329,47.52902833,2188.00
13.03712264,47.52902805,2185.59
13.03710013,47.52900462,2177.43
13.03709017,47.52898313,2170.38
13.03706841,47.52898231,2170.67
13.03704395,47.52896497,2169.99
13.03699540,47.52899140,2169.28
13.03700647,47.52901157,2166.69
13.03697384,47.52901740,2164.60
13.03692488,47.52904419,2164.53
13.03689958,47.52903133,2163.80
13.03686527,47.52903939,2164.34
13.03682590,47.52901927,2165.11
13.03677724,47.52904130,2164.34
13.03681675,47.52906501,2168.22
13.03684387,47.52906439,2167.80
13.03687133,47.52904435,2168.96
13.03689970,47.52904600,2169.00
13.03697227,47.52904167,2169.69
13.03697619,47.52900763,2171.34
13.03700157,47.52899709,2169.16
</coordinates></LineString>
<LineString><altitudeMode>absolute</altitudeMode><coordinates>
13.03704395,47.52896497,2169.99
13.03700357,47.52893629,2167.79
13.03701952,47.52888626,2167.72
13.03702305,47.52886293,2168.00
13.03702117,47.52883149,2169.73
13.03704910,47.52881622,2171.07
13.03704600,47.52878189,2171.31
13.03702034,47.52876822,2171.78
13.03700178,47.52878500,2168.37
13.03691273,47.52878950,2161.86
13.03689783,47.52880419,2161.41
13.03683502,47.52881409,2156.95
13.03688581,47.52878103,2160.19
13.03688443,47.52875024,2159.82
13.03688329,47.52871323,2160.12
</coordinates></LineString>
<LineString><altitudeMode>absolute</altitudeMode><coordinates>
13.03700647,47.52901157,2166.69
13.03702297,47.52900015,2164.84
</coordinates></LineString>
<LineString><altitudeMode>absolute</altitudeMode><coordinates>
13.03702297,47.52900015,2164.84
13.03708054,47.52900969,2163.86
</coordinates></LineString>
<LineString><altitudeMode>absolute</altitudeMode><coordinates>
13.03708054,47.52900969,2163.86
13.03712191,47.52901544,2163.44
</coordinates></LineString>
<LineString><altitudeMode>absolute</altitudeMode><coordinates>
13.03712191,47.52901544,2163.44
13.03717236,47.52901666,2163.18
</coordinates></LineString>
<LineString><altitudeMode>absolute</altitudeMode><coordinates>
13.03677724,47.52904130,2164.34
13.03673481,47.52908898,2175.35
</coordinates></LineString>
<LineString><altitudeMode>absolute</altitudeMode><coordinates>
13.03683502,47.52881409,2156.95
13.03684446,47.52879238,2154.75
</coordinates></LineString>
<LineString><altitudeMode>absolute</altitudeMode><coordinates>
13.03684446,47.52879238,2154.75
13.03688942,47.52878389,2151.65
</coordinates></LineString>
<LineString><altitudeMode>absolute</altitudeMode><coordinates>
13.03688942,47.52878389,2151.65
13.03693636,47.52875418,2147.74
</coordinates></LineString></MultiGeometry></Placemark>
</Document></kml>
