<?xml version="1.0" encoding="UTF-8"?>
<kml xmlns="http://www.opengis.net/kml/2.2">
<Document><name>578-master</name>
<Style id="fix"><IconStyle><Icon><href>https://maps.google.com/mapfiles/kml/paddle/red-blank.png</href></Icon><color>ff0000ff</color><hotSpot x="32" y="1" xunits="pixels" yunits="pixels"/></IconStyle></Style>
<Style id="exp"><IconStyle><Icon><href>https://maps.google.com/mapfiles/kml/paddle/blu-blank.png</href></Icon><color>ffff0000</color><hotSpot x="32" y="1" xunits="pixels" yunits="pixels"/></IconStyle></Style>
<Style id="ent"><IconStyle><Icon><href>https://maps.google.com/mapfiles/kml/paddle/grn-blank.png</href></Icon><color>ff00ff00</color><hotSpot x="32" y="1" xunits="pixels" yunits="pixels"/></IconStyle></Style>
<Style id="surf"><LineStyle><color>ff00ff00</color></LineStyle></Style>
<Style id="splay"><LineStyle><color>40ff00ff</color></LineStyle></Style>
<Placemark><MultiGeometry><LineString><altitudeMode>absolute</altitudeMode><coordinates>
13.04703192,47.51832911,2057.89
13.04692535,47.51828744,2062.87
13.04695900,47.51826839,2068.66
13.04696279,47.51825217,2060.95
13.04697109,47.51827544,2060.89
13.04703192,47.51832911,2057.89
</coordinates></LineString>
<LineString><altitudeMode>absolute</altitudeMode><coordinates>
13.04747658,47.51782252,2132.00
13.04746350,47.51782419,2131.54
13.04745374,47.51783671,2131.36
13.04743229,47.51784912,2131.26
13.04743274,47.51786227,2130.32
13.04739152,47.51787047,2124.67
13.04737639,47.51785942,2117.66
13.04736390,47.51786298,2112.18
13.04735258,47.51786738,2103.61
13.04737867,47.51788015,2103.40
13.04738656,47.51788245,2099.90
13.04738539,47.51788171,2097.59
13.04737871,47.51788267,2079.10
13.04742304,47.51791240,2078.09
13.04740129,47.51793282,2074.28
13.04737534,47.51796630,2070.09
13.04738361,47.51803708,2064.04
13.04735423,47.51804846,2062.75
13.04734712,47.51806471,2061.10
13.04730886,47.51810761,2057.81
13.04720098,47.51816192,2054.93
13.04712452,47.51822856,2052.80
13.04708510,47.51827423,2051.84
13.04708955,47.51827952,2053.63
13.04703192,47.51832911,2057.89
</coordinates></LineString>
<LineString><altitudeMode>absolute</altitudeMode><coordinates>
13.04737871,47.51788267,2079.10
13.04712643,47.51777264,2087.08
13.04709730,47.51775244,2088.04
13.04701279,47.51777836,2089.54
13.04702224,47.51780290,2091.54
13.04698877,47.51782771,2089.26
13.04698105,47.51784260,2089.28
</coordinates></LineString>
<LineString><altitudeMode>absolute</altitudeMode><coordinates>
13.04737871,47.51788267,2079.10
13.04749378,47.51773148,2077.88
</coordinates></LineString>
<LineString><altitudeMode>absolute</altitudeMode><coordinates>
13.04749378,47.51773148,2077.88
13.04749307,47.51771473,2077.06
</coordinates></LineString>
<LineString><altitudeMode>absolute</altitudeMode><coordinates>
13.04749307,47.51771473,2077.06
13.04754474,47.51769680,2079.97
</coordinates></LineString>
<LineString><altitudeMode>absolute</altitudeMode><coordinates>
13.04754474,47.51769680,2079.97
13.04756641,47.51767117,2083.03
</coordinates></LineString>
<LineString><altitudeMode>absolute</altitudeMode><coordinates>
13.04756641,47.51767117,2083.03
13.04761014,47.51770260,2084.14
</coordinates></LineString>
<LineString><altitudeMode>absolute</altitudeMode><coordinates>
13.04756641,47.51767117,2083.03
13.04758996,47.51763800,2087.00
</coordinates></LineString>
<LineString><altitudeMode>absolute</altitudeMode><coordinates>
13.04758996,47.51763800,2087.00
13.04759029,47.51760400,2086.34
</coordinates></LineString>
<LineString><altitudeMode>absolute</altitudeMode><coordinates>
13.04759029,47.51760400,2086.34
13.04757293,47.51756015,2089.15
</coordinates></LineString>
<LineString><altitudeMode>absolute</altitudeMode><coordinates>
13.04757293,47.51756015,2089.15
13.04749400,47.51755727,2090.96
</coordinates></LineString>
<LineString><altitudeMode>absolute</altitudeMode><coordinates>
13.04749400,47.51755727,2090.96
13.04746942,47.51752869,2091.44
</coordinates></LineString>
<LineString><altitudeMode>absolute</altitudeMode><coordinates>
13.04746942,47.51752869,2091.44
13.04742012,47.51752920,2092.94
</coordinates></LineString>
<LineString><altitudeMode>absolute</altitudeMode><coordinates>
13.04742012,47.51752920,2092.94
13.04742926,47.51750146,2094.14
</coordinates></LineString>
<LineString><altitudeMode>absolute</altitudeMode><coordinates>
13.04742926,47.51750146,2094.14
13.04743800,47.51747353,2093.41
</coordinates></LineString>
<LineString><altitudeMode>absolute</altitudeMode><coordinates>
13.04712643,47.51777264,2087.08
13.04718148,47.51790712,2080.32
</coordinates></LineString>
<LineString><altitudeMode>absolute</altitudeMode><coordinates>
13.04718148,47.51790712,2080.32
13.04714357,47.51790863,2081.96
</coordinates></LineString>
<LineString><altitudeMode>absolute</altitudeMode><coordinates>
13.04714357,47.51790863,2081.96
13.04713798,47.51790890,2084.90
</coordinates></LineString>
<LineString><altitudeMode>absolute</altitudeMode><coordinates>
13.04713798,47.51790890,2084.90
13.04711332,47.51789705,2085.34
</coordinates></LineString>
<LineString><altitudeMode>absolute</altitudeMode><coordinates>
13.04711332,47.51789705,2085.34
13.04708757,47.51790363,2083.77
</coordinates></LineString>
<LineString><altitudeMode>absolute</altitudeMode><coordinates>
13.04708757,47.51790363,2083.77
13.04706367,47.51791051,2082.53
</coordinates></LineString>
<LineString><altitudeMode>absolute</altitudeMode><coordinates>
13.04706367,47.51791051,2082.53
13.04701473,47.51792272,2081.40
</coordinates></LineString>
<LineString><altitudeMode>absolute</altitudeMode><coordinates>
13.04696279,47.51825217,2060.95
13.04693053,47.51823713,2054.36
13.04689816,47.51822191,2047.73
13.04688829,47.51819439,2047.52
13.04685557,47.51820625,2048.67
</coordinates></LineString>
<LineString><altitudeMode>absolute</altitudeMode><coordinates>
13.04695900,47.51826839,2068.66
13.04695819,47.51823274,2067.29
13.04699345,47.51821697,2069.97
13.04702616,47.51819809,2072.80
13.04705805,47.51818720,2073.93
13.04711064,47.51816236,2077.26
13.04706372,47.51816310,2075.55
</coordinates></LineString>
<LineString><altitudeMode>absolute</altitudeMode><coordinates>
13.04711064,47.51816236,2077.26
13.04717399,47.51816974,2078.70
13.04718857,47.51819915,2080.21
13.04722566,47.51819852,2081.46
13.04724209,47.51822102,2080.70
13.04726287,47.51821598,2080.57
13.04727915,47.51823173,2080.24
</coordinates></LineString>
<LineString><altitudeMode>absolute</altitudeMode><coordinates>
13.04692535,47.51828744,2062.87
13.04687329,47.51830859,2070.80
13.04689208,47.51833915,2070.72
13.04688709,47.51834842,2071.62
13.04683878,47.51835786,2073.56
13.04682360,47.51836957,2073.26
13.04680599,47.51835397,2073.90
13.04680168,47.51833761,2075.15
13.04681325,47.51837299,2077.29
13.04682195,47.51839968,2077.67
13.04681364,47.51841961,2076.77
13.04685853,47.51842694,2078.46
13.04686207,47.51845679,2076.33
13.04679254,47.51848701,2073.87
13.04677033,47.51845927,2075.73
13.04675340,47.51846807,2075.54
13.04672900,47.51845974,2076.31
13.04672305,47.51848393,2075.37
</coordinates></LineString>
<LineString><altitudeMode>absolute</altitudeMode><coordinates>
13.04703192,47.51832911,2057.89
13.04699380,47.51836860,2058.70
</coordinates></LineString>
<LineString><altitudeMode>absolute</altitudeMode><coordinates>
13.04699380,47.51836860,2058.70
13.04687746,47.51843590,2056.26
</coordinates></LineString>
<LineString><altitudeMode>absolute</altitudeMode><coordinates>
13.04687746,47.51843590,2056.26
13.04683669,47.51846796,2053.69
</coordinates></LineString>
<LineString><altitudeMode>absolute</altitudeMode><coordinates>
13.04683669,47.51846796,2053.69
13.04679923,47.51848577,2052.24
</coordinates></LineString>
<LineString><altitudeMode>absolute</altitudeMode><coordinates>
13.04679923,47.51848577,2052.24
13.04676763,47.51851052,2050.22
</coordinates></LineString>
<LineString><altitudeMode>absolute</altitudeMode><coordinates>
13.04676763,47.51851052,2050.22
13.04671569,47.51852484,2048.71
</coordinates></LineString>
<LineString><altitudeMode>absolute</altitudeMode><coordinates>
13.04671569,47.51852484,2048.71
13.04667557,47.51853567,2046.82
</coordinates></LineString>
<LineString><altitudeMode>absolute</altitudeMode><coordinates>
13.04667557,47.51853567,2046.82
13.04665167,47.51857117,2044.81
</coordinates></LineString>
<LineString><altitudeMode>absolute</altitudeMode><coordinates>
13.04665167,47.51857117,2044.81
13.04661141,47.51859307,2043.50
</coordinates></LineString>
<LineString><altitudeMode>absolute</altitudeMode><coordinates>
13.04661141,47.51859307,2043.50
13.04659651,47.51859714,2042.92
</coordinates></LineString>
<LineString><altitudeMode>absolute</altitudeMode><coordinates>
13.04738361,47.51803708,2064.04
13.04742800,47.51802200,2065.73
13.04753522,47.51799629,2067.13
13.04755520,47.51799123,2064.42
13.04759902,47.51797002,2064.15
13.04764577,47.51797037,2063.87
13.04767463,47.51795511,2064.01
</coordinates></LineString>
<LineString><altitudeMode>absolute</altitudeMode><coordinates>
13.04753522,47.51799629,2067.13
13.04756885,47.51796339,2067.66
</coordinates></LineString>
<LineString><altitudeMode>absolute</altitudeMode><coordinates>
13.04756885,47.51796339,2067.66
13.04762352,47.51792194,2064.47
</coordinates></LineString>
<LineString><altitudeMode>absolute</altitudeMode><coordinates>
13.04762352,47.51792194,2064.47
13.04760536,47.51787798,2064.55
</coordinates></LineString>
<LineString><altitudeMode>absolute</altitudeMode><coordinates>
13.04703192,47.51832911,2057.89
13.04699407,47.51836833,2058.65
</coordinates></LineString>
<LineString><altitudeMode>absolute</altitudeMode><coordinates>
13.04738361,47.51803708,2064.04
13.04742760,47.51802208,2065.63
13.04753444,47.51799582,2067.00
13.04755429,47.51799076,2064.31
</coordinates></LineString>
<LineString><altitudeMode>absolute</altitudeMode><coordinates>
13.04703192,47.51832911,2057.89
13.04709003,47.51827755,2053.45
</coordinates></LineString></MultiGeometry></Placemark>
</Document></kml>
