<?xml version="1.0" encoding="UTF-8"?>
<kml xmlns="http://www.opengis.net/kml/2.2">
<Document><name>569-master</name>
<Style id="fix"><IconStyle><Icon><href>https://maps.google.com/mapfiles/kml/paddle/red-blank.png</href></Icon><color>ff0000ff</color><hotSpot x="32" y="1" xunits="pixels" yunits="pixels"/></IconStyle></Style>
<Style id="exp"><IconStyle><Icon><href>https://maps.google.com/mapfiles/kml/paddle/blu-blank.png</href></Icon><color>ffff0000</color><hotSpot x="32" y="1" xunits="pixels" yunits="pixels"/></IconStyle></Style>
<Style id="ent"><IconStyle><Icon><href>https://maps.google.com/mapfiles/kml/paddle/grn-blank.png</href></Icon><color>ff00ff00</color><hotSpot x="32" y="1" xunits="pixels" yunits="pixels"/></IconStyle></Style>
<Style id="surf"><LineStyle><color>ff00ff00</color></LineStyle></Style>
<Style id="splay"><LineStyle><color>40ff00ff</color></LineStyle></Style>
<Placemark><MultiGeometry><LineString><altitudeMode>absolute</altitudeMode><coordinates>
13.04660166,47.51615830,2100.00
13.04656318,47.51614999,2097.78
13.04650355,47.51616418,2095.52
13.04646543,47.51617487,2092.91
13.04642687,47.51616864,2091.85
13.04642835,47.51613969,2089.86
13.04642328,47.51615463,2086.80
13.04638713,47.51615149,2080.42
13.04638315,47.51617284,2078.84
13.04634748,47.51616413,2075.41
13.04634161,47.51616106,2072.95
13.04632545,47.51618140,2068.80
13.04630618,47.51617108,2066.62
13.04626423,47.51619178,2060.02
13.04625556,47.51623572,2054.41
13.04622940,47.51622115,2052.90
13.04623325,47.51623912,2050.43
13.04619994,47.51624207,2050.59
13.04622113,47.51625439,2051.09
13.04629091,47.51627466,2051.01
13.04631319,47.51629691,2050.32
13.04636671,47.51631141,2050.51
13.04643548,47.51633021,2050.20
13.04645505,47.51633262,2050.07
13.04646780,47.51635767,2049.20
13.04651778,47.51637121,2049.68
13.04658597,47.51641260,2047.89
13.04658444,47.51642526,2047.83
13.04666617,47.51639543,2050.81
13.04669440,47.51638646,2051.13
13.04674102,47.51640435,2050.55
13.04681140,47.51642984,2052.58
13.04681373,47.51641729,2054.30
13.04678465,47.51639546,2054.80
13.04679885,47.51638878,2053.00
13.04681423,47.51639660,2052.39
13.04681193,47.51640484,2047.09
13.04679255,47.51641531,2044.96
</coordinates></LineString>
<LineString><altitudeMode>absolute</altitudeMode><coordinates>
13.04681373,47.51641729,2054.30
13.04681373,47.51641729,2054.30
13.04675147,47.51645555,2053.61
13.04676982,47.51649086,2053.73
13.04673650,47.51651549,2055.35
13.04671388,47.51657378,2052.38
</coordinates></LineString>
<LineString><altitudeMode>absolute</altitudeMode><coordinates>
13.04658444,47.51642526,2047.83
13.04658444,47.51642526,2047.83
13.04663494,47.51643170,2047.25
13.04664568,47.51643935,2046.13
13.04662893,47.51645040,2041.63
</coordinates></LineString></MultiGeometry></Placemark>
</Document></kml>
