<?xml version="1.0" encoding="UTF-8"?>
<gpx version="1.0" creator="survex 1.4.17 (aven) - https://survex.com/" xmlns:xsi="http://www.w3.org/2001/XMLSchema-instance" xmlns="http://www.topografix.com/GPX/1/0" xsi:schemaLocation="http://www.topografix.com/GPX/1/0 http://www.topografix.com/GPX/1/0/gpx.xsd">
<name>030-master</name>
<time>2025-06-23T19:15:23Z</time>
<trk><name>030-master</name><trkseg>
<trkpt lon="13.08096673" lat="47.49613337"><ele>1710.00</ele></trkpt>
<trkpt lon="13.08097162" lat="47.49627985"><ele>1706.83</ele></trkpt>
<trkpt lon="13.08104109" lat="47.49624268"><ele>1703.86</ele></trkpt>
<trkpt lon="13.08105006" lat="47.49625507"><ele>1701.40</ele></trkpt>
</trkseg><trkseg>
<trkpt lon="13.08104109" lat="47.49624268"><ele>1703.86</ele></trkpt>
<trkpt lon="13.08100510" lat="47.49623542"><ele>1700.37</ele></trkpt>
<trkpt lon="13.08103876" lat="47.49625182"><ele>1695.36</ele></trkpt>
<trkpt lon="13.08123533" lat="47.49637047"><ele>1691.51</ele></trkpt>
<trkpt lon="13.08132112" lat="47.49651210"><ele>1697.04</ele></trkpt>
<trkpt lon="13.08111253" lat="47.49645012"><ele>1695.84</ele></trkpt>
<trkpt lon="13.08102479" lat="47.49648213"><ele>1691.85</ele></trkpt>
<trkpt lon="13.08101116" lat="47.49656118"><ele>1676.52</ele></trkpt>
<trkpt lon="13.08095895" lat="47.49666009"><ele>1663.09</ele></trkpt>
<trkpt lon="13.08105025" lat="47.49680380"><ele>1653.84</ele></trkpt>
<trkpt lon="13.08115047" lat="47.49692470"><ele>1659.45</ele></trkpt>
<trkpt lon="13.08116074" lat="47.49709828"><ele>1664.62</ele></trkpt>
<trkpt lon="13.08108090" lat="47.49721590"><ele>1650.73</ele></trkpt>
<trkpt lon="13.08104014" lat="47.49731429"><ele>1643.07</ele></trkpt>
<trkpt lon="13.08107376" lat="47.49746998"><ele>1633.37</ele></trkpt>
<trkpt lon="13.08130680" lat="47.49754254"><ele>1627.83</ele></trkpt>
<trkpt lon="13.08153604" lat="47.49756636"><ele>1615.14</ele></trkpt>
<trkpt lon="13.08174840" lat="47.49749207"><ele>1604.32</ele></trkpt>
<trkpt lon="13.08181431" lat="47.49750541"><ele>1600.41</ele></trkpt>
<trkpt lon="13.08200156" lat="47.49745339"><ele>1587.16</ele></trkpt>
<trkpt lon="13.08219922" lat="47.49737814"><ele>1578.83</ele></trkpt>
<trkpt lon="13.08240106" lat="47.49731925"><ele>1579.99</ele></trkpt>
<trkpt lon="13.08257884" lat="47.49724303"><ele>1567.61</ele></trkpt>
<trkpt lon="13.08268884" lat="47.49719025"><ele>1568.50</ele></trkpt>
<trkpt lon="13.08293999" lat="47.49727958"><ele>1572.27</ele></trkpt>
<trkpt lon="13.08302395" lat="47.49734424"><ele>1568.20</ele></trkpt>
<trkpt lon="13.08306110" lat="47.49732291"><ele>1567.22</ele></trkpt>
<trkpt lon="13.08316410" lat="47.49736773"><ele>1560.52</ele></trkpt>
<trkpt lon="13.08323952" lat="47.49739680"><ele>1557.75</ele></trkpt>
<trkpt lon="13.08330227" lat="47.49746407"><ele>1554.87</ele></trkpt>
<trkpt lon="13.08331966" lat="47.49762103"><ele>1544.77</ele></trkpt>
<trkpt lon="13.08329387" lat="47.49770563"><ele>1542.02</ele></trkpt>
<trkpt lon="13.08330540" lat="47.49784116"><ele>1540.16</ele></trkpt>
<trkpt lon="13.08315093" lat="47.49796294"><ele>1538.92</ele></trkpt>
<trkpt lon="13.08299990" lat="47.49815784"><ele>1540.20</ele></trkpt>
<trkpt lon="13.08283040" lat="47.49823626"><ele>1539.12</ele></trkpt>
<trkpt lon="13.08269914" lat="47.49839882"><ele>1536.22</ele></trkpt>
<trkpt lon="13.08257736" lat="47.49855615"><ele>1537.60</ele></trkpt>
<trkpt lon="13.08239076" lat="47.49868845"><ele>1534.38</ele></trkpt>
<trkpt lon="13.08224490" lat="47.49878499"><ele>1535.45</ele></trkpt>
</trkseg><trkseg>
<trkpt lon="13.08239076" lat="47.49868845"><ele>1534.38</ele></trkpt>
<trkpt lon="13.08223119" lat="47.49875687"><ele>1538.46</ele></trkpt>
<trkpt lon="13.08231678" lat="47.49895528"><ele>1546.37</ele></trkpt>
<trkpt lon="13.08208729" lat="47.49912394"><ele>1549.50</ele></trkpt>
<trkpt lon="13.08208445" lat="47.49927857"><ele>1554.11</ele></trkpt>
<trkpt lon="13.08217193" lat="47.49938856"><ele>1551.16</ele></trkpt>
<trkpt lon="13.08221336" lat="47.49946871"><ele>1546.55</ele></trkpt>
<trkpt lon="13.08209152" lat="47.49955818"><ele>1541.63</ele></trkpt>
<trkpt lon="13.08208658" lat="47.49960993"><ele>1541.02</ele></trkpt>
<trkpt lon="13.08187116" lat="47.49970963"><ele>1537.91</ele></trkpt>
<trkpt lon="13.08195177" lat="47.49974202"><ele>1539.28</ele></trkpt>
<trkpt lon="13.08201106" lat="47.49992604"><ele>1534.83</ele></trkpt>
<trkpt lon="13.08200132" lat="47.50014985"><ele>1534.40</ele></trkpt>
<trkpt lon="13.08183407" lat="47.50018088"><ele>1540.22</ele></trkpt>
<trkpt lon="13.08177055" lat="47.50021491"><ele>1543.46</ele></trkpt>
<trkpt lon="13.08182421" lat="47.50041495"><ele>1543.46</ele></trkpt>
<trkpt lon="13.08201074" lat="47.50053991"><ele>1539.26</ele></trkpt>
<trkpt lon="13.08197069" lat="47.50069887"><ele>1529.32</ele></trkpt>
<trkpt lon="13.08185666" lat="47.50069795"><ele>1530.68</ele></trkpt>
<trkpt lon="13.08175325" lat="47.50072249"><ele>1524.68</ele></trkpt>
<trkpt lon="13.08174380" lat="47.50075977"><ele>1523.07</ele></trkpt>
<trkpt lon="13.08180705" lat="47.50086422"><ele>1524.17</ele></trkpt>
<trkpt lon="13.08196412" lat="47.50098113"><ele>1514.83</ele></trkpt>
<trkpt lon="13.08218727" lat="47.50113603"><ele>1519.94</ele></trkpt>
<trkpt lon="13.08240380" lat="47.50120660"><ele>1519.94</ele></trkpt>
<trkpt lon="13.08258428" lat="47.50134100"><ele>1519.94</ele></trkpt>
<trkpt lon="13.08264179" lat="47.50144625"><ele>1521.69</ele></trkpt>
<trkpt lon="13.08283269" lat="47.50154618"><ele>1529.79</ele></trkpt>
<trkpt lon="13.08293016" lat="47.50159721"><ele>1524.86</ele></trkpt>
<trkpt lon="13.08308123" lat="47.50160199"><ele>1524.46</ele></trkpt>
<trkpt lon="13.08309765" lat="47.50165805"><ele>1523.68</ele></trkpt>
<trkpt lon="13.08326018" lat="47.50166905"><ele>1527.21</ele></trkpt>
<trkpt lon="13.08336248" lat="47.50174787"><ele>1526.39</ele></trkpt>
<trkpt lon="13.08343840" lat="47.50189465"><ele>1520.10</ele></trkpt>
<trkpt lon="13.08351463" lat="47.50193453"><ele>1516.72</ele></trkpt>
<trkpt lon="13.08360116" lat="47.50180082"><ele>1518.14</ele></trkpt>
<trkpt lon="13.08371459" lat="47.50189135"><ele>1518.37</ele></trkpt>
<trkpt lon="13.08383954" lat="47.50186968"><ele>1520.26</ele></trkpt>
<trkpt lon="13.08392774" lat="47.50191264"><ele>1519.69</ele></trkpt>
<trkpt lon="13.08408153" lat="47.50205441"><ele>1515.53</ele></trkpt>
<trkpt lon="13.08427220" lat="47.50210583"><ele>1516.61</ele></trkpt>
<trkpt lon="13.08420972" lat="47.50222437"><ele>1523.74</ele></trkpt>
<trkpt lon="13.08438490" lat="47.50230046"><ele>1524.56</ele></trkpt>
<trkpt lon="13.08427095" lat="47.50245405"><ele>1531.14</ele></trkpt>
<trkpt lon="13.08410004" lat="47.50257105"><ele>1539.67</ele></trkpt>
<trkpt lon="13.08430847" lat="47.50262726"><ele>1540.26</ele></trkpt>
<trkpt lon="13.08450272" lat="47.50274452"><ele>1545.15</ele></trkpt>
<trkpt lon="13.08463554" lat="47.50280226"><ele>1545.56</ele></trkpt>
<trkpt lon="13.08473197" lat="47.50278317"><ele>1537.17</ele></trkpt>
<trkpt lon="13.08497794" lat="47.50276767"><ele>1532.87</ele></trkpt>
<trkpt lon="13.08510239" lat="47.50271225"><ele>1534.25</ele></trkpt>
<trkpt lon="13.08507976" lat="47.50260785"><ele>1535.48</ele></trkpt>
<trkpt lon="13.08518397" lat="47.50257593"><ele>1537.31</ele></trkpt>
<trkpt lon="13.08528992" lat="47.50256546"><ele>1534.05</ele></trkpt>
<trkpt lon="13.08528391" lat="47.50238747"><ele>1530.56</ele></trkpt>
<trkpt lon="13.08531019" lat="47.50229297"><ele>1524.88</ele></trkpt>
<trkpt lon="13.08540012" lat="47.50218613"><ele>1516.00</ele></trkpt>
<trkpt lon="13.08553822" lat="47.50210952"><ele>1505.12</ele></trkpt>
<trkpt lon="13.08571967" lat="47.50206405"><ele>1502.02</ele></trkpt>
<trkpt lon="13.08573037" lat="47.50224465"><ele>1502.02</ele></trkpt>
<trkpt lon="13.08572027" lat="47.50235057"><ele>1502.22</ele></trkpt>
<trkpt lon="13.08594263" lat="47.50245102"><ele>1503.98</ele></trkpt>
<trkpt lon="13.08600135" lat="47.50250140"><ele>1503.61</ele></trkpt>
<trkpt lon="13.08611004" lat="47.50270046"><ele>1503.20</ele></trkpt>
<trkpt lon="13.08623829" lat="47.50269387"><ele>1493.51</ele></trkpt>
<trkpt lon="13.08643062" lat="47.50263778"><ele>1482.05</ele></trkpt>
<trkpt lon="13.08640072" lat="47.50271512"><ele>1478.99</ele></trkpt>
<trkpt lon="13.08643617" lat="47.50282495"><ele>1478.99</ele></trkpt>
<trkpt lon="13.08646997" lat="47.50295086"><ele>1480.48</ele></trkpt>
<trkpt lon="13.08656434" lat="47.50312368"><ele>1479.77</ele></trkpt>
<trkpt lon="13.08677389" lat="47.50323336"><ele>1476.61</ele></trkpt>
<trkpt lon="13.08698303" lat="47.50334681"><ele>1475.55</ele></trkpt>
<trkpt lon="13.08710619" lat="47.50348402"><ele>1474.30</ele></trkpt>
<trkpt lon="13.08740950" lat="47.50339964"><ele>1481.39</ele></trkpt>
<trkpt lon="13.08758284" lat="47.50351177"><ele>1485.89</ele></trkpt>
<trkpt lon="13.08791308" lat="47.50362922"><ele>1485.40</ele></trkpt>
<trkpt lon="13.08808445" lat="47.50344833"><ele>1485.81</ele></trkpt>
<trkpt lon="13.08822454" lat="47.50352166"><ele>1487.92</ele></trkpt>
<trkpt lon="13.08807803" lat="47.50351526"><ele>1493.32</ele></trkpt>
<trkpt lon="13.08798561" lat="47.50358085"><ele>1493.84</ele></trkpt>
<trkpt lon="13.08796973" lat="47.50374750"><ele>1491.57</ele></trkpt>
<trkpt lon="13.08815024" lat="47.50388180"><ele>1491.21</ele></trkpt>
<trkpt lon="13.08836105" lat="47.50404441"><ele>1487.83</ele></trkpt>
<trkpt lon="13.08811852" lat="47.50411523"><ele>1484.32</ele></trkpt>
<trkpt lon="13.08786588" lat="47.50417193"><ele>1481.86</ele></trkpt>
<trkpt lon="13.08772415" lat="47.50419467"><ele>1481.09</ele></trkpt>
<trkpt lon="13.08764137" lat="47.50427275"><ele>1480.53</ele></trkpt>
<trkpt lon="13.08752183" lat="47.50428452"><ele>1479.58</ele></trkpt>
<trkpt lon="13.08759975" lat="47.50441324"><ele>1476.85</ele></trkpt>
<trkpt lon="13.08741718" lat="47.50450756"><ele>1477.15</ele></trkpt>
<trkpt lon="13.08735988" lat="47.50463717"><ele>1473.40</ele></trkpt>
<trkpt lon="13.08740394" lat="47.50464897"><ele>1472.45</ele></trkpt>
<trkpt lon="13.08746666" lat="47.50468070"><ele>1472.45</ele></trkpt>
<trkpt lon="13.08754436" lat="47.50474976"><ele>1475.58</ele></trkpt>
<trkpt lon="13.08775299" lat="47.50486293"><ele>1477.34</ele></trkpt>
<trkpt lon="13.08789758" lat="47.50500643"><ele>1482.52</ele></trkpt>
<trkpt lon="13.08808824" lat="47.50513892"><ele>1487.65</ele></trkpt>
<trkpt lon="13.08821006" lat="47.50504620"><ele>1493.79</ele></trkpt>
<trkpt lon="13.08830432" lat="47.50491909"><ele>1501.85</ele></trkpt>
<trkpt lon="13.08844685" lat="47.50489978"><ele>1505.20</ele></trkpt>
<trkpt lon="13.08854117" lat="47.50473066"><ele>1503.08</ele></trkpt>
<trkpt lon="13.08861557" lat="47.50457236"><ele>1504.05</ele></trkpt>
<trkpt lon="13.08892639" lat="47.50466914"><ele>1506.76</ele></trkpt>
<trkpt lon="13.08919138" lat="47.50469660"><ele>1507.11</ele></trkpt>
<trkpt lon="13.08936279" lat="47.50474507"><ele>1506.62</ele></trkpt>
<trkpt lon="13.08960303" lat="47.50473000"><ele>1499.28</ele></trkpt>
<trkpt lon="13.08970016" lat="47.50472496"><ele>1495.86</ele></trkpt>
<trkpt lon="13.08996198" lat="47.50475209"><ele>1492.70</ele></trkpt>
<trkpt lon="13.09020178" lat="47.50477111"><ele>1493.33</ele></trkpt>
<trkpt lon="13.09032690" lat="47.50476330"><ele>1494.16</ele></trkpt>
<trkpt lon="13.09046828" lat="47.50478653"><ele>1491.83</ele></trkpt>
<trkpt lon="13.09046762" lat="47.50470571"><ele>1494.41</ele></trkpt>
<trkpt lon="13.09057514" lat="47.50466305"><ele>1493.92</ele></trkpt>
<trkpt lon="13.09077086" lat="47.50475153"><ele>1486.03</ele></trkpt>
<trkpt lon="13.09079176" lat="47.50479408"><ele>1484.22</ele></trkpt>
<trkpt lon="13.09087403" lat="47.50490208"><ele>1469.20</ele></trkpt>
<trkpt lon="13.09089452" lat="47.50493751"><ele>1466.01</ele></trkpt>
<trkpt lon="13.09085955" lat="47.50509260"><ele>1461.99</ele></trkpt>
<trkpt lon="13.09101615" lat="47.50519051"><ele>1449.89</ele></trkpt>
<trkpt lon="13.09115293" lat="47.50524551"><ele>1447.34</ele></trkpt>
<trkpt lon="13.09136557" lat="47.50524473"><ele>1443.35</ele></trkpt>
<trkpt lon="13.09139188" lat="47.50534308"><ele>1439.09</ele></trkpt>
<trkpt lon="13.09159661" lat="47.50540677"><ele>1434.22</ele></trkpt>
<trkpt lon="13.09144690" lat="47.50549597"><ele>1429.63</ele></trkpt>
<trkpt lon="13.09127325" lat="47.50555670"><ele>1419.71</ele></trkpt>
<trkpt lon="13.09123335" lat="47.50573403"><ele>1410.41</ele></trkpt>
<trkpt lon="13.09131302" lat="47.50588814"><ele>1401.55</ele></trkpt>
<trkpt lon="13.09140775" lat="47.50603712"><ele>1397.39</ele></trkpt>
<trkpt lon="13.09164140" lat="47.50606125"><ele>1397.39</ele></trkpt>
<trkpt lon="13.09184712" lat="47.50595112"><ele>1399.82</ele></trkpt>
<trkpt lon="13.09191761" lat="47.50594068"><ele>1400.68</ele></trkpt>
<trkpt lon="13.09211989" lat="47.50591075"><ele>1400.68</ele></trkpt>
<trkpt lon="13.09218791" lat="47.50601267"><ele>1401.98</ele></trkpt>
<trkpt lon="13.09239757" lat="47.50607204"><ele>1396.42</ele></trkpt>
<trkpt lon="13.09260892" lat="47.50601904"><ele>1394.34</ele></trkpt>
<trkpt lon="13.09289644" lat="47.50607737"><ele>1396.32</ele></trkpt>
<trkpt lon="13.09307592" lat="47.50618195"><ele>1387.24</ele></trkpt>
<trkpt lon="13.09311630" lat="47.50622194"><ele>1376.18</ele></trkpt>
<trkpt lon="13.09325940" lat="47.50625294"><ele>1379.86</ele></trkpt>
<trkpt lon="13.09344169" lat="47.50614430"><ele>1367.99</ele></trkpt>
<trkpt lon="13.09353208" lat="47.50601703"><ele>1355.27</ele></trkpt>
<trkpt lon="13.09347800" lat="47.50597393"><ele>1351.19</ele></trkpt>
<trkpt lon="13.09361207" lat="47.50584739"><ele>1361.59</ele></trkpt>
<trkpt lon="13.09366218" lat="47.50579829"><ele>1362.53</ele></trkpt>
<trkpt lon="13.09385210" lat="47.50571371"><ele>1357.29</ele></trkpt>
<trkpt lon="13.09393169" lat="47.50566104"><ele>1353.02</ele></trkpt>
<trkpt lon="13.09417711" lat="47.50564263"><ele>1346.25</ele></trkpt>
<trkpt lon="13.09430710" lat="47.50548165"><ele>1346.25</ele></trkpt>
<trkpt lon="13.09438822" lat="47.50540516"><ele>1344.59</ele></trkpt>
<trkpt lon="13.09464775" lat="47.50544799"><ele>1346.35</ele></trkpt>
<trkpt lon="13.09475944" lat="47.50547360"><ele>1346.98</ele></trkpt>
<trkpt lon="13.09491803" lat="47.50550575"><ele>1349.85</ele></trkpt>
<trkpt lon="13.09497782" lat="47.50552699"><ele>1353.03</ele></trkpt>
<trkpt lon="13.09523344" lat="47.50557893"><ele>1358.42</ele></trkpt>
<trkpt lon="13.09544590" lat="47.50551686"><ele>1356.89</ele></trkpt>
<trkpt lon="13.09550847" lat="47.50536583"><ele>1353.82</ele></trkpt>
<trkpt lon="13.09553146" lat="47.50531042"><ele>1352.69</ele></trkpt>
<trkpt lon="13.09553552" lat="47.50521645"><ele>1345.64</ele></trkpt>
<trkpt lon="13.09561973" lat="47.50514254"><ele>1348.62</ele></trkpt>
<trkpt lon="13.09572128" lat="47.50520604"><ele>1345.04</ele></trkpt>
<trkpt lon="13.09573368" lat="47.50519005"><ele>1339.81</ele></trkpt>
<trkpt lon="13.09584768" lat="47.50526915"><ele>1321.57</ele></trkpt>
<trkpt lon="13.09597310" lat="47.50540351"><ele>1311.78</ele></trkpt>
<trkpt lon="13.09600020" lat="47.50526745"><ele>1314.47</ele></trkpt>
<trkpt lon="13.09617545" lat="47.50530528"><ele>1309.70</ele></trkpt>
<trkpt lon="13.09639117" lat="47.50541018"><ele>1306.89</ele></trkpt>
<trkpt lon="13.09650958" lat="47.50554740"><ele>1304.72</ele></trkpt>
<trkpt lon="13.09656174" lat="47.50557013"><ele>1302.44</ele></trkpt>
<trkpt lon="13.09670390" lat="47.50558311"><ele>1306.38</ele></trkpt>
<trkpt lon="13.09666212" lat="47.50564774"><ele>1306.10</ele></trkpt>
<trkpt lon="13.09674584" lat="47.50571959"><ele>1309.41</ele></trkpt>
<trkpt lon="13.09684738" lat="47.50587911"><ele>1315.31</ele></trkpt>
<trkpt lon="13.09692992" lat="47.50589910"><ele>1322.15</ele></trkpt>
<trkpt lon="13.09712213" lat="47.50593811"><ele>1325.09</ele></trkpt>
<trkpt lon="13.09728430" lat="47.50587133"><ele>1324.59</ele></trkpt>
<trkpt lon="13.09745145" lat="47.50585071"><ele>1326.16</ele></trkpt>
<trkpt lon="13.09758096" lat="47.50570268"><ele>1320.31</ele></trkpt>
<trkpt lon="13.09778774" lat="47.50560704"><ele>1313.07</ele></trkpt>
<trkpt lon="13.09803950" lat="47.50556352"><ele>1308.91</ele></trkpt>
<trkpt lon="13.09819161" lat="47.50570903"><ele>1312.77</ele></trkpt>
<trkpt lon="13.09831212" lat="47.50582864"><ele>1313.33</ele></trkpt>
<trkpt lon="13.09853354" lat="47.50575762"><ele>1321.55</ele></trkpt>
<trkpt lon="13.09856061" lat="47.50571767"><ele>1321.97</ele></trkpt>
<trkpt lon="13.09868086" lat="47.50565335"><ele>1308.69</ele></trkpt>
<trkpt lon="13.09870586" lat="47.50571504"><ele>1307.94</ele></trkpt>
<trkpt lon="13.09877475" lat="47.50569387"><ele>1305.04</ele></trkpt>
<trkpt lon="13.09887320" lat="47.50561901"><ele>1310.24</ele></trkpt>
<trkpt lon="13.09894524" lat="47.50558043"><ele>1311.33</ele></trkpt>
<trkpt lon="13.09916660" lat="47.50549268"><ele>1317.24</ele></trkpt>
<trkpt lon="13.09921450" lat="47.50533555"><ele>1326.72</ele></trkpt>
<trkpt lon="13.09942853" lat="47.50526694"><ele>1336.20</ele></trkpt>
<trkpt lon="13.09957152" lat="47.50527147"><ele>1341.70</ele></trkpt>
<trkpt lon="13.09976540" lat="47.50520926"><ele>1350.29</ele></trkpt>
<trkpt lon="13.09997315" lat="47.50529963"><ele>1358.18</ele></trkpt>
<trkpt lon="13.10010899" lat="47.50545080"><ele>1362.72</ele></trkpt>
<trkpt lon="13.10025109" lat="47.50554269"><ele>1363.24</ele></trkpt>
<trkpt lon="13.10049220" lat="47.50562129"><ele>1361.83</ele></trkpt>
<trkpt lon="13.10070688" lat="47.50572967"><ele>1360.78</ele></trkpt>
<trkpt lon="13.10095885" lat="47.50579072"><ele>1359.37</ele></trkpt>
<trkpt lon="13.10103659" lat="47.50587389"><ele>1357.24</ele></trkpt>
<trkpt lon="13.10104676" lat="47.50599329"><ele>1357.70</ele></trkpt>
<trkpt lon="13.10106748" lat="47.50606319"><ele>1363.46</ele></trkpt>
<trkpt lon="13.10113473" lat="47.50607267"><ele>1363.92</ele></trkpt>
<trkpt lon="13.10118333" lat="47.50606547"><ele>1368.08</ele></trkpt>
<trkpt lon="13.10136820" lat="47.50597675"><ele>1374.97</ele></trkpt>
<trkpt lon="13.10147732" lat="47.50608113"><ele>1371.69</ele></trkpt>
<trkpt lon="13.10138214" lat="47.50616477"><ele>1365.44</ele></trkpt>
<trkpt lon="13.10140482" lat="47.50623534"><ele>1361.17</ele></trkpt>
<trkpt lon="13.10151465" lat="47.50630896"><ele>1362.39</ele></trkpt>
<trkpt lon="13.10155418" lat="47.50631745"><ele>1364.19</ele></trkpt>
<trkpt lon="13.10163257" lat="47.50627978"><ele>1368.04</ele></trkpt>
<trkpt lon="13.10175845" lat="47.50630211"><ele>1369.42</ele></trkpt>
<trkpt lon="13.10190512" lat="47.50627494"><ele>1357.97</ele></trkpt>
<trkpt lon="13.10214902" lat="47.50621374"><ele>1357.28</ele></trkpt>
<trkpt lon="13.10223595" lat="47.50624460"><ele>1363.71</ele></trkpt>
<trkpt lon="13.10233807" lat="47.50621902"><ele>1363.71</ele></trkpt>
<trkpt lon="13.10241068" lat="47.50618666"><ele>1368.65</ele></trkpt>
<trkpt lon="13.10251310" lat="47.50624838"><ele>1374.14</ele></trkpt>
<trkpt lon="13.10250596" lat="47.50628452"><ele>1379.72</ele></trkpt>
<trkpt lon="13.10252415" lat="47.50631776"><ele>1383.27</ele></trkpt>
<trkpt lon="13.10262115" lat="47.50644498"><ele>1395.70</ele></trkpt>
<trkpt lon="13.10271022" lat="47.50644259"><ele>1398.56</ele></trkpt>
<trkpt lon="13.10292667" lat="47.50640235"><ele>1406.08</ele></trkpt>
<trkpt lon="13.10311925" lat="47.50633202"><ele>1408.10</ele></trkpt>
<trkpt lon="13.10320294" lat="47.50624999"><ele>1420.86</ele></trkpt>
<trkpt lon="13.10327565" lat="47.50624453"><ele>1427.66</ele></trkpt>
<trkpt lon="13.10339659" lat="47.50639671"><ele>1433.90</ele></trkpt>
<trkpt lon="13.10346701" lat="47.50645484"><ele>1429.82</ele></trkpt>
<trkpt lon="13.10354319" lat="47.50655931"><ele>1426.83</ele></trkpt>
<trkpt lon="13.10344118" lat="47.50665930"><ele>1415.09</ele></trkpt>
<trkpt lon="13.10343882" lat="47.50671371"><ele>1413.00</ele></trkpt>
<trkpt lon="13.10358982" lat="47.50678720"><ele>1418.38</ele></trkpt>
<trkpt lon="13.10369548" lat="47.50689189"><ele>1419.61</ele></trkpt>
<trkpt lon="13.10371399" lat="47.50691262"><ele>1424.29</ele></trkpt>
<trkpt lon="13.10388091" lat="47.50704577"><ele>1429.86</ele></trkpt>
<trkpt lon="13.10389753" lat="47.50708195"><ele>1430.75</ele></trkpt>
<trkpt lon="13.10406064" lat="47.50719911"><ele>1439.88</ele></trkpt>
<trkpt lon="13.10409075" lat="47.50723695"><ele>1443.34</ele></trkpt>
<trkpt lon="13.10418024" lat="47.50732247"><ele>1455.85</ele></trkpt>
<trkpt lon="13.10420631" lat="47.50736547"><ele>1462.22</ele></trkpt>
<trkpt lon="13.10427488" lat="47.50747863"><ele>1466.64</ele></trkpt>
</trkseg></trk>
</gpx>
