<?xml version="1.0" encoding="UTF-8"?>
<kml xmlns="http://www.opengis.net/kml/2.2">
<Document><name>030-master</name>
<Style id="fix"><IconStyle><Icon><href>https://maps.google.com/mapfiles/kml/paddle/red-blank.png</href></Icon><color>ff0000ff</color><hotSpot x="32" y="1" xunits="pixels" yunits="pixels"/></IconStyle></Style>
<Style id="exp"><IconStyle><Icon><href>https://maps.google.com/mapfiles/kml/paddle/blu-blank.png</href></Icon><color>ffff0000</color><hotSpot x="32" y="1" xunits="pixels" yunits="pixels"/></IconStyle></Style>
<Style id="ent"><IconStyle><Icon><href>https://maps.google.com/mapfiles/kml/paddle/grn-blank.png</href></Icon><color>ff00ff00</color><hotSpot x="32" y="1" xunits="pixels" yunits="pixels"/></IconStyle></Style>
<Style id="surf"><LineStyle><color>ff00ff00</color></LineStyle></Style>
<Style id="splay"><LineStyle><color>40ff00ff</color></LineStyle></Style>
<Placemark><MultiGeometry><LineString><altitudeMode>absolute</altitudeMode><coordinates>
13.08096673,47.49613337,1710.00
13.08097162,47.49627985,1706.83
13.08104109,47.49624268,1703.86
13.08105006,47.49625507,1701.40
</coordinates></LineString>
<LineString><altitudeMode>absolute</altitudeMode><coordinates>
13.08104109,47.49624268,1703.86
13.08100510,47.49623542,1700.37
13.08103876,47.49625182,1695.36
13.08123533,47.49637047,1691.51
13.08132112,47.49651210,1697.04
13.08111253,47.49645012,1695.84
13.08102479,47.49648213,1691.85
13.08101116,47.49656118,1676.52
13.08095895,47.49666009,1663.09
13.08105025,47.49680380,1653.84
13.08115047,47.49692470,1659.45
13.08116074,47.49709828,1664.62
13.08108090,47.49721590,1650.73
13.08104014,47.49731429,1643.07
13.08107376,47.49746998,1633.37
13.08130680,47.49754254,1627.83
13.08153604,47.49756636,1615.14
13.08174840,47.49749207,1604.32
13.08181431,47.49750541,1600.41
13.08200156,47.49745339,1587.16
13.08219922,47.49737814,1578.83
13.08240106,47.49731925,1579.99
13.08257884,47.49724303,1567.61
13.08268884,47.49719025,1568.50
13.08293999,47.49727958,1572.27
13.08302395,47.49734424,1568.20
13.08306110,47.49732291,1567.22
13.08316410,47.49736773,1560.52
13.08323952,47.49739680,1557.75
13.08330227,47.49746407,1554.87
13.08331966,47.49762103,1544.77
13.08329387,47.49770563,1542.02
13.08330540,47.49784116,1540.16
13.08315093,47.49796294,1538.92
13.08299990,47.49815784,1540.20
13.08283040,47.49823626,1539.12
13.08269914,47.49839882,1536.22
13.08257736,47.49855615,1537.60
13.08239076,47.49868845,1534.38
13.08224490,47.49878499,1535.45
</coordinates></LineString>
<LineString><altitudeMode>absolute</altitudeMode><coordinates>
13.08239076,47.49868845,1534.38
13.08223119,47.49875687,1538.46
13.08231678,47.49895528,1546.37
13.08208729,47.49912394,1549.50
13.08208445,47.49927857,1554.11
13.08217193,47.49938856,1551.16
13.08221336,47.49946871,1546.55
13.08209152,47.49955818,1541.63
13.08208658,47.49960993,1541.02
13.08187116,47.49970963,1537.91
13.08195177,47.49974202,1539.28
13.08201106,47.49992604,1534.83
13.08200132,47.50014985,1534.40
13.08183407,47.50018088,1540.22
13.08177055,47.50021491,1543.46
13.08182421,47.50041495,1543.46
13.08201074,47.50053991,1539.26
13.08197069,47.50069887,1529.32
13.08185666,47.50069795,1530.68
13.08175325,47.50072249,1524.68
13.08174380,47.50075977,1523.07
13.08180705,47.50086422,1524.17
13.08196412,47.50098113,1514.83
13.08218727,47.50113603,1519.94
13.08240380,47.50120660,1519.94
13.08258428,47.50134100,1519.94
13.08264179,47.50144625,1521.69
13.08283269,47.50154618,1529.79
13.08293016,47.50159721,1524.86
13.08308123,47.50160199,1524.46
13.08309765,47.50165805,1523.68
13.08326018,47.50166905,1527.21
13.08336248,47.50174787,1526.39
13.08343840,47.50189465,1520.10
13.08351463,47.50193453,1516.72
13.08360116,47.50180082,1518.14
13.08371459,47.50189135,1518.37
13.08383954,47.50186968,1520.26
13.08392774,47.50191264,1519.69
13.08408153,47.50205441,1515.53
13.08427220,47.50210583,1516.61
13.08420972,47.50222437,1523.74
13.08438490,47.50230046,1524.56
13.08427095,47.50245405,1531.14
13.08410004,47.50257105,1539.67
13.08430847,47.50262726,1540.26
13.08450272,47.50274452,1545.15
13.08463554,47.50280226,1545.56
13.08473197,47.50278317,1537.17
13.08497794,47.50276767,1532.87
13.08510239,47.50271225,1534.25
13.08507976,47.50260785,1535.48
13.08518397,47.50257593,1537.31
13.08528992,47.50256546,1534.05
13.08528391,47.50238747,1530.56
13.08531019,47.50229297,1524.88
13.08540012,47.50218613,1516.00
13.08553822,47.50210952,1505.12
13.08571967,47.50206405,1502.02
13.08573037,47.50224465,1502.02
13.08572027,47.50235057,1502.22
13.08594263,47.50245102,1503.98
13.08600135,47.50250140,1503.61
13.08611004,47.50270046,1503.20
13.08623829,47.50269387,1493.51
13.08643062,47.50263778,1482.05
13.08640072,47.50271512,1478.99
13.08643617,47.50282495,1478.99
13.08646997,47.50295086,1480.48
13.08656434,47.50312368,1479.77
13.08677389,47.50323336,1476.61
13.08698303,47.50334681,1475.55
13.08710619,47.50348402,1474.30
13.08740950,47.50339964,1481.39
13.08758284,47.50351177,1485.89
13.08791308,47.50362922,1485.40
13.08808445,47.50344833,1485.81
13.08822454,47.50352166,1487.92
13.08807803,47.50351526,1493.32
13.08798561,47.50358085,1493.84
13.08796973,47.50374750,1491.57
13.08815024,47.50388180,1491.21
13.08836105,47.50404441,1487.83
13.08811852,47.50411523,1484.32
13.08786588,47.50417193,1481.86
13.08772415,47.50419467,1481.09
13.08764137,47.50427275,1480.53
13.08752183,47.50428452,1479.58
13.08759975,47.50441324,1476.85
13.08741718,47.50450756,1477.15
13.08735988,47.50463717,1473.40
13.08740394,47.50464897,1472.45
13.08746666,47.50468070,1472.45
13.08754436,47.50474976,1475.58
13.08775299,47.50486293,1477.34
13.08789758,47.50500643,1482.52
13.08808824,47.50513892,1487.65
13.08821006,47.50504620,1493.79
13.08830432,47.50491909,1501.85
13.08844685,47.50489978,1505.20
13.08854117,47.50473066,1503.08
13.08861557,47.50457236,1504.05
13.08892639,47.50466914,1506.76
13.08919138,47.50469660,1507.11
13.08936279,47.50474507,1506.62
13.08960303,47.50473000,1499.28
13.08970016,47.50472496,1495.86
13.08996198,47.50475209,1492.70
13.09020178,47.50477111,1493.33
13.09032690,47.50476330,1494.16
13.09046828,47.50478653,1491.83
13.09046762,47.50470571,1494.41
13.09057514,47.50466305,1493.92
13.09077086,47.50475153,1486.03
13.09079176,47.50479408,1484.22
13.09087403,47.50490208,1469.20
13.09089452,47.50493751,1466.01
13.09085955,47.50509260,1461.99
13.09101615,47.50519051,1449.89
13.09115293,47.50524551,1447.34
13.09136557,47.50524473,1443.35
13.09139188,47.50534308,1439.09
13.09159661,47.50540677,1434.22
13.09144690,47.50549597,1429.63
13.09127325,47.50555670,1419.71
13.09123335,47.50573403,1410.41
13.09131302,47.50588814,1401.55
13.09140775,47.50603712,1397.39
13.09164140,47.50606125,1397.39
13.09184712,47.50595112,1399.82
13.09191761,47.50594068,1400.68
13.09211989,47.50591075,1400.68
13.09218791,47.50601267,1401.98
13.09239757,47.50607204,1396.42
13.09260892,47.50601904,1394.34
13.09289644,47.50607737,1396.32
13.09307592,47.50618195,1387.24
13.09311630,47.50622194,1376.18
13.09325940,47.50625294,1379.86
13.09344169,47.50614430,1367.99
13.09353208,47.50601703,1355.27
13.09347800,47.50597393,1351.19
13.09361207,47.50584739,1361.59
13.09366218,47.50579829,1362.53
13.09385210,47.50571371,1357.29
13.09393169,47.50566104,1353.02
13.09417711,47.50564263,1346.25
13.09430710,47.50548165,1346.25
13.09438822,47.50540516,1344.59
13.09464775,47.50544799,1346.35
13.09475944,47.50547360,1346.98
13.09491803,47.50550575,1349.85
13.09497782,47.50552699,1353.03
13.09523344,47.50557893,1358.42
13.09544590,47.50551686,1356.89
13.09550847,47.50536583,1353.82
13.09553146,47.50531042,1352.69
13.09553552,47.50521645,1345.64
13.09561973,47.50514254,1348.62
13.09572128,47.50520604,1345.04
13.09573368,47.50519005,1339.81
13.09584768,47.50526915,1321.57
13.09597310,47.50540351,1311.78
13.09600020,47.50526745,1314.47
13.09617545,47.50530528,1309.70
13.09639117,47.50541018,1306.89
13.09650958,47.50554740,1304.72
13.09656174,47.50557013,1302.44
13.09670390,47.50558311,1306.38
13.09666212,47.50564774,1306.10
13.09674584,47.50571959,1309.41
13.09684738,47.50587911,1315.31
13.09692992,47.50589910,1322.15
13.09712213,47.50593811,1325.09
13.09728430,47.50587133,1324.59
13.09745145,47.50585071,1326.16
13.09758096,47.50570268,1320.31
13.09778774,47.50560704,1313.07
13.09803950,47.50556352,1308.91
13.09819161,47.50570903,1312.77
13.09831212,47.50582864,1313.33
13.09853354,47.50575762,1321.55
13.09856061,47.50571767,1321.97
13.09868086,47.50565335,1308.69
13.09870586,47.50571504,1307.94
13.09877475,47.50569387,1305.04
13.09887320,47.50561901,1310.24
13.09894524,47.50558043,1311.33
13.09916660,47.50549268,1317.24
13.09921450,47.50533555,1326.72
13.09942853,47.50526694,1336.20
13.09957152,47.50527147,1341.70
13.09976540,47.50520926,1350.29
13.09997315,47.50529963,1358.18
13.10010899,47.50545080,1362.72
13.10025109,47.50554269,1363.24
13.10049220,47.50562129,1361.83
13.10070688,47.50572967,1360.78
13.10095885,47.50579072,1359.37
13.10103659,47.50587389,1357.24
13.10104676,47.50599329,1357.70
13.10106748,47.50606319,1363.46
13.10113473,47.50607267,1363.92
13.10118333,47.50606547,1368.08
13.10136820,47.50597675,1374.97
13.10147732,47.50608113,1371.69
13.10138214,47.50616477,1365.44
13.10140482,47.50623534,1361.17
13.10151465,47.50630896,1362.39
13.10155418,47.50631745,1364.19
13.10163257,47.50627978,1368.04
13.10175845,47.50630211,1369.42
13.10190512,47.50627494,1357.97
13.10214902,47.50621374,1357.28
13.10223595,47.50624460,1363.71
13.10233807,47.50621902,1363.71
13.10241068,47.50618666,1368.65
13.10251310,47.50624838,1374.14
13.10250596,47.50628452,1379.72
13.10252415,47.50631776,1383.27
13.10262115,47.50644498,1395.70
13.10271022,47.50644259,1398.56
13.10292667,47.50640235,1406.08
13.10311925,47.50633202,1408.10
13.10320294,47.50624999,1420.86
13.10327565,47.50624453,1427.66
13.10339659,47.50639671,1433.90
13.10346701,47.50645484,1429.82
13.10354319,47.50655931,1426.83
13.10344118,47.50665930,1415.09
13.10343882,47.50671371,1413.00
13.10358982,47.50678720,1418.38
13.10369548,47.50689189,1419.61
13.10371399,47.50691262,1424.29
13.10388091,47.50704577,1429.86
13.10389753,47.50708195,1430.75
13.10406064,47.50719911,1439.88
13.10409075,47.50723695,1443.34
13.10418024,47.50732247,1455.85
13.10420631,47.50736547,1462.22
13.10427488,47.50747863,1466.64
</coordinates></LineString></MultiGeometry></Placemark>
</Document></kml>
