<?xml version="1.0" encoding="UTF-8"?>
<kml xmlns="http://www.opengis.net/kml/2.2">
<Document><name>570-master</name>
<Style id="fix"><IconStyle><Icon><href>https://maps.google.com/mapfiles/kml/paddle/red-blank.png</href></Icon><color>ff0000ff</color><hotSpot x="32" y="1" xunits="pixels" yunits="pixels"/></IconStyle></Style>
<Style id="exp"><IconStyle><Icon><href>https://maps.google.com/mapfiles/kml/paddle/blu-blank.png</href></Icon><color>ffff0000</color><hotSpot x="32" y="1" xunits="pixels" yunits="pixels"/></IconStyle></Style>
<Style id="ent"><IconStyle><Icon><href>https://maps.google.com/mapfiles/kml/paddle/grn-blank.png</href></Icon><color>ff00ff00</color><hotSpot x="32" y="1" xunits="pixels" yunits="pixels"/></IconStyle></Style>
<Style id="surf"><LineStyle><color>ff00ff00</color></LineStyle></Style>
<Style id="splay"><LineStyle><color>40ff00ff</color></LineStyle></Style>
<Placemark><MultiGeometry><LineString><altitudeMode>absolute</altitudeMode><coordinates>
13.04837331,47.51802334,2119.00
13.04838083,47.51801744,2110.45
</coordinates></LineString>
<LineString><altitudeMode>absolute</altitudeMode><coordinates>
13.04838083,47.51801744,2110.45
13.04840594,47.51800311,2105.62
</coordinates></LineString>
<LineString><altitudeMode>absolute</altitudeMode><coordinates>
13.04840594,47.51800311,2105.62
13.04838318,47.51802215,2104.23
</coordinates></LineString>
<LineString><altitudeMode>absolute</altitudeMode><coordinates>
13.04838318,47.51802215,2104.23
13.04839065,47.51803200,2099.16
</coordinates></LineString>
<LineString><altitudeMode>absolute</altitudeMode><coordinates>
13.04839065,47.51803200,2099.16
13.04833575,47.51803664,2094.71
</coordinates></LineString>
<LineString><altitudeMode>absolute</altitudeMode><coordinates>
13.04833575,47.51803664,2094.71
13.04834013,47.51800100,2093.56
</coordinates></LineString></MultiGeometry></Placemark>
</Document></kml>
