<?xml version="1.0" encoding="UTF-8"?>
<gpx version="1.0" creator="survex 1.4.17 (aven) - https://survex.com/" xmlns:xsi="http://www.w3.org/2001/XMLSchema-instance" xmlns="http://www.topografix.com/GPX/1/0" xsi:schemaLocation="http://www.topografix.com/GPX/1/0 http://www.topografix.com/GPX/1/0/gpx.xsd">
<name>570-master</name>
<time>2025-05-26T21:39:30Z</time>
<trk><name>570-master</name><trkseg>
<trkpt lon="13.04837331" lat="47.51802334"><ele>2119.00</ele></trkpt>
<trkpt lon="13.04838083" lat="47.51801744"><ele>2110.45</ele></trkpt>
</trkseg><trkseg>
<trkpt lon="13.04838083" lat="47.51801744"><ele>2110.45</ele></trkpt>
<trkpt lon="13.04840594" lat="47.51800311"><ele>2105.62</ele></trkpt>
</trkseg><trkseg>
<trkpt lon="13.04840594" lat="47.51800311"><ele>2105.62</ele></trkpt>
<trkpt lon="13.04838318" lat="47.51802215"><ele>2104.23</ele></trkpt>
</trkseg><trkseg>
<trkpt lon="13.04838318" lat="47.51802215"><ele>2104.23</ele></trkpt>
<trkpt lon="13.04839065" lat="47.51803200"><ele>2099.16</ele></trkpt>
</trkseg><trkseg>
<trkpt lon="13.04839065" lat="47.51803200"><ele>2099.16</ele></trkpt>
<trkpt lon="13.04833575" lat="47.51803664"><ele>2094.71</ele></trkpt>
</trkseg><trkseg>
<trkpt lon="13.04833575" lat="47.51803664"><ele>2094.71</ele></trkpt>
<trkpt lon="13.04834013" lat="47.51800100"><ele>2093.56</ele></trkpt>
</trkseg></trk>
</gpx>
