<?xml version="1.0" encoding="UTF-8"?>
<gpx version="1.0" creator="survex 1.4.17 (aven) - https://survex.com/" xmlns:xsi="http://www.w3.org/2001/XMLSchema-instance" xmlns="http://www.topografix.com/GPX/1/0" xsi:schemaLocation="http://www.topografix.com/GPX/1/0 http://www.topografix.com/GPX/1/0/gpx.xsd">
<name>577-master</name>
<time>2025-05-30T23:10:27Z</time>
<trk><name>577-master</name><trkseg>
<trkpt lon="13.04207723" lat="47.53802998"><ele>1978.10</ele></trkpt>
<trkpt lon="13.04208445" lat="47.53804307"><ele>1975.40</ele></trkpt>
</trkseg><trkseg>
<trkpt lon="13.04208445" lat="47.53804307"><ele>1975.40</ele></trkpt>
<trkpt lon="13.04210122" lat="47.53802095"><ele>1973.06</ele></trkpt>
</trkseg><trkseg>
<trkpt lon="13.04210122" lat="47.53802095"><ele>1973.06</ele></trkpt>
<trkpt lon="13.04212587" lat="47.53801894"><ele>1971.27</ele></trkpt>
</trkseg><trkseg>
<trkpt lon="13.04212587" lat="47.53801894"><ele>1971.27</ele></trkpt>
<trkpt lon="13.04211683" lat="47.53800502"><ele>1968.56</ele></trkpt>
</trkseg><trkseg>
<trkpt lon="13.04211683" lat="47.53800502"><ele>1968.56</ele></trkpt>
<trkpt lon="13.04213649" lat="47.53798376"><ele>1957.78</ele></trkpt>
</trkseg><trkseg>
<trkpt lon="13.04213649" lat="47.53798376"><ele>1957.78</ele></trkpt>
<trkpt lon="13.04210509" lat="47.53796702"><ele>1956.84</ele></trkpt>
</trkseg><trkseg>
<trkpt lon="13.04210509" lat="47.53796702"><ele>1956.84</ele></trkpt>
<trkpt lon="13.04208715" lat="47.53795268"><ele>1954.99</ele></trkpt>
</trkseg><trkseg>
<trkpt lon="13.04208715" lat="47.53795268"><ele>1954.99</ele></trkpt>
<trkpt lon="13.04201199" lat="47.53791927"><ele>1954.59</ele></trkpt>
</trkseg><trkseg>
<trkpt lon="13.04201199" lat="47.53791927"><ele>1954.59</ele></trkpt>
<trkpt lon="13.04198311" lat="47.53788125"><ele>1953.09</ele></trkpt>
</trkseg><trkseg>
<trkpt lon="13.04198311" lat="47.53788125"><ele>1953.09</ele></trkpt>
<trkpt lon="13.04196124" lat="47.53782977"><ele>1950.77</ele></trkpt>
</trkseg><trkseg>
<trkpt lon="13.04196124" lat="47.53782977"><ele>1950.77</ele></trkpt>
<trkpt lon="13.04192402" lat="47.53778729"><ele>1948.55</ele></trkpt>
</trkseg></trk>
</gpx>
