<?xml version="1.0" encoding="UTF-8"?>
<gpx version="1.0" creator="survex 1.4.17 (aven) - https://survex.com/" xmlns:xsi="http://www.w3.org/2001/XMLSchema-instance" xmlns="http://www.topografix.com/GPX/1/0" xsi:schemaLocation="http://www.topografix.com/GPX/1/0 http://www.topografix.com/GPX/1/0/gpx.xsd">
<name>483-master</name>
<time>2025-06-23T19:15:29Z</time>
<trk><name>483-master</name><trkseg>
<trkpt lon="13.04286169" lat="47.53156005"><ele>2044.00</ele></trkpt>
<trkpt lon="13.04290526" lat="47.53158167"><ele>2039.32</ele></trkpt>
<trkpt lon="13.04293250" lat="47.53154254"><ele>2037.48</ele></trkpt>
<trkpt lon="13.04301528" lat="47.53152452"><ele>2033.38</ele></trkpt>
<trkpt lon="13.04304521" lat="47.53144485"><ele>2026.74</ele></trkpt>
<trkpt lon="13.04311228" lat="47.53145634"><ele>2024.53</ele></trkpt>
<trkpt lon="13.04325722" lat="47.53146026"><ele>2030.10</ele></trkpt>
</trkseg><trkseg>
<trkpt lon="13.04293250" lat="47.53154254"><ele>2037.48</ele></trkpt>
<trkpt lon="13.04300363" lat="47.53159459"><ele>2033.63</ele></trkpt>
<trkpt lon="13.04305819" lat="47.53162819"><ele>2029.88</ele></trkpt>
<trkpt lon="13.04305819" lat="47.53162819"><ele>2028.98</ele></trkpt>
<trkpt lon="13.04321403" lat="47.53161762"><ele>2027.74</ele></trkpt>
</trkseg><trkseg>
<trkpt lon="13.04300363" lat="47.53159459"><ele>2033.63</ele></trkpt>
<trkpt lon="13.04296405" lat="47.53159779"><ele>2044.83</ele></trkpt>
</trkseg></trk>
</gpx>
