<?xml version="1.0" encoding="UTF-8"?>
<kml xmlns="http://www.opengis.net/kml/2.2">
<Document><name>483-master</name>
<Style id="fix"><IconStyle><Icon><href>https://maps.google.com/mapfiles/kml/paddle/red-blank.png</href></Icon><color>ff0000ff</color><hotSpot x="32" y="1" xunits="pixels" yunits="pixels"/></IconStyle></Style>
<Style id="exp"><IconStyle><Icon><href>https://maps.google.com/mapfiles/kml/paddle/blu-blank.png</href></Icon><color>ffff0000</color><hotSpot x="32" y="1" xunits="pixels" yunits="pixels"/></IconStyle></Style>
<Style id="ent"><IconStyle><Icon><href>https://maps.google.com/mapfiles/kml/paddle/grn-blank.png</href></Icon><color>ff00ff00</color><hotSpot x="32" y="1" xunits="pixels" yunits="pixels"/></IconStyle></Style>
<Style id="surf"><LineStyle><color>ff00ff00</color></LineStyle></Style>
<Style id="splay"><LineStyle><color>40ff00ff</color></LineStyle></Style>
<Placemark><MultiGeometry><LineString><altitudeMode>absolute</altitudeMode><coordinates>
13.04286169,47.53156005,2044.00
13.04290526,47.53158167,2039.32
13.04293250,47.53154254,2037.48
13.04301528,47.53152452,2033.38
13.04304521,47.53144485,2026.74
13.04311228,47.53145634,2024.53
13.04325722,47.53146026,2030.10
</coordinates></LineString>
<LineString><altitudeMode>absolute</altitudeMode><coordinates>
13.04293250,47.53154254,2037.48
13.04300363,47.53159459,2033.63
13.04305819,47.53162819,2029.88
13.04305819,47.53162819,2028.98
13.04321403,47.53161762,2027.74
</coordinates></LineString>
<LineString><altitudeMode>absolute</altitudeMode><coordinates>
13.04300363,47.53159459,2033.63
13.04296405,47.53159779,2044.83
</coordinates></LineString></MultiGeometry></Placemark>
</Document></kml>
