<?xml version="1.0" encoding="UTF-8"?>
<gpx version="1.0" creator="survex 1.4.17 (aven) - https://survex.com/" xmlns:xsi="http://www.w3.org/2001/XMLSchema-instance" xmlns="http://www.topografix.com/GPX/1/0" xsi:schemaLocation="http://www.topografix.com/GPX/1/0 http://www.topografix.com/GPX/1/0/gpx.xsd">
<name>575-master</name>
<time>2025-06-23T19:15:43Z</time>
<trk><name>575-master</name><trkseg>
<trkpt lon="13.04204060" lat="47.52840172"><ele>2057.35</ele></trkpt>
<trkpt lon="13.04203438" lat="47.52832243"><ele>2063.64</ele></trkpt>
<trkpt lon="13.04203431" lat="47.52828167"><ele>2065.15</ele></trkpt>
<trkpt lon="13.04218517" lat="47.52832977"><ele>2061.83</ele></trkpt>
<trkpt lon="13.04223315" lat="47.52836479"><ele>2060.31</ele></trkpt>
<trkpt lon="13.04220061" lat="47.52835388"><ele>2060.79</ele></trkpt>
<trkpt lon="13.04219912" lat="47.52836529"><ele>2060.34</ele></trkpt>
<trkpt lon="13.04219680" lat="47.52838117"><ele>2055.29</ele></trkpt>
<trkpt lon="13.04213596" lat="47.52838823"><ele>2055.33</ele></trkpt>
<trkpt lon="13.04211605" lat="47.52839140"><ele>2057.25</ele></trkpt>
<trkpt lon="13.04204060" lat="47.52840172"><ele>2057.35</ele></trkpt>
</trkseg><trkseg>
<trkpt lon="13.04165888" lat="47.52873408"><ele>2065.02</ele></trkpt>
<trkpt lon="13.04170265" lat="47.52880736"><ele>2067.48</ele></trkpt>
<trkpt lon="13.04162503" lat="47.52879739"><ele>2071.84</ele></trkpt>
<trkpt lon="13.04162409" lat="47.52878343"><ele>2072.17</ele></trkpt>
<trkpt lon="13.04164535" lat="47.52874762"><ele>2065.37</ele></trkpt>
<trkpt lon="13.04165888" lat="47.52873408"><ele>2065.02</ele></trkpt>
</trkseg><trkseg>
<trkpt lon="13.04165888" lat="47.52873408"><ele>2065.02</ele></trkpt>
<trkpt lon="13.04176824" lat="47.52871570"><ele>2061.77</ele></trkpt>
<trkpt lon="13.04188360" lat="47.52869680"><ele>2059.53</ele></trkpt>
<trkpt lon="13.04197630" lat="47.52867264"><ele>2054.04</ele></trkpt>
<trkpt lon="13.04198892" lat="47.52866935"><ele>2050.38</ele></trkpt>
</trkseg><trkseg>
<trkpt lon="13.04198892" lat="47.52866935"><ele>2050.38</ele></trkpt>
<trkpt lon="13.04202676" lat="47.52865560"><ele>2050.10</ele></trkpt>
<trkpt lon="13.04206153" lat="47.52863514"><ele>2047.30</ele></trkpt>
<trkpt lon="13.04207454" lat="47.52856769"><ele>2049.85</ele></trkpt>
<trkpt lon="13.04207714" lat="47.52852634"><ele>2047.42</ele></trkpt>
<trkpt lon="13.04204060" lat="47.52840172"><ele>2057.35</ele></trkpt>
</trkseg><trkseg>
<trkpt lon="13.04198998" lat="47.52847302"><ele>2089.40</ele></trkpt>
<trkpt lon="13.04200060" lat="47.52854114"><ele>2084.11</ele></trkpt>
<trkpt lon="13.04197139" lat="47.52852625"><ele>2083.59</ele></trkpt>
<trkpt lon="13.04194901" lat="47.52848519"><ele>2082.99</ele></trkpt>
<trkpt lon="13.04200955" lat="47.52844330"><ele>2079.40</ele></trkpt>
<trkpt lon="13.04212069" lat="47.52839148"><ele>2055.36</ele></trkpt>
<trkpt lon="13.04206025" lat="47.52839846"><ele>2055.40</ele></trkpt>
<trkpt lon="13.04204060" lat="47.52840172"><ele>2057.35</ele></trkpt>
</trkseg><trkseg>
<trkpt lon="13.04212069" lat="47.52839148"><ele>2055.36</ele></trkpt>
<trkpt lon="13.04210550" lat="47.52837835"><ele>2055.18</ele></trkpt>
<trkpt lon="13.04211710" lat="47.52836299"><ele>2052.37</ele></trkpt>
<trkpt lon="13.04210016" lat="47.52836144"><ele>2048.80</ele></trkpt>
<trkpt lon="13.04213431" lat="47.52837174"><ele>2047.56</ele></trkpt>
<trkpt lon="13.04216304" lat="47.52840309"><ele>2042.16</ele></trkpt>
<trkpt lon="13.04217359" lat="47.52843018"><ele>2039.71</ele></trkpt>
<trkpt lon="13.04219260" lat="47.52842996"><ele>2035.20</ele></trkpt>
<trkpt lon="13.04219815" lat="47.52845219"><ele>2035.13</ele></trkpt>
<trkpt lon="13.04216873" lat="47.52845718"><ele>2035.47</ele></trkpt>
<trkpt lon="13.04218914" lat="47.52847274"><ele>2035.08</ele></trkpt>
</trkseg><trkseg>
<trkpt lon="13.04219260" lat="47.52842996"><ele>2035.20</ele></trkpt>
<trkpt lon="13.04218157" lat="47.52843364"><ele>2032.84</ele></trkpt>
<trkpt lon="13.04218542" lat="47.52842633"><ele>2006.41</ele></trkpt>
<trkpt lon="13.04223180" lat="47.52844044"><ele>2007.12</ele></trkpt>
<trkpt lon="13.04224898" lat="47.52845720"><ele>2007.91</ele></trkpt>
<trkpt lon="13.04227667" lat="47.52845920"><ele>2006.28</ele></trkpt>
<trkpt lon="13.04229898" lat="47.52845239"><ele>1994.34</ele></trkpt>
<trkpt lon="13.04236863" lat="47.52846212"><ele>1978.35</ele></trkpt>
<trkpt lon="13.04239382" lat="47.52844573"><ele>1977.33</ele></trkpt>
<trkpt lon="13.04244954" lat="47.52847295"><ele>1972.91</ele></trkpt>
<trkpt lon="13.04244668" lat="47.52848181"><ele>1971.44</ele></trkpt>
<trkpt lon="13.04248062" lat="47.52847654"><ele>1967.84</ele></trkpt>
<trkpt lon="13.04244742" lat="47.52848345"><ele>1967.11</ele></trkpt>
<trkpt lon="13.04244733" lat="47.52849649"><ele>1965.81</ele></trkpt>
<trkpt lon="13.04244304" lat="47.52851549"><ele>1960.92</ele></trkpt>
<trkpt lon="13.04244810" lat="47.52851144"><ele>1961.00</ele></trkpt>
<trkpt lon="13.04253142" lat="47.52854661"><ele>1959.57</ele></trkpt>
<trkpt lon="13.04251014" lat="47.52857234"><ele>1957.43</ele></trkpt>
<trkpt lon="13.04252763" lat="47.52857363"><ele>1954.43</ele></trkpt>
<trkpt lon="13.04253646" lat="47.52859691"><ele>1954.54</ele></trkpt>
<trkpt lon="13.04254365" lat="47.52861071"><ele>1954.52</ele></trkpt>
<trkpt lon="13.04254645" lat="47.52861777"><ele>1949.73</ele></trkpt>
<trkpt lon="13.04257014" lat="47.52862016"><ele>1950.17</ele></trkpt>
<trkpt lon="13.04257674" lat="47.52863917"><ele>1950.77</ele></trkpt>
<trkpt lon="13.04260154" lat="47.52863320"><ele>1950.68</ele></trkpt>
</trkseg><trkseg>
<trkpt lon="13.04197139" lat="47.52852625"><ele>2083.59</ele></trkpt>
<trkpt lon="13.04192518" lat="47.52850791"><ele>2083.97</ele></trkpt>
</trkseg><trkseg>
<trkpt lon="13.04200955" lat="47.52844330"><ele>2079.40</ele></trkpt>
<trkpt lon="13.04197151" lat="47.52843752"><ele>2080.15</ele></trkpt>
</trkseg><trkseg>
<trkpt lon="13.04236863" lat="47.52846212"><ele>1978.35</ele></trkpt>
<trkpt lon="13.04228677" lat="47.52844840"><ele>1969.48</ele></trkpt>
</trkseg><trkseg>
<trkpt lon="13.04257674" lat="47.52863917"><ele>1950.77</ele></trkpt>
<trkpt lon="13.04258441" lat="47.52863300"><ele>1956.16</ele></trkpt>
</trkseg><trkseg>
<trkpt lon="13.04218542" lat="47.52842633"><ele>2006.41</ele></trkpt>
<trkpt lon="13.04216719" lat="47.52842359"><ele>2013.67</ele></trkpt>
</trkseg><trkseg>
<trkpt lon="13.04216719" lat="47.52842359"><ele>2013.67</ele></trkpt>
<trkpt lon="13.04213284" lat="47.52840789"><ele>2013.61</ele></trkpt>
</trkseg><trkseg>
<trkpt lon="13.04213284" lat="47.52840789"><ele>2013.61</ele></trkpt>
<trkpt lon="13.04208631" lat="47.52838010"><ele>2014.69</ele></trkpt>
</trkseg><trkseg>
<trkpt lon="13.04206153" lat="47.52863514"><ele>2047.30</ele></trkpt>
<trkpt lon="13.04208034" lat="47.52865112"><ele>2046.46</ele></trkpt>
</trkseg><trkseg>
<trkpt lon="13.04208034" lat="47.52865112"><ele>2046.46</ele></trkpt>
<trkpt lon="13.04209800" lat="47.52869416"><ele>2046.61</ele></trkpt>
</trkseg><trkseg>
<trkpt lon="13.04207714" lat="47.52852634"><ele>2047.42</ele></trkpt>
<trkpt lon="13.04214097" lat="47.52848190"><ele>2048.69</ele></trkpt>
</trkseg><trkseg>
<trkpt lon="13.04214097" lat="47.52848190"><ele>2048.69</ele></trkpt>
<trkpt lon="13.04216734" lat="47.52850872"><ele>2049.12</ele></trkpt>
</trkseg><trkseg>
<trkpt lon="13.04203431" lat="47.52828167"><ele>2065.15</ele></trkpt>
<trkpt lon="13.04203469" lat="47.52823929"><ele>2063.61</ele></trkpt>
</trkseg><trkseg>
<trkpt lon="13.04203469" lat="47.52823929"><ele>2063.61</ele></trkpt>
<trkpt lon="13.04202982" lat="47.52823435"><ele>2054.63</ele></trkpt>
</trkseg><trkseg>
<trkpt lon="13.04202982" lat="47.52823435"><ele>2054.63</ele></trkpt>
<trkpt lon="13.04200126" lat="47.52821658"><ele>2054.41</ele></trkpt>
</trkseg><trkseg>
<trkpt lon="13.04200126" lat="47.52821658"><ele>2054.41</ele></trkpt>
<trkpt lon="13.04193351" lat="47.52820904"><ele>2055.25</ele></trkpt>
</trkseg><trkseg>
<trkpt lon="13.04193351" lat="47.52820904"><ele>2055.25</ele></trkpt>
<trkpt lon="13.04187082" lat="47.52818727"><ele>2055.19</ele></trkpt>
</trkseg><trkseg>
<trkpt lon="13.04187082" lat="47.52818727"><ele>2055.19</ele></trkpt>
<trkpt lon="13.04179669" lat="47.52815154"><ele>2056.59</ele></trkpt>
</trkseg><trkseg>
<trkpt lon="13.04179669" lat="47.52815154"><ele>2056.59</ele></trkpt>
<trkpt lon="13.04176249" lat="47.52816013"><ele>2057.05</ele></trkpt>
</trkseg><trkseg>
<trkpt lon="13.04176249" lat="47.52816013"><ele>2057.05</ele></trkpt>
<trkpt lon="13.04171613" lat="47.52816708"><ele>2053.20</ele></trkpt>
</trkseg><trkseg>
<trkpt lon="13.04176249" lat="47.52816013"><ele>2057.05</ele></trkpt>
<trkpt lon="13.04171496" lat="47.52816634"><ele>2059.85</ele></trkpt>
</trkseg><trkseg>
<trkpt lon="13.04187082" lat="47.52818727"><ele>2055.19</ele></trkpt>
<trkpt lon="13.04186230" lat="47.52814843"><ele>2054.75</ele></trkpt>
</trkseg><trkseg>
<trkpt lon="13.04186230" lat="47.52814843"><ele>2054.75</ele></trkpt>
<trkpt lon="13.04187229" lat="47.52809074"><ele>2056.40</ele></trkpt>
</trkseg><trkseg>
<trkpt lon="13.04187229" lat="47.52809074"><ele>2056.40</ele></trkpt>
<trkpt lon="13.04187061" lat="47.52805724"><ele>2055.97</ele></trkpt>
</trkseg><trkseg>
<trkpt lon="13.04187061" lat="47.52805724"><ele>2055.97</ele></trkpt>
<trkpt lon="13.04179394" lat="47.52802920"><ele>2056.77</ele></trkpt>
</trkseg><trkseg>
<trkpt lon="13.04179394" lat="47.52802920"><ele>2056.77</ele></trkpt>
<trkpt lon="13.04175566" lat="47.52797258"><ele>2062.80</ele></trkpt>
</trkseg><trkseg>
<trkpt lon="13.04175566" lat="47.52797258"><ele>2062.80</ele></trkpt>
<trkpt lon="13.04172760" lat="47.52789112"><ele>2064.10</ele></trkpt>
</trkseg><trkseg>
<trkpt lon="13.04172760" lat="47.52789112"><ele>2064.10</ele></trkpt>
<trkpt lon="13.04173934" lat="47.52780052"><ele>2065.37</ele></trkpt>
</trkseg><trkseg>
<trkpt lon="13.04173934" lat="47.52780052"><ele>2065.37</ele></trkpt>
<trkpt lon="13.04181603" lat="47.52775333"><ele>2065.39</ele></trkpt>
</trkseg><trkseg>
<trkpt lon="13.04181603" lat="47.52775333"><ele>2065.39</ele></trkpt>
<trkpt lon="13.04182741" lat="47.52767605"><ele>2063.66</ele></trkpt>
</trkseg><trkseg>
<trkpt lon="13.04182741" lat="47.52767605"><ele>2063.66</ele></trkpt>
<trkpt lon="13.04180587" lat="47.52763375"><ele>2058.27</ele></trkpt>
</trkseg><trkseg>
<trkpt lon="13.04180587" lat="47.52763375"><ele>2058.27</ele></trkpt>
<trkpt lon="13.04184723" lat="47.52758631"><ele>2057.84</ele></trkpt>
</trkseg><trkseg>
<trkpt lon="13.04184723" lat="47.52758631"><ele>2057.84</ele></trkpt>
<trkpt lon="13.04187543" lat="47.52756394"><ele>2057.86</ele></trkpt>
</trkseg><trkseg>
<trkpt lon="13.04180587" lat="47.52763375"><ele>2058.27</ele></trkpt>
<trkpt lon="13.04178552" lat="47.52763448"><ele>2056.60</ele></trkpt>
</trkseg><trkseg>
<trkpt lon="13.04178552" lat="47.52763448"><ele>2056.60</ele></trkpt>
<trkpt lon="13.04175010" lat="47.52764728"><ele>2056.89</ele></trkpt>
<trkpt lon="13.04174101" lat="47.52761293"><ele>2057.44</ele></trkpt>
</trkseg><trkseg>
<trkpt lon="13.04174101" lat="47.52761293"><ele>2057.44</ele></trkpt>
<trkpt lon="13.04166895" lat="47.52759299"><ele>2058.23</ele></trkpt>
</trkseg><trkseg>
<trkpt lon="13.04166895" lat="47.52759299"><ele>2058.23</ele></trkpt>
<trkpt lon="13.04163154" lat="47.52755599"><ele>2058.01</ele></trkpt>
</trkseg><trkseg>
<trkpt lon="13.04163154" lat="47.52755599"><ele>2058.01</ele></trkpt>
<trkpt lon="13.04162116" lat="47.52751344"><ele>2056.21</ele></trkpt>
</trkseg><trkseg>
<trkpt lon="13.04163154" lat="47.52755599"><ele>2058.01</ele></trkpt>
<trkpt lon="13.04155618" lat="47.52760312"><ele>2064.59</ele></trkpt>
</trkseg><trkseg>
<trkpt lon="13.04155618" lat="47.52760312"><ele>2064.59</ele></trkpt>
<trkpt lon="13.04154652" lat="47.52760925"><ele>2064.83</ele></trkpt>
</trkseg><trkseg>
<trkpt lon="13.04154652" lat="47.52760925"><ele>2064.83</ele></trkpt>
<trkpt lon="13.04142101" lat="47.52759388"><ele>2063.44</ele></trkpt>
</trkseg><trkseg>
<trkpt lon="13.04142101" lat="47.52759388"><ele>2063.44</ele></trkpt>
<trkpt lon="13.04132465" lat="47.52758441"><ele>2065.38</ele></trkpt>
</trkseg><trkseg>
<trkpt lon="13.04132465" lat="47.52758441"><ele>2065.38</ele></trkpt>
<trkpt lon="13.04124984" lat="47.52759546"><ele>2066.75</ele></trkpt>
</trkseg><trkseg>
<trkpt lon="13.04124984" lat="47.52759546"><ele>2066.75</ele></trkpt>
<trkpt lon="13.04117208" lat="47.52758918"><ele>2066.31</ele></trkpt>
</trkseg><trkseg>
<trkpt lon="13.04117208" lat="47.52758918"><ele>2066.31</ele></trkpt>
<trkpt lon="13.04101157" lat="47.52753991"><ele>2067.90</ele></trkpt>
</trkseg><trkseg>
<trkpt lon="13.04101157" lat="47.52753991"><ele>2067.90</ele></trkpt>
<trkpt lon="13.04091687" lat="47.52751076"><ele>2068.22</ele></trkpt>
</trkseg><trkseg>
<trkpt lon="13.04091687" lat="47.52751076"><ele>2068.22</ele></trkpt>
<trkpt lon="13.04086144" lat="47.52744385"><ele>2066.94</ele></trkpt>
</trkseg><trkseg>
<trkpt lon="13.04086144" lat="47.52744385"><ele>2066.94</ele></trkpt>
<trkpt lon="13.04074051" lat="47.52739464"><ele>2064.73</ele></trkpt>
</trkseg><trkseg>
<trkpt lon="13.04074051" lat="47.52739464"><ele>2064.73</ele></trkpt>
<trkpt lon="13.04071473" lat="47.52738061"><ele>2065.38</ele></trkpt>
</trkseg><trkseg>
<trkpt lon="13.04071473" lat="47.52738061"><ele>2065.38</ele></trkpt>
<trkpt lon="13.04070307" lat="47.52735836"><ele>2063.80</ele></trkpt>
<trkpt lon="13.04065293" lat="47.52733132"><ele>2062.51</ele></trkpt>
</trkseg><trkseg>
<trkpt lon="13.04065293" lat="47.52733132"><ele>2062.51</ele></trkpt>
<trkpt lon="13.04061911" lat="47.52730492"><ele>2063.44</ele></trkpt>
<trkpt lon="13.04060971" lat="47.52731106"><ele>2064.18</ele></trkpt>
</trkseg><trkseg>
<trkpt lon="13.04060971" lat="47.52731106"><ele>2064.18</ele></trkpt>
<trkpt lon="13.04054943" lat="47.52727448"><ele>2063.22</ele></trkpt>
</trkseg><trkseg>
<trkpt lon="13.04054943" lat="47.52727448"><ele>2063.22</ele></trkpt>
<trkpt lon="13.04049087" lat="47.52725584"><ele>2062.06</ele></trkpt>
</trkseg><trkseg>
<trkpt lon="13.04049087" lat="47.52725584"><ele>2062.06</ele></trkpt>
<trkpt lon="13.04045737" lat="47.52714954"><ele>2063.69</ele></trkpt>
</trkseg><trkseg>
<trkpt lon="13.04045737" lat="47.52714954"><ele>2063.69</ele></trkpt>
<trkpt lon="13.04041133" lat="47.52711213"><ele>2064.81</ele></trkpt>
</trkseg><trkseg>
<trkpt lon="13.04041133" lat="47.52711213"><ele>2064.81</ele></trkpt>
<trkpt lon="13.04034980" lat="47.52708399"><ele>2064.54</ele></trkpt>
</trkseg><trkseg>
<trkpt lon="13.04034980" lat="47.52708399"><ele>2064.54</ele></trkpt>
<trkpt lon="13.04032096" lat="47.52708809"><ele>2064.69</ele></trkpt>
</trkseg><trkseg>
<trkpt lon="13.04032096" lat="47.52708809"><ele>2064.69</ele></trkpt>
<trkpt lon="13.04028904" lat="47.52709609"><ele>2065.66</ele></trkpt>
</trkseg><trkseg>
<trkpt lon="13.04028904" lat="47.52709609"><ele>2065.66</ele></trkpt>
<trkpt lon="13.04026072" lat="47.52706096"><ele>2066.12</ele></trkpt>
</trkseg><trkseg>
<trkpt lon="13.04026072" lat="47.52706096"><ele>2066.12</ele></trkpt>
<trkpt lon="13.04025413" lat="47.52704186"><ele>2065.77</ele></trkpt>
</trkseg><trkseg>
<trkpt lon="13.04025413" lat="47.52704186"><ele>2065.77</ele></trkpt>
<trkpt lon="13.04017619" lat="47.52703702"><ele>2070.01</ele></trkpt>
</trkseg><trkseg>
<trkpt lon="13.04017619" lat="47.52703702"><ele>2070.01</ele></trkpt>
<trkpt lon="13.04013630" lat="47.52701286"><ele>2068.91</ele></trkpt>
</trkseg><trkseg>
<trkpt lon="13.04219260" lat="47.52842996"><ele>2035.20</ele></trkpt>
<trkpt lon="13.04223165" lat="47.52842667"><ele>2038.28</ele></trkpt>
<trkpt lon="13.04223594" lat="47.52841838"><ele>2038.62</ele></trkpt>
<trkpt lon="13.04225893" lat="47.52841472"><ele>2039.86</ele></trkpt>
<trkpt lon="13.04228158" lat="47.52842365"><ele>2039.09</ele></trkpt>
<trkpt lon="13.04228034" lat="47.52841778"><ele>2032.15</ele></trkpt>
<trkpt lon="13.04230472" lat="47.52842666"><ele>2033.28</ele></trkpt>
<trkpt lon="13.04229873" lat="47.52844464"><ele>2037.18</ele></trkpt>
<trkpt lon="13.04228935" lat="47.52847202"><ele>2033.81</ele></trkpt>
<trkpt lon="13.04231940" lat="47.52849989"><ele>2032.00</ele></trkpt>
</trkseg><trkseg>
<trkpt lon="13.04200060" lat="47.52854114"><ele>2084.11</ele></trkpt>
<trkpt lon="13.04202528" lat="47.52855254"><ele>2082.86</ele></trkpt>
<trkpt lon="13.04202596" lat="47.52856992"><ele>2082.35</ele></trkpt>
<trkpt lon="13.04202670" lat="47.52858586"><ele>2083.00</ele></trkpt>
<trkpt lon="13.04200241" lat="47.52861379"><ele>2085.64</ele></trkpt>
</trkseg><trkseg>
<trkpt lon="13.04202596" lat="47.52856992"><ele>2082.35</ele></trkpt>
<trkpt lon="13.04202918" lat="47.52856926"><ele>2079.17</ele></trkpt>
<trkpt lon="13.04200204" lat="47.52852749"><ele>2080.33</ele></trkpt>
<trkpt lon="13.04201364" lat="47.52850141"><ele>2081.46</ele></trkpt>
</trkseg><trkseg>
<trkpt lon="13.04200204" lat="47.52852749"><ele>2080.33</ele></trkpt>
<trkpt lon="13.04199557" lat="47.52852261"><ele>2076.64</ele></trkpt>
</trkseg><trkseg>
<trkpt lon="13.04200204" lat="47.52852749"><ele>2080.33</ele></trkpt>
<trkpt lon="13.04202907" lat="47.52852579"><ele>2083.30</ele></trkpt>
<trkpt lon="13.04201325" lat="47.52849403"><ele>2084.11</ele></trkpt>
</trkseg><trkseg>
<trkpt lon="13.04162503" lat="47.52879739"><ele>2071.84</ele></trkpt>
<trkpt lon="13.04160391" lat="47.52882241"><ele>2074.05</ele></trkpt>
</trkseg><trkseg>
<trkpt lon="13.04176824" lat="47.52871570"><ele>2061.77</ele></trkpt>
<trkpt lon="13.04166096" lat="47.52870325"><ele>2066.40</ele></trkpt>
<trkpt lon="13.04166759" lat="47.52866782"><ele>2066.69</ele></trkpt>
<trkpt lon="13.04160355" lat="47.52865017"><ele>2066.80</ele></trkpt>
<trkpt lon="13.04158122" lat="47.52863611"><ele>2067.22</ele></trkpt>
<trkpt lon="13.04158490" lat="47.52863347"><ele>2070.78</ele></trkpt>
<trkpt lon="13.04157988" lat="47.52860792"><ele>2069.28</ele></trkpt>
<trkpt lon="13.04153660" lat="47.52860332"><ele>2076.56</ele></trkpt>
</trkseg><trkseg>
<trkpt lon="13.04166759" lat="47.52866782"><ele>2066.69</ele></trkpt>
<trkpt lon="13.04165981" lat="47.52866616"><ele>2061.81</ele></trkpt>
<trkpt lon="13.04166985" lat="47.52867137"><ele>2058.58</ele></trkpt>
<trkpt lon="13.04168604" lat="47.52868964"><ele>2059.86</ele></trkpt>
<trkpt lon="13.04168689" lat="47.52867040"><ele>2054.37</ele></trkpt>
</trkseg><trkseg>
<trkpt lon="13.04188360" lat="47.52869680"><ele>2059.53</ele></trkpt>
<trkpt lon="13.04188052" lat="47.52865832"><ele>2056.18</ele></trkpt>
<trkpt lon="13.04185513" lat="47.52861577"><ele>2053.50</ele></trkpt>
<trkpt lon="13.04184020" lat="47.52860643"><ele>2052.25</ele></trkpt>
<trkpt lon="13.04182596" lat="47.52857865"><ele>2051.08</ele></trkpt>
</trkseg><trkseg>
<trkpt lon="13.04184020" lat="47.52860643"><ele>2052.25</ele></trkpt>
<trkpt lon="13.04185528" lat="47.52860831"><ele>2042.11</ele></trkpt>
</trkseg><trkseg>
<trkpt lon="13.04013630" lat="47.52701286"><ele>2068.91</ele></trkpt>
<trkpt lon="13.04013114" lat="47.52703013"><ele>2068.81</ele></trkpt>
<trkpt lon="13.04010155" lat="47.52704349"><ele>2067.73</ele></trkpt>
<trkpt lon="13.04009804" lat="47.52704154"><ele>2060.77</ele></trkpt>
<trkpt lon="13.04012518" lat="47.52705820"><ele>2062.05</ele></trkpt>
<trkpt lon="13.04010616" lat="47.52710151"><ele>2062.52</ele></trkpt>
<trkpt lon="13.04013946" lat="47.52713142"><ele>2065.01</ele></trkpt>
<trkpt lon="13.04006783" lat="47.52716034"><ele>2065.46</ele></trkpt>
<trkpt lon="13.03998285" lat="47.52718777"><ele>2071.57</ele></trkpt>
<trkpt lon="13.03989369" lat="47.52722026"><ele>2077.92</ele></trkpt>
<trkpt lon="13.03985285" lat="47.52721443"><ele>2079.24</ele></trkpt>
<trkpt lon="13.03986621" lat="47.52720539"><ele>2068.45</ele></trkpt>
<trkpt lon="13.03990873" lat="47.52718731"><ele>2071.09</ele></trkpt>
<trkpt lon="13.03988266" lat="47.52717391"><ele>2071.27</ele></trkpt>
</trkseg><trkseg>
<trkpt lon="13.04009804" lat="47.52704154"><ele>2060.77</ele></trkpt>
<trkpt lon="13.04006748" lat="47.52700232"><ele>2062.28</ele></trkpt>
<trkpt lon="13.04006648" lat="47.52696487"><ele>2061.25</ele></trkpt>
<trkpt lon="13.04008250" lat="47.52694868"><ele>2063.64</ele></trkpt>
</trkseg><trkseg>
<trkpt lon="13.04006748" lat="47.52700232"><ele>2062.28</ele></trkpt>
<trkpt lon="13.04001419" lat="47.52699565"><ele>2058.78</ele></trkpt>
<trkpt lon="13.03998986" lat="47.52701377"><ele>2058.69</ele></trkpt>
<trkpt lon="13.03995770" lat="47.52701781"><ele>2059.94</ele></trkpt>
<trkpt lon="13.03995366" lat="47.52702620"><ele>2061.43</ele></trkpt>
<trkpt lon="13.03993557" lat="47.52702328"><ele>2060.70</ele></trkpt>
<trkpt lon="13.03992418" lat="47.52701886"><ele>2059.55</ele></trkpt>
<trkpt lon="13.03990455" lat="47.52703940"><ele>2056.99</ele></trkpt>
<trkpt lon="13.03987893" lat="47.52702798"><ele>2050.24</ele></trkpt>
<trkpt lon="13.03982421" lat="47.52704918"><ele>2048.58</ele></trkpt>
<trkpt lon="13.03986713" lat="47.52709527"><ele>2047.01</ele></trkpt>
</trkseg><trkseg>
<trkpt lon="13.03989369" lat="47.52722026"><ele>2077.92</ele></trkpt>
<trkpt lon="13.03980990" lat="47.52722989"><ele>2083.38</ele></trkpt>
</trkseg><trkseg>
<trkpt lon="13.03980990" lat="47.52722989"><ele>2083.38</ele></trkpt>
<trkpt lon="13.03986481" lat="47.52723236"><ele>2090.82</ele></trkpt>
</trkseg><trkseg>
<trkpt lon="13.04198892" lat="47.52866935"><ele>2050.38</ele></trkpt>
<trkpt lon="13.04191929" lat="47.52865160"><ele>2050.08</ele></trkpt>
<trkpt lon="13.04189883" lat="47.52866250"><ele>2044.27</ele></trkpt>
<trkpt lon="13.04190722" lat="47.52866904"><ele>2029.65</ele></trkpt>
<trkpt lon="13.04186011" lat="47.52859633"><ele>2030.10</ele></trkpt>
</trkseg><trkseg>
<trkpt lon="13.04189883" lat="47.52866250"><ele>2044.27</ele></trkpt>
<trkpt lon="13.04183094" lat="47.52858045"><ele>2047.07</ele></trkpt>
</trkseg><trkseg>
<trkpt lon="13.04190722" lat="47.52866904"><ele>2029.65</ele></trkpt>
<trkpt lon="13.04194889" lat="47.52868450"><ele>2026.68</ele></trkpt>
<trkpt lon="13.04194958" lat="47.52868749"><ele>2024.98</ele></trkpt>
<trkpt lon="13.04197563" lat="47.52868370"><ele>2023.72</ele></trkpt>
<trkpt lon="13.04197588" lat="47.52869117"><ele>2023.71</ele></trkpt>
<trkpt lon="13.04203241" lat="47.52870375"><ele>2025.46</ele></trkpt>
<trkpt lon="13.04202711" lat="47.52869610"><ele>2025.44</ele></trkpt>
<trkpt lon="13.04206917" lat="47.52869421"><ele>2026.83</ele></trkpt>
<trkpt lon="13.04209041" lat="47.52871959"><ele>2027.84</ele></trkpt>
<trkpt lon="13.04212663" lat="47.52873172"><ele>2026.09</ele></trkpt>
<trkpt lon="13.04218626" lat="47.52872509"><ele>2005.51</ele></trkpt>
<trkpt lon="13.04223101" lat="47.52874718"><ele>1993.04</ele></trkpt>
<trkpt lon="13.04225102" lat="47.52873790"><ele>1992.70</ele></trkpt>
<trkpt lon="13.04224439" lat="47.52874102"><ele>1967.75</ele></trkpt>
<trkpt lon="13.04224275" lat="47.52875647"><ele>1966.94</ele></trkpt>
<trkpt lon="13.04220654" lat="47.52876215"><ele>1965.78</ele></trkpt>
<trkpt lon="13.04220313" lat="47.52877874"><ele>1964.74</ele></trkpt>
<trkpt lon="13.04219365" lat="47.52878713"><ele>1964.10</ele></trkpt>
<trkpt lon="13.04217547" lat="47.52880076"><ele>1964.21</ele></trkpt>
<trkpt lon="13.04220499" lat="47.52882142"><ele>1963.71</ele></trkpt>
<trkpt lon="13.04218315" lat="47.52883725"><ele>1961.25</ele></trkpt>
<trkpt lon="13.04218151" lat="47.52883470"><ele>1959.17</ele></trkpt>
<trkpt lon="13.04216489" lat="47.52881732"><ele>1957.85</ele></trkpt>
<trkpt lon="13.04215717" lat="47.52884274"><ele>1955.43</ele></trkpt>
</trkseg><trkseg>
<trkpt lon="13.04218151" lat="47.52883470"><ele>1959.17</ele></trkpt>
<trkpt lon="13.04214697" lat="47.52885967"><ele>1956.92</ele></trkpt>
</trkseg><trkseg>
<trkpt lon="13.04175566" lat="47.52797258"><ele>2062.80</ele></trkpt>
<trkpt lon="13.04177897" lat="47.52796740"><ele>2060.71</ele></trkpt>
<trkpt lon="13.04179863" lat="47.52797799"><ele>2057.89</ele></trkpt>
<trkpt lon="13.04183067" lat="47.52800608"><ele>2053.48</ele></trkpt>
<trkpt lon="13.04185249" lat="47.52801230"><ele>2051.40</ele></trkpt>
<trkpt lon="13.04187581" lat="47.52801756"><ele>2049.43</ele></trkpt>
<trkpt lon="13.04187733" lat="47.52804449"><ele>2046.88</ele></trkpt>
<trkpt lon="13.04192698" lat="47.52805631"><ele>2036.02</ele></trkpt>
</trkseg><trkseg>
<trkpt lon="13.04182741" lat="47.52767605"><ele>2063.66</ele></trkpt>
<trkpt lon="13.04188286" lat="47.52768905"><ele>2063.57</ele></trkpt>
<trkpt lon="13.04198840" lat="47.52771623"><ele>2060.23</ele></trkpt>
<trkpt lon="13.04205048" lat="47.52775788"><ele>2057.19</ele></trkpt>
</trkseg><trkseg>
<trkpt lon="13.04216734" lat="47.52850872"><ele>2049.12</ele></trkpt>
<trkpt lon="13.04216800" lat="47.52850189"><ele>2043.44</ele></trkpt>
<trkpt lon="13.04222116" lat="47.52849416"><ele>2040.79</ele></trkpt>
<trkpt lon="13.04226101" lat="47.52846236"><ele>2039.09</ele></trkpt>
<trkpt lon="13.04224815" lat="47.52844729"><ele>2035.39</ele></trkpt>
</trkseg><trkseg>
<trkpt lon="13.04226101" lat="47.52846236"><ele>2039.09</ele></trkpt>
<trkpt lon="13.04228434" lat="47.52848156"><ele>2039.13</ele></trkpt>
<trkpt lon="13.04220197" lat="47.52847080"><ele>2048.81</ele></trkpt>
</trkseg><trkseg>
<trkpt lon="13.04228434" lat="47.52848156"><ele>2039.13</ele></trkpt>
<trkpt lon="13.04222950" lat="47.52848791"><ele>2046.61</ele></trkpt>
</trkseg><trkseg>
<trkpt lon="13.04222116" lat="47.52849416"><ele>2040.79</ele></trkpt>
<trkpt lon="13.04221754" lat="47.52848078"><ele>2024.85</ele></trkpt>
<trkpt lon="13.04228173" lat="47.52841610"><ele>2008.12</ele></trkpt>
<trkpt lon="13.04231562" lat="47.52843008"><ele>2007.30</ele></trkpt>
</trkseg><trkseg>
<trkpt lon="13.04216734" lat="47.52850872"><ele>2049.12</ele></trkpt>
<trkpt lon="13.04216876" lat="47.52848850"><ele>2051.25</ele></trkpt>
<trkpt lon="13.04215309" lat="47.52846681"><ele>2054.04</ele></trkpt>
<trkpt lon="13.04213083" lat="47.52847255"><ele>2054.42</ele></trkpt>
<trkpt lon="13.04216854" lat="47.52850505"><ele>2050.02</ele></trkpt>
</trkseg><trkseg>
<trkpt lon="13.04215309" lat="47.52846681"><ele>2054.04</ele></trkpt>
<trkpt lon="13.04219299" lat="47.52846209"><ele>2047.94</ele></trkpt>
<trkpt lon="13.04227389" lat="47.52849461"><ele>2039.52</ele></trkpt>
</trkseg><trkseg>
<trkpt lon="13.03980990" lat="47.52722989"><ele>2083.38</ele></trkpt>
<trkpt lon="13.03976235" lat="47.52725446"><ele>2087.20</ele></trkpt>
<trkpt lon="13.03968081" lat="47.52730714"><ele>2095.96</ele></trkpt>
<trkpt lon="13.03960606" lat="47.52731297"><ele>2100.60</ele></trkpt>
<trkpt lon="13.03962266" lat="47.52734520"><ele>2101.63</ele></trkpt>
</trkseg><trkseg>
<trkpt lon="13.04179394" lat="47.52802920"><ele>2056.77</ele></trkpt>
<trkpt lon="13.04179662" lat="47.52805697"><ele>2056.32</ele></trkpt>
<trkpt lon="13.04177530" lat="47.52806947"><ele>2048.17</ele></trkpt>
<trkpt lon="13.04179377" lat="47.52807653"><ele>2047.82</ele></trkpt>
<trkpt lon="13.04180781" lat="47.52810971"><ele>2044.00</ele></trkpt>
<trkpt lon="13.04179007" lat="47.52807602"><ele>2043.62</ele></trkpt>
<trkpt lon="13.04181359" lat="47.52807570"><ele>2034.55</ele></trkpt>
</trkseg><trkseg>
<trkpt lon="13.03982421" lat="47.52704918"><ele>2048.58</ele></trkpt>
<trkpt lon="13.03983561" lat="47.52704623"><ele>2045.03</ele></trkpt>
<trkpt lon="13.03978127" lat="47.52706770"><ele>2032.88</ele></trkpt>
<trkpt lon="13.03980254" lat="47.52708858"><ele>2032.51</ele></trkpt>
<trkpt lon="13.03980753" lat="47.52710442"><ele>2029.67</ele></trkpt>
<trkpt lon="13.03978789" lat="47.52710381"><ele>2025.15</ele></trkpt>
<trkpt lon="13.03978409" lat="47.52714883"><ele>2025.83</ele></trkpt>
<trkpt lon="13.03978743" lat="47.52715896"><ele>2020.39</ele></trkpt>
<trkpt lon="13.03980033" lat="47.52717997"><ele>2012.01</ele></trkpt>
<trkpt lon="13.03981746" lat="47.52719439"><ele>2001.33</ele></trkpt>
<trkpt lon="13.03983568" lat="47.52719407"><ele>1990.17</ele></trkpt>
<trkpt lon="13.03984089" lat="47.52717535"><ele>1975.32</ele></trkpt>
<trkpt lon="13.03987335" lat="47.52717060"><ele>1975.32</ele></trkpt>
<trkpt lon="13.03986940" lat="47.52712329"><ele>1961.42</ele></trkpt>
<trkpt lon="13.03986367" lat="47.52709539"><ele>1956.59</ele></trkpt>
</trkseg><trkseg>
<trkpt lon="13.03986367" lat="47.52709539"><ele>1956.59</ele></trkpt>
<trkpt lon="13.03985545" lat="47.52708418"><ele>1953.48</ele></trkpt>
<trkpt lon="13.03986567" lat="47.52708076"><ele>1952.40</ele></trkpt>
<trkpt lon="13.03989231" lat="47.52708616"><ele>1941.69</ele></trkpt>
<trkpt lon="13.03987131" lat="47.52712566"><ele>1940.09</ele></trkpt>
<trkpt lon="13.03990230" lat="47.52713537"><ele>1939.16</ele></trkpt>
<trkpt lon="13.03990653" lat="47.52712888"><ele>1939.29</ele></trkpt>
<trkpt lon="13.03991017" lat="47.52712021"><ele>1937.67</ele></trkpt>
<trkpt lon="13.03991188" lat="47.52711367"><ele>1926.92</ele></trkpt>
<trkpt lon="13.03989011" lat="47.52713804"><ele>1926.59</ele></trkpt>
<trkpt lon="13.03987590" lat="47.52714509"><ele>1922.69</ele></trkpt>
<trkpt lon="13.03988241" lat="47.52716293"><ele>1917.16</ele></trkpt>
<trkpt lon="13.03987067" lat="47.52716768"><ele>1913.24</ele></trkpt>
<trkpt lon="13.03987870" lat="47.52719823"><ele>1910.42</ele></trkpt>
<trkpt lon="13.03986725" lat="47.52722017"><ele>1904.45</ele></trkpt>
<trkpt lon="13.03985322" lat="47.52725457"><ele>1900.81</ele></trkpt>
</trkseg><trkseg>
<trkpt lon="13.04013630" lat="47.52701286"><ele>2068.91</ele></trkpt>
<trkpt lon="13.04017363" lat="47.52703806"><ele>2070.01</ele></trkpt>
</trkseg><trkseg>
<trkpt lon="13.04175566" lat="47.52797258"><ele>2062.80</ele></trkpt>
<trkpt lon="13.04178000" lat="47.52799675"><ele>2062.57</ele></trkpt>
<trkpt lon="13.04181263" lat="47.52805508"><ele>2056.55</ele></trkpt>
</trkseg><trkseg>
<trkpt lon="13.04175566" lat="47.52797258"><ele>2062.80</ele></trkpt>
<trkpt lon="13.04173069" lat="47.52789009"><ele>2064.03</ele></trkpt>
<trkpt lon="13.04174748" lat="47.52779976"><ele>2065.30</ele></trkpt>
</trkseg><trkseg>
<trkpt lon="13.04182741" lat="47.52767605"><ele>2063.66</ele></trkpt>
<trkpt lon="13.04181562" lat="47.52775377"><ele>2065.42</ele></trkpt>
<trkpt lon="13.04173765" lat="47.52779968"><ele>2065.37</ele></trkpt>
</trkseg><trkseg>
<trkpt lon="13.04231562" lat="47.52843008"><ele>2007.30</ele></trkpt>
<trkpt lon="13.04233266" lat="47.52844702"><ele>2008.10</ele></trkpt>
<trkpt lon="13.04236088" lat="47.52844894"><ele>2006.46</ele></trkpt>
</trkseg><trkseg>
<trkpt lon="13.04216734" lat="47.52850872"><ele>2049.12</ele></trkpt>
<trkpt lon="13.04213696" lat="47.52848273"><ele>2048.63</ele></trkpt>
<trkpt lon="13.04207010" lat="47.52852631"><ele>2047.32</ele></trkpt>
<trkpt lon="13.04203766" lat="47.52840221"><ele>2057.37</ele></trkpt>
</trkseg><trkseg>
<trkpt lon="13.03980990" lat="47.52722989"><ele>2083.38</ele></trkpt>
<trkpt lon="13.03989254" lat="47.52722258"><ele>2078.14</ele></trkpt>
<trkpt lon="13.03998123" lat="47.52718846"><ele>2071.79</ele></trkpt>
</trkseg><trkseg>
<trkpt lon="13.04179394" lat="47.52802920"><ele>2056.77</ele></trkpt>
<trkpt lon="13.04186871" lat="47.52805829"><ele>2056.01</ele></trkpt>
<trkpt lon="13.04186875" lat="47.52809311"><ele>2056.50</ele></trkpt>
<trkpt lon="13.04185742" lat="47.52815096"><ele>2054.85</ele></trkpt>
<trkpt lon="13.04186835" lat="47.52818939"><ele>2055.31</ele></trkpt>
</trkseg><trkseg>
<trkpt lon="13.03986367" lat="47.52709539"><ele>1956.59</ele></trkpt>
<trkpt lon="13.03986706" lat="47.52712208"><ele>1961.52</ele></trkpt>
</trkseg></trk>
</gpx>
