<?xml version="1.0" encoding="UTF-8"?>
<kml xmlns="http://www.opengis.net/kml/2.2">
<Document><name>575-master</name>
<Style id="fix"><IconStyle><Icon><href>https://maps.google.com/mapfiles/kml/paddle/red-blank.png</href></Icon><color>ff0000ff</color><hotSpot x="32" y="1" xunits="pixels" yunits="pixels"/></IconStyle></Style>
<Style id="exp"><IconStyle><Icon><href>https://maps.google.com/mapfiles/kml/paddle/blu-blank.png</href></Icon><color>ffff0000</color><hotSpot x="32" y="1" xunits="pixels" yunits="pixels"/></IconStyle></Style>
<Style id="ent"><IconStyle><Icon><href>https://maps.google.com/mapfiles/kml/paddle/grn-blank.png</href></Icon><color>ff00ff00</color><hotSpot x="32" y="1" xunits="pixels" yunits="pixels"/></IconStyle></Style>
<Style id="surf"><LineStyle><color>ff00ff00</color></LineStyle></Style>
<Style id="splay"><LineStyle><color>40ff00ff</color></LineStyle></Style>
<Placemark><MultiGeometry><LineString><altitudeMode>absolute</altitudeMode><coordinates>
13.04204060,47.52840172,2057.35
13.04203438,47.52832243,2063.64
13.04203431,47.52828167,2065.15
13.04218517,47.52832977,2061.83
13.04223315,47.52836479,2060.31
13.04220061,47.52835388,2060.79
13.04219912,47.52836529,2060.34
13.04219680,47.52838117,2055.29
13.04213596,47.52838823,2055.33
13.04211605,47.52839140,2057.25
13.04204060,47.52840172,2057.35
</coordinates></LineString>
<LineString><altitudeMode>absolute</altitudeMode><coordinates>
13.04165888,47.52873408,2065.02
13.04170265,47.52880736,2067.48
13.04162503,47.52879739,2071.84
13.04162409,47.52878343,2072.17
13.04164535,47.52874762,2065.37
13.04165888,47.52873408,2065.02
</coordinates></LineString>
<LineString><altitudeMode>absolute</altitudeMode><coordinates>
13.04165888,47.52873408,2065.02
13.04176824,47.52871570,2061.77
13.04188360,47.52869680,2059.53
13.04197630,47.52867264,2054.04
13.04198892,47.52866935,2050.38
</coordinates></LineString>
<LineString><altitudeMode>absolute</altitudeMode><coordinates>
13.04198892,47.52866935,2050.38
13.04202676,47.52865560,2050.10
13.04206153,47.52863514,2047.30
13.04207454,47.52856769,2049.85
13.04207714,47.52852634,2047.42
13.04204060,47.52840172,2057.35
</coordinates></LineString>
<LineString><altitudeMode>absolute</altitudeMode><coordinates>
13.04198998,47.52847302,2089.40
13.04200060,47.52854114,2084.11
13.04197139,47.52852625,2083.59
13.04194901,47.52848519,2082.99
13.04200955,47.52844330,2079.40
13.04212069,47.52839148,2055.36
13.04206025,47.52839846,2055.40
13.04204060,47.52840172,2057.35
</coordinates></LineString>
<LineString><altitudeMode>absolute</altitudeMode><coordinates>
13.04212069,47.52839148,2055.36
13.04210550,47.52837835,2055.18
13.04211710,47.52836299,2052.37
13.04210016,47.52836144,2048.80
13.04213431,47.52837174,2047.56
13.04216304,47.52840309,2042.16
13.04217359,47.52843018,2039.71
13.04219260,47.52842996,2035.20
13.04219815,47.52845219,2035.13
13.04216873,47.52845718,2035.47
13.04218914,47.52847274,2035.08
</coordinates></LineString>
<LineString><altitudeMode>absolute</altitudeMode><coordinates>
13.04219260,47.52842996,2035.20
13.04218157,47.52843364,2032.84
13.04218542,47.52842633,2006.41
13.04223180,47.52844044,2007.12
13.04224898,47.52845720,2007.91
13.04227667,47.52845920,2006.28
13.04229898,47.52845239,1994.34
13.04236863,47.52846212,1978.35
13.04239382,47.52844573,1977.33
13.04244954,47.52847295,1972.91
13.04244668,47.52848181,1971.44
13.04248062,47.52847654,1967.84
13.04244742,47.52848345,1967.11
13.04244733,47.52849649,1965.81
13.04244304,47.52851549,1960.92
13.04244810,47.52851144,1961.00
13.04253142,47.52854661,1959.57
13.04251014,47.52857234,1957.43
13.04252763,47.52857363,1954.43
13.04253646,47.52859691,1954.54
13.04254365,47.52861071,1954.52
13.04254645,47.52861777,1949.73
13.04257014,47.52862016,1950.17
13.04257674,47.52863917,1950.77
13.04260154,47.52863320,1950.68
</coordinates></LineString>
<LineString><altitudeMode>absolute</altitudeMode><coordinates>
13.04197139,47.52852625,2083.59
13.04192518,47.52850791,2083.97
</coordinates></LineString>
<LineString><altitudeMode>absolute</altitudeMode><coordinates>
13.04200955,47.52844330,2079.40
13.04197151,47.52843752,2080.15
</coordinates></LineString>
<LineString><altitudeMode>absolute</altitudeMode><coordinates>
13.04236863,47.52846212,1978.35
13.04228677,47.52844840,1969.48
</coordinates></LineString>
<LineString><altitudeMode>absolute</altitudeMode><coordinates>
13.04257674,47.52863917,1950.77
13.04258441,47.52863300,1956.16
</coordinates></LineString>
<LineString><altitudeMode>absolute</altitudeMode><coordinates>
13.04218542,47.52842633,2006.41
13.04216719,47.52842359,2013.67
</coordinates></LineString>
<LineString><altitudeMode>absolute</altitudeMode><coordinates>
13.04216719,47.52842359,2013.67
13.04213284,47.52840789,2013.61
</coordinates></LineString>
<LineString><altitudeMode>absolute</altitudeMode><coordinates>
13.04213284,47.52840789,2013.61
13.04208631,47.52838010,2014.69
</coordinates></LineString>
<LineString><altitudeMode>absolute</altitudeMode><coordinates>
13.04206153,47.52863514,2047.30
13.04208034,47.52865112,2046.46
</coordinates></LineString>
<LineString><altitudeMode>absolute</altitudeMode><coordinates>
13.04208034,47.52865112,2046.46
13.04209800,47.52869416,2046.61
</coordinates></LineString>
<LineString><altitudeMode>absolute</altitudeMode><coordinates>
13.04207714,47.52852634,2047.42
13.04214097,47.52848190,2048.69
</coordinates></LineString>
<LineString><altitudeMode>absolute</altitudeMode><coordinates>
13.04214097,47.52848190,2048.69
13.04216734,47.52850872,2049.12
</coordinates></LineString>
<LineString><altitudeMode>absolute</altitudeMode><coordinates>
13.04203431,47.52828167,2065.15
13.04203469,47.52823929,2063.61
</coordinates></LineString>
<LineString><altitudeMode>absolute</altitudeMode><coordinates>
13.04203469,47.52823929,2063.61
13.04202982,47.52823435,2054.63
</coordinates></LineString>
<LineString><altitudeMode>absolute</altitudeMode><coordinates>
13.04202982,47.52823435,2054.63
13.04200126,47.52821658,2054.41
</coordinates></LineString>
<LineString><altitudeMode>absolute</altitudeMode><coordinates>
13.04200126,47.52821658,2054.41
13.04193351,47.52820904,2055.25
</coordinates></LineString>
<LineString><altitudeMode>absolute</altitudeMode><coordinates>
13.04193351,47.52820904,2055.25
13.04187082,47.52818727,2055.19
</coordinates></LineString>
<LineString><altitudeMode>absolute</altitudeMode><coordinates>
13.04187082,47.52818727,2055.19
13.04179669,47.52815154,2056.59
</coordinates></LineString>
<LineString><altitudeMode>absolute</altitudeMode><coordinates>
13.04179669,47.52815154,2056.59
13.04176249,47.52816013,2057.05
</coordinates></LineString>
<LineString><altitudeMode>absolute</altitudeMode><coordinates>
13.04176249,47.52816013,2057.05
13.04171613,47.52816708,2053.20
</coordinates></LineString>
<LineString><altitudeMode>absolute</altitudeMode><coordinates>
13.04176249,47.52816013,2057.05
13.04171496,47.52816634,2059.85
</coordinates></LineString>
<LineString><altitudeMode>absolute</altitudeMode><coordinates>
13.04187082,47.52818727,2055.19
13.04186230,47.52814843,2054.75
</coordinates></LineString>
<LineString><altitudeMode>absolute</altitudeMode><coordinates>
13.04186230,47.52814843,2054.75
13.04187229,47.52809074,2056.40
</coordinates></LineString>
<LineString><altitudeMode>absolute</altitudeMode><coordinates>
13.04187229,47.52809074,2056.40
13.04187061,47.52805724,2055.97
</coordinates></LineString>
<LineString><altitudeMode>absolute</altitudeMode><coordinates>
13.04187061,47.52805724,2055.97
13.04179394,47.52802920,2056.77
</coordinates></LineString>
<LineString><altitudeMode>absolute</altitudeMode><coordinates>
13.04179394,47.52802920,2056.77
13.04175566,47.52797258,2062.80
</coordinates></LineString>
<LineString><altitudeMode>absolute</altitudeMode><coordinates>
13.04175566,47.52797258,2062.80
13.04172760,47.52789112,2064.10
</coordinates></LineString>
<LineString><altitudeMode>absolute</altitudeMode><coordinates>
13.04172760,47.52789112,2064.10
13.04173934,47.52780052,2065.37
</coordinates></LineString>
<LineString><altitudeMode>absolute</altitudeMode><coordinates>
13.04173934,47.52780052,2065.37
13.04181603,47.52775333,2065.39
</coordinates></LineString>
<LineString><altitudeMode>absolute</altitudeMode><coordinates>
13.04181603,47.52775333,2065.39
13.04182741,47.52767605,2063.66
</coordinates></LineString>
<LineString><altitudeMode>absolute</altitudeMode><coordinates>
13.04182741,47.52767605,2063.66
13.04180587,47.52763375,2058.27
</coordinates></LineString>
<LineString><altitudeMode>absolute</altitudeMode><coordinates>
13.04180587,47.52763375,2058.27
13.04184723,47.52758631,2057.84
</coordinates></LineString>
<LineString><altitudeMode>absolute</altitudeMode><coordinates>
13.04184723,47.52758631,2057.84
13.04187543,47.52756394,2057.86
</coordinates></LineString>
<LineString><altitudeMode>absolute</altitudeMode><coordinates>
13.04180587,47.52763375,2058.27
13.04178552,47.52763448,2056.60
</coordinates></LineString>
<LineString><altitudeMode>absolute</altitudeMode><coordinates>
13.04178552,47.52763448,2056.60
13.04175010,47.52764728,2056.89
13.04174101,47.52761293,2057.44
</coordinates></LineString>
<LineString><altitudeMode>absolute</altitudeMode><coordinates>
13.04174101,47.52761293,2057.44
13.04166895,47.52759299,2058.23
</coordinates></LineString>
<LineString><altitudeMode>absolute</altitudeMode><coordinates>
13.04166895,47.52759299,2058.23
13.04163154,47.52755599,2058.01
</coordinates></LineString>
<LineString><altitudeMode>absolute</altitudeMode><coordinates>
13.04163154,47.52755599,2058.01
13.04162116,47.52751344,2056.21
</coordinates></LineString>
<LineString><altitudeMode>absolute</altitudeMode><coordinates>
13.04163154,47.52755599,2058.01
13.04155618,47.52760312,2064.59
</coordinates></LineString>
<LineString><altitudeMode>absolute</altitudeMode><coordinates>
13.04155618,47.52760312,2064.59
13.04154652,47.52760925,2064.83
</coordinates></LineString>
<LineString><altitudeMode>absolute</altitudeMode><coordinates>
13.04154652,47.52760925,2064.83
13.04142101,47.52759388,2063.44
</coordinates></LineString>
<LineString><altitudeMode>absolute</altitudeMode><coordinates>
13.04142101,47.52759388,2063.44
13.04132465,47.52758441,2065.38
</coordinates></LineString>
<LineString><altitudeMode>absolute</altitudeMode><coordinates>
13.04132465,47.52758441,2065.38
13.04124984,47.52759546,2066.75
</coordinates></LineString>
<LineString><altitudeMode>absolute</altitudeMode><coordinates>
13.04124984,47.52759546,2066.75
13.04117208,47.52758918,2066.31
</coordinates></LineString>
<LineString><altitudeMode>absolute</altitudeMode><coordinates>
13.04117208,47.52758918,2066.31
13.04101157,47.52753991,2067.90
</coordinates></LineString>
<LineString><altitudeMode>absolute</altitudeMode><coordinates>
13.04101157,47.52753991,2067.90
13.04091687,47.52751076,2068.22
</coordinates></LineString>
<LineString><altitudeMode>absolute</altitudeMode><coordinates>
13.04091687,47.52751076,2068.22
13.04086144,47.52744385,2066.94
</coordinates></LineString>
<LineString><altitudeMode>absolute</altitudeMode><coordinates>
13.04086144,47.52744385,2066.94
13.04074051,47.52739464,2064.73
</coordinates></LineString>
<LineString><altitudeMode>absolute</altitudeMode><coordinates>
13.04074051,47.52739464,2064.73
13.04071473,47.52738061,2065.38
</coordinates></LineString>
<LineString><altitudeMode>absolute</altitudeMode><coordinates>
13.04071473,47.52738061,2065.38
13.04070307,47.52735836,2063.80
13.04065293,47.52733132,2062.51
</coordinates></LineString>
<LineString><altitudeMode>absolute</altitudeMode><coordinates>
13.04065293,47.52733132,2062.51
13.04061911,47.52730492,2063.44
13.04060971,47.52731106,2064.18
</coordinates></LineString>
<LineString><altitudeMode>absolute</altitudeMode><coordinates>
13.04060971,47.52731106,2064.18
13.04054943,47.52727448,2063.22
</coordinates></LineString>
<LineString><altitudeMode>absolute</altitudeMode><coordinates>
13.04054943,47.52727448,2063.22
13.04049087,47.52725584,2062.06
</coordinates></LineString>
<LineString><altitudeMode>absolute</altitudeMode><coordinates>
13.04049087,47.52725584,2062.06
13.04045737,47.52714954,2063.69
</coordinates></LineString>
<LineString><altitudeMode>absolute</altitudeMode><coordinates>
13.04045737,47.52714954,2063.69
13.04041133,47.52711213,2064.81
</coordinates></LineString>
<LineString><altitudeMode>absolute</altitudeMode><coordinates>
13.04041133,47.52711213,2064.81
13.04034980,47.52708399,2064.54
</coordinates></LineString>
<LineString><altitudeMode>absolute</altitudeMode><coordinates>
13.04034980,47.52708399,2064.54
13.04032096,47.52708809,2064.69
</coordinates></LineString>
<LineString><altitudeMode>absolute</altitudeMode><coordinates>
13.04032096,47.52708809,2064.69
13.04028904,47.52709609,2065.66
</coordinates></LineString>
<LineString><altitudeMode>absolute</altitudeMode><coordinates>
13.04028904,47.52709609,2065.66
13.04026072,47.52706096,2066.12
</coordinates></LineString>
<LineString><altitudeMode>absolute</altitudeMode><coordinates>
13.04026072,47.52706096,2066.12
13.04025413,47.52704186,2065.77
</coordinates></LineString>
<LineString><altitudeMode>absolute</altitudeMode><coordinates>
13.04025413,47.52704186,2065.77
13.04017619,47.52703702,2070.01
</coordinates></LineString>
<LineString><altitudeMode>absolute</altitudeMode><coordinates>
13.04017619,47.52703702,2070.01
13.04013630,47.52701286,2068.91
</coordinates></LineString>
<LineString><altitudeMode>absolute</altitudeMode><coordinates>
13.04219260,47.52842996,2035.20
13.04223165,47.52842667,2038.28
13.04223594,47.52841838,2038.62
13.04225893,47.52841472,2039.86
13.04228158,47.52842365,2039.09
13.04228034,47.52841778,2032.15
13.04230472,47.52842666,2033.28
13.04229873,47.52844464,2037.18
13.04228935,47.52847202,2033.81
13.04231940,47.52849989,2032.00
</coordinates></LineString>
<LineString><altitudeMode>absolute</altitudeMode><coordinates>
13.04200060,47.52854114,2084.11
13.04202528,47.52855254,2082.86
13.04202596,47.52856992,2082.35
13.04202670,47.52858586,2083.00
13.04200241,47.52861379,2085.64
</coordinates></LineString>
<LineString><altitudeMode>absolute</altitudeMode><coordinates>
13.04202596,47.52856992,2082.35
13.04202918,47.52856926,2079.17
13.04200204,47.52852749,2080.33
13.04201364,47.52850141,2081.46
</coordinates></LineString>
<LineString><altitudeMode>absolute</altitudeMode><coordinates>
13.04200204,47.52852749,2080.33
13.04199557,47.52852261,2076.64
</coordinates></LineString>
<LineString><altitudeMode>absolute</altitudeMode><coordinates>
13.04200204,47.52852749,2080.33
13.04202907,47.52852579,2083.30
13.04201325,47.52849403,2084.11
</coordinates></LineString>
<LineString><altitudeMode>absolute</altitudeMode><coordinates>
13.04162503,47.52879739,2071.84
13.04160391,47.52882241,2074.05
</coordinates></LineString>
<LineString><altitudeMode>absolute</altitudeMode><coordinates>
13.04176824,47.52871570,2061.77
13.04166096,47.52870325,2066.40
13.04166759,47.52866782,2066.69
13.04160355,47.52865017,2066.80
13.04158122,47.52863611,2067.22
13.04158490,47.52863347,2070.78
13.04157988,47.52860792,2069.28
13.04153660,47.52860332,2076.56
</coordinates></LineString>
<LineString><altitudeMode>absolute</altitudeMode><coordinates>
13.04166759,47.52866782,2066.69
13.04165981,47.52866616,2061.81
13.04166985,47.52867137,2058.58
13.04168604,47.52868964,2059.86
13.04168689,47.52867040,2054.37
</coordinates></LineString>
<LineString><altitudeMode>absolute</altitudeMode><coordinates>
13.04188360,47.52869680,2059.53
13.04188052,47.52865832,2056.18
13.04185513,47.52861577,2053.50
13.04184020,47.52860643,2052.25
13.04182596,47.52857865,2051.08
</coordinates></LineString>
<LineString><altitudeMode>absolute</altitudeMode><coordinates>
13.04184020,47.52860643,2052.25
13.04185528,47.52860831,2042.11
</coordinates></LineString>
<LineString><altitudeMode>absolute</altitudeMode><coordinates>
13.04013630,47.52701286,2068.91
13.04013114,47.52703013,2068.81
13.04010155,47.52704349,2067.73
13.04009804,47.52704154,2060.77
13.04012518,47.52705820,2062.05
13.04010616,47.52710151,2062.52
13.04013946,47.52713142,2065.01
13.04006783,47.52716034,2065.46
13.03998285,47.52718777,2071.57
13.03989369,47.52722026,2077.92
13.03985285,47.52721443,2079.24
13.03986621,47.52720539,2068.45
13.03990873,47.52718731,2071.09
13.03988266,47.52717391,2071.27
</coordinates></LineString>
<LineString><altitudeMode>absolute</altitudeMode><coordinates>
13.04009804,47.52704154,2060.77
13.04006748,47.52700232,2062.28
13.04006648,47.52696487,2061.25
13.04008250,47.52694868,2063.64
</coordinates></LineString>
<LineString><altitudeMode>absolute</altitudeMode><coordinates>
13.04006748,47.52700232,2062.28
13.04001419,47.52699565,2058.78
13.03998986,47.52701377,2058.69
13.03995770,47.52701781,2059.94
13.03995366,47.52702620,2061.43
13.03993557,47.52702328,2060.70
13.03992418,47.52701886,2059.55
13.03990455,47.52703940,2056.99
13.03987893,47.52702798,2050.24
13.03982421,47.52704918,2048.58
13.03986713,47.52709527,2047.01
</coordinates></LineString>
<LineString><altitudeMode>absolute</altitudeMode><coordinates>
13.03989369,47.52722026,2077.92
13.03980990,47.52722989,2083.38
</coordinates></LineString>
<LineString><altitudeMode>absolute</altitudeMode><coordinates>
13.03980990,47.52722989,2083.38
13.03986481,47.52723236,2090.82
</coordinates></LineString>
<LineString><altitudeMode>absolute</altitudeMode><coordinates>
13.04198892,47.52866935,2050.38
13.04191929,47.52865160,2050.08
13.04189883,47.52866250,2044.27
13.04190722,47.52866904,2029.65
13.04186011,47.52859633,2030.10
</coordinates></LineString>
<LineString><altitudeMode>absolute</altitudeMode><coordinates>
13.04189883,47.52866250,2044.27
13.04183094,47.52858045,2047.07
</coordinates></LineString>
<LineString><altitudeMode>absolute</altitudeMode><coordinates>
13.04190722,47.52866904,2029.65
13.04194889,47.52868450,2026.68
13.04194958,47.52868749,2024.98
13.04197563,47.52868370,2023.72
13.04197588,47.52869117,2023.71
13.04203241,47.52870375,2025.46
13.04202711,47.52869610,2025.44
13.04206917,47.52869421,2026.83
13.04209041,47.52871959,2027.84
13.04212663,47.52873172,2026.09
13.04218626,47.52872509,2005.51
13.04223101,47.52874718,1993.04
13.04225102,47.52873790,1992.70
13.04224439,47.52874102,1967.75
13.04224275,47.52875647,1966.94
13.04220654,47.52876215,1965.78
13.04220313,47.52877874,1964.74
13.04219365,47.52878713,1964.10
13.04217547,47.52880076,1964.21
13.04220499,47.52882142,1963.71
13.04218315,47.52883725,1961.25
13.04218151,47.52883470,1959.17
13.04216489,47.52881732,1957.85
13.04215717,47.52884274,1955.43
</coordinates></LineString>
<LineString><altitudeMode>absolute</altitudeMode><coordinates>
13.04218151,47.52883470,1959.17
13.04214697,47.52885967,1956.92
</coordinates></LineString>
<LineString><altitudeMode>absolute</altitudeMode><coordinates>
13.04175566,47.52797258,2062.80
13.04177897,47.52796740,2060.71
13.04179863,47.52797799,2057.89
13.04183067,47.52800608,2053.48
13.04185249,47.52801230,2051.40
13.04187581,47.52801756,2049.43
13.04187733,47.52804449,2046.88
13.04192698,47.52805631,2036.02
</coordinates></LineString>
<LineString><altitudeMode>absolute</altitudeMode><coordinates>
13.04182741,47.52767605,2063.66
13.04188286,47.52768905,2063.57
13.04198840,47.52771623,2060.23
13.04205048,47.52775788,2057.19
</coordinates></LineString>
<LineString><altitudeMode>absolute</altitudeMode><coordinates>
13.04216734,47.52850872,2049.12
13.04216800,47.52850189,2043.44
13.04222116,47.52849416,2040.79
13.04226101,47.52846236,2039.09
13.04224815,47.52844729,2035.39
</coordinates></LineString>
<LineString><altitudeMode>absolute</altitudeMode><coordinates>
13.04226101,47.52846236,2039.09
13.04228434,47.52848156,2039.13
13.04220197,47.52847080,2048.81
</coordinates></LineString>
<LineString><altitudeMode>absolute</altitudeMode><coordinates>
13.04228434,47.52848156,2039.13
13.04222950,47.52848791,2046.61
</coordinates></LineString>
<LineString><altitudeMode>absolute</altitudeMode><coordinates>
13.04222116,47.52849416,2040.79
13.04221754,47.52848078,2024.85
13.04228173,47.52841610,2008.12
13.04231562,47.52843008,2007.30
</coordinates></LineString>
<LineString><altitudeMode>absolute</altitudeMode><coordinates>
13.04216734,47.52850872,2049.12
13.04216876,47.52848850,2051.25
13.04215309,47.52846681,2054.04
13.04213083,47.52847255,2054.42
13.04216854,47.52850505,2050.02
</coordinates></LineString>
<LineString><altitudeMode>absolute</altitudeMode><coordinates>
13.04215309,47.52846681,2054.04
13.04219299,47.52846209,2047.94
13.04227389,47.52849461,2039.52
</coordinates></LineString>
<LineString><altitudeMode>absolute</altitudeMode><coordinates>
13.03980990,47.52722989,2083.38
13.03976235,47.52725446,2087.20
13.03968081,47.52730714,2095.96
13.03960606,47.52731297,2100.60
13.03962266,47.52734520,2101.63
</coordinates></LineString>
<LineString><altitudeMode>absolute</altitudeMode><coordinates>
13.04179394,47.52802920,2056.77
13.04179662,47.52805697,2056.32
13.04177530,47.52806947,2048.17
13.04179377,47.52807653,2047.82
13.04180781,47.52810971,2044.00
13.04179007,47.52807602,2043.62
13.04181359,47.52807570,2034.55
</coordinates></LineString>
<LineString><altitudeMode>absolute</altitudeMode><coordinates>
13.03982421,47.52704918,2048.58
13.03983561,47.52704623,2045.03
13.03978127,47.52706770,2032.88
13.03980254,47.52708858,2032.51
13.03980753,47.52710442,2029.67
13.03978789,47.52710381,2025.15
13.03978409,47.52714883,2025.83
13.03978743,47.52715896,2020.39
13.03980033,47.52717997,2012.01
13.03981746,47.52719439,2001.33
13.03983568,47.52719407,1990.17
13.03984089,47.52717535,1975.32
13.03987335,47.52717060,1975.32
13.03986940,47.52712329,1961.42
13.03986367,47.52709539,1956.59
</coordinates></LineString>
<LineString><altitudeMode>absolute</altitudeMode><coordinates>
13.03986367,47.52709539,1956.59
13.03985545,47.52708418,1953.48
13.03986567,47.52708076,1952.40
13.03989231,47.52708616,1941.69
13.03987131,47.52712566,1940.09
13.03990230,47.52713537,1939.16
13.03990653,47.52712888,1939.29
13.03991017,47.52712021,1937.67
13.03991188,47.52711367,1926.92
13.03989011,47.52713804,1926.59
13.03987590,47.52714509,1922.69
13.03988241,47.52716293,1917.16
13.03987067,47.52716768,1913.24
13.03987870,47.52719823,1910.42
13.03986725,47.52722017,1904.45
13.03985322,47.52725457,1900.81
</coordinates></LineString>
<LineString><altitudeMode>absolute</altitudeMode><coordinates>
13.04013630,47.52701286,2068.91
13.04017363,47.52703806,2070.01
</coordinates></LineString>
<LineString><altitudeMode>absolute</altitudeMode><coordinates>
13.04175566,47.52797258,2062.80
13.04178000,47.52799675,2062.57
13.04181263,47.52805508,2056.55
</coordinates></LineString>
<LineString><altitudeMode>absolute</altitudeMode><coordinates>
13.04175566,47.52797258,2062.80
13.04173069,47.52789009,2064.03
13.04174748,47.52779976,2065.30
</coordinates></LineString>
<LineString><altitudeMode>absolute</altitudeMode><coordinates>
13.04182741,47.52767605,2063.66
13.04181562,47.52775377,2065.42
13.04173765,47.52779968,2065.37
</coordinates></LineString>
<LineString><altitudeMode>absolute</altitudeMode><coordinates>
13.04231562,47.52843008,2007.30
13.04233266,47.52844702,2008.10
13.04236088,47.52844894,2006.46
</coordinates></LineString>
<LineString><altitudeMode>absolute</altitudeMode><coordinates>
13.04216734,47.52850872,2049.12
13.04213696,47.52848273,2048.63
13.04207010,47.52852631,2047.32
13.04203766,47.52840221,2057.37
</coordinates></LineString>
<LineString><altitudeMode>absolute</altitudeMode><coordinates>
13.03980990,47.52722989,2083.38
13.03989254,47.52722258,2078.14
13.03998123,47.52718846,2071.79
</coordinates></LineString>
<LineString><altitudeMode>absolute</altitudeMode><coordinates>
13.04179394,47.52802920,2056.77
13.04186871,47.52805829,2056.01
13.04186875,47.52809311,2056.50
13.04185742,47.52815096,2054.85
13.04186835,47.52818939,2055.31
</coordinates></LineString>
<LineString><altitudeMode>absolute</altitudeMode><coordinates>
13.03986367,47.52709539,1956.59
13.03986706,47.52712208,1961.52
</coordinates></LineString></MultiGeometry></Placemark>
</Document></kml>
