<?xml version="1.0" encoding="UTF-8"?>
<kml xmlns="http://www.opengis.net/kml/2.2">
<Document><name>408-master</name>
<Style id="fix"><IconStyle><Icon><href>https://maps.google.com/mapfiles/kml/paddle/red-blank.png</href></Icon><color>ff0000ff</color><hotSpot x="32" y="1" xunits="pixels" yunits="pixels"/></IconStyle></Style>
<Style id="exp"><IconStyle><Icon><href>https://maps.google.com/mapfiles/kml/paddle/blu-blank.png</href></Icon><color>ffff0000</color><hotSpot x="32" y="1" xunits="pixels" yunits="pixels"/></IconStyle></Style>
<Style id="ent"><IconStyle><Icon><href>https://maps.google.com/mapfiles/kml/paddle/grn-blank.png</href></Icon><color>ff00ff00</color><hotSpot x="32" y="1" xunits="pixels" yunits="pixels"/></IconStyle></Style>
<Style id="surf"><LineStyle><color>ff00ff00</color></LineStyle></Style>
<Style id="splay"><LineStyle><color>40ff00ff</color></LineStyle></Style>
<Placemark><MultiGeometry><LineString><altitudeMode>absolute</altitudeMode><coordinates>
13.05894434,47.53070607,1731.32
13.05887944,47.53074024,1732.40
13.05884066,47.53072888,1732.13
13.05881755,47.53073605,1730.99
13.05878552,47.53073271,1732.58
13.05882292,47.53074882,1730.83
13.05878851,47.53075958,1728.14
13.05873617,47.53077030,1727.25
13.05871904,47.53077361,1728.56
13.05875557,47.53080986,1727.27
13.05881254,47.53081776,1724.41
13.05894479,47.53094948,1721.26
</coordinates></LineString>
<LineString><altitudeMode>absolute</altitudeMode><coordinates>
13.05894479,47.53094948,1721.26
13.05895102,47.53097145,1727.03
13.05900999,47.53101528,1730.84
13.05901423,47.53104802,1738.64
13.05906279,47.53107143,1737.04
13.05906237,47.53108285,1737.23
13.05909084,47.53109611,1737.35
13.05912555,47.53113485,1733.90
13.05918466,47.53117859,1736.73
13.05921167,47.53123133,1734.55
13.05921564,47.53126424,1732.22
13.05923743,47.53125336,1732.26
13.05927022,47.53121828,1724.98
13.05929605,47.53124905,1727.24
13.05933210,47.53129474,1728.75
13.05932073,47.53131119,1729.45
13.05932488,47.53134645,1731.22
13.05932120,47.53138850,1734.38
</coordinates></LineString>
<LineString><altitudeMode>absolute</altitudeMode><coordinates>
13.05903841,47.53062326,1731.89
13.05900616,47.53066554,1730.52
13.05900074,47.53067544,1730.47
13.05898194,47.53068808,1731.39
13.05894434,47.53070607,1731.32
</coordinates></LineString>
<LineString><altitudeMode>absolute</altitudeMode><coordinates>
13.05907975,47.53041024,1718.47
13.05910808,47.53042386,1719.76
13.05917128,47.53047910,1723.47
13.05919914,47.53051620,1725.95
</coordinates></LineString>
<LineString><altitudeMode>absolute</altitudeMode><coordinates>
13.05919914,47.53051620,1725.95
13.05920123,47.53055304,1728.24
13.05903841,47.53062326,1731.89
</coordinates></LineString>
<LineString><altitudeMode>absolute</altitudeMode><coordinates>
13.05881833,47.53047718,1712.58
13.05881816,47.53045315,1712.56
13.05889370,47.53045829,1714.09
13.05897571,47.53042144,1715.89
13.05901092,47.53042852,1717.01
13.05906099,47.53042918,1718.27
13.05907975,47.53041024,1718.47
</coordinates></LineString>
<LineString><altitudeMode>absolute</altitudeMode><coordinates>
13.05895827,47.53059859,1705.15
13.05894106,47.53057176,1706.41
13.05891759,47.53057766,1704.94
13.05884289,47.53051394,1709.84
13.05881833,47.53047718,1712.58
</coordinates></LineString>
<LineString><altitudeMode>absolute</altitudeMode><coordinates>
13.05945722,47.53024809,1727.50
13.05946583,47.53019128,1731.62
13.05941424,47.53014892,1732.58
13.05949175,47.53013332,1734.19
13.05952881,47.53007573,1736.35
13.05960225,47.53007301,1736.97
13.05965214,47.53006036,1737.95
13.05967612,47.53007300,1737.81
13.05965535,47.53008498,1737.13
13.05967034,47.53011097,1735.49
13.05967657,47.53014005,1734.72
13.05966353,47.53014424,1734.15
13.05968276,47.53017399,1733.61
13.05961731,47.53017621,1733.24
13.05956281,47.53019148,1732.44
13.05951313,47.53021629,1732.07
13.05945722,47.53024809,1727.50
</coordinates></LineString>
<LineString><altitudeMode>absolute</altitudeMode><coordinates>
13.05945722,47.53024809,1727.50
13.05942429,47.53022243,1727.58
13.05934207,47.53021447,1724.05
13.05930892,47.53022363,1723.99
13.05932331,47.53024412,1721.30
13.05933994,47.53027958,1719.02
13.05930178,47.53030557,1717.76
13.05927079,47.53030991,1718.06
13.05925899,47.53032365,1719.12
13.05912816,47.53035131,1717.79
13.05908940,47.53039007,1717.71
13.05907975,47.53041024,1718.47
</coordinates></LineString>
<LineString><altitudeMode>absolute</altitudeMode><coordinates>
13.05898650,47.53065090,1701.61
13.05900279,47.53067403,1701.57
</coordinates></LineString>
<LineString><altitudeMode>absolute</altitudeMode><coordinates>
13.05900279,47.53067403,1701.57
13.05903185,47.53062449,1703.46
13.05899892,47.53062043,1704.23
13.05895827,47.53059859,1705.15
</coordinates></LineString>
<LineString><altitudeMode>absolute</altitudeMode><coordinates>
13.05898650,47.53065090,1701.61
13.05892844,47.53065811,1701.62
13.05890983,47.53062243,1702.85
13.05895827,47.53059859,1705.15
</coordinates></LineString>
<LineString><altitudeMode>absolute</altitudeMode><coordinates>
13.05898650,47.53065090,1701.61
13.05896949,47.53067257,1707.69
13.05896151,47.53068728,1714.41
13.05897750,47.53070042,1715.30
13.05894701,47.53070566,1717.17
13.05892601,47.53071323,1725.50
13.05896531,47.53072127,1727.68
13.05896743,47.53072131,1728.65
13.05894434,47.53070607,1731.32
</coordinates></LineString>
<LineString><altitudeMode>absolute</altitudeMode><coordinates>
13.05839724,47.53032031,1709.81
13.05836060,47.53031960,1713.29
13.05833847,47.53026767,1716.39
13.05838139,47.53025292,1718.64
13.05833844,47.53025750,1718.15
13.05827632,47.53025608,1717.35
13.05826210,47.53022732,1717.88
13.05819328,47.53020924,1719.05
13.05817736,47.53019070,1719.99
13.05825924,47.53016806,1716.90
13.05833371,47.53012298,1712.63
13.05830626,47.53009282,1711.57
13.05828784,47.53006641,1713.03
13.05824967,47.53004948,1714.95
13.05825310,47.53002497,1717.02
</coordinates></LineString>
<LineString><altitudeMode>absolute</altitudeMode><coordinates>
13.05825310,47.53002497,1717.02
13.05820986,47.53003009,1716.50
13.05815516,47.53002556,1714.62
13.05811740,47.53000819,1713.34
13.05807252,47.53004000,1710.65
13.05794197,47.53004931,1709.14
13.05794388,47.53003350,1708.21
13.05791219,47.53001749,1707.79
13.05787040,47.53001579,1706.61
13.05784434,47.53000905,1707.42
13.05782362,47.53001239,1707.81
13.05782481,47.52999819,1706.69
13.05781059,47.52998049,1706.27
13.05783279,47.52995837,1703.83
13.05783893,47.52992887,1703.05
13.05788094,47.52992455,1703.71
13.05787037,47.52990862,1703.30
13.05777072,47.52990504,1702.39
13.05774042,47.52991614,1702.03
13.05771125,47.52990376,1702.02
13.05766516,47.52990334,1701.37
13.05763479,47.52991624,1700.66
13.05764069,47.52993271,1700.28
13.05760474,47.52994218,1699.30
13.05757994,47.52993006,1699.03
13.05755372,47.52993502,1699.13
13.05753242,47.52992881,1698.25
13.05754054,47.52996818,1696.82
13.05745741,47.52999566,1693.90
13.05744326,47.53000486,1693.68
13.05742800,47.53001504,1696.38
13.05740968,47.53003255,1697.96
13.05740587,47.53002430,1697.83
13.05738437,47.53002006,1698.52
13.05736776,47.53002356,1699.79
13.05732867,47.53001003,1700.50
13.05730904,47.53000925,1699.74
13.05722653,47.52999120,1699.58
13.05718077,47.52997486,1699.82
13.05712060,47.52996007,1700.32
13.05712806,47.52991638,1699.14
13.05708869,47.52990662,1699.16
13.05706064,47.52991803,1698.94
13.05698341,47.52992266,1697.03
13.05698193,47.52994819,1696.31
13.05695934,47.52996976,1697.72
13.05695991,47.52998678,1699.16
13.05693578,47.52998178,1700.06
13.05691441,47.52999941,1702.46
13.05684157,47.53007205,1711.22
</coordinates></LineString>
<LineString><altitudeMode>absolute</altitudeMode><coordinates>
13.05684157,47.53007205,1711.22
13.05687750,47.53003811,1709.24
13.05691114,47.53006261,1710.59
13.05695832,47.53004794,1710.53
13.05700146,47.53005965,1711.44
13.05704678,47.53009875,1715.52
13.05708872,47.53010738,1716.76
13.05709057,47.53011821,1717.66
</coordinates></LineString>
<LineString><altitudeMode>absolute</altitudeMode><coordinates>
13.05839724,47.53032031,1709.81
13.05842180,47.53035321,1711.16
13.05851491,47.53034327,1713.69
13.05852781,47.53037525,1713.71
13.05854262,47.53039503,1714.30
13.05855189,47.53041390,1713.81
13.05864074,47.53040398,1712.54
13.05870190,47.53049635,1708.30
13.05881833,47.53047718,1712.58
</coordinates></LineString>
<LineString><altitudeMode>absolute</altitudeMode><coordinates>
13.05843074,47.53039530,1736.64
13.05826857,47.53036141,1734.96
13.05830415,47.53032989,1735.58
13.05830667,47.53031923,1735.67
13.05826420,47.53029637,1737.53
13.05823499,47.53025997,1733.21
</coordinates></LineString>
<LineString><altitudeMode>absolute</altitudeMode><coordinates>
13.05843074,47.53039530,1736.64
13.05836379,47.53038426,1734.99
13.05836571,47.53035028,1727.91
13.05839724,47.53032031,1709.81
</coordinates></LineString>
<LineString><altitudeMode>absolute</altitudeMode><coordinates>
13.05843074,47.53039530,1736.64
13.05841938,47.53041886,1736.84
13.05844808,47.53043320,1736.73
13.05843634,47.53042373,1739.96
</coordinates></LineString>
<LineString><altitudeMode>absolute</altitudeMode><coordinates>
13.05843634,47.53042373,1739.96
13.05847170,47.53045565,1739.66
13.05854512,47.53046067,1739.17
13.05859234,47.53046273,1738.76
13.05860760,47.53048845,1738.29
13.05865594,47.53049620,1736.36
13.05870416,47.53051798,1735.79
13.05876868,47.53050873,1735.79
13.05883110,47.53051653,1735.31
</coordinates></LineString>
<LineString><altitudeMode>absolute</altitudeMode><coordinates>
13.05883110,47.53051653,1735.31
13.05889756,47.53051217,1736.12
13.05895151,47.53049752,1736.63
13.05899693,47.53054481,1734.80
13.05903562,47.53056202,1733.93
13.05903841,47.53062326,1731.89
</coordinates></LineString>
<LineString><altitudeMode>absolute</altitudeMode><coordinates>
13.05817221,47.53021851,1732.86
13.05817048,47.53020057,1732.88
13.05820617,47.53020927,1730.58
13.05828298,47.53020518,1730.60
13.05832310,47.53021620,1733.86
13.05830196,47.53022727,1733.85
13.05823499,47.53025997,1733.21
</coordinates></LineString>
<LineString><altitudeMode>absolute</altitudeMode><coordinates>
13.05817221,47.53021851,1732.86
13.05818485,47.53027568,1731.88
13.05823499,47.53025997,1733.21
</coordinates></LineString>
<LineString><altitudeMode>absolute</altitudeMode><coordinates>
13.05483114,47.53012533,1735.91
13.05472820,47.53009938,1732.72
13.05469875,47.53014855,1732.76
13.05472255,47.53017676,1731.29
13.05472688,47.53020707,1730.29
13.05473664,47.53022334,1729.98
13.05478168,47.53023752,1730.63
13.05477181,47.53027811,1730.65
13.05476182,47.53028964,1729.37
13.05475202,47.53029964,1729.18
13.05472314,47.53031895,1729.49
13.05464975,47.53034893,1733.41
13.05452558,47.53033314,1735.58
13.05450690,47.53029926,1735.94
13.05455422,47.53027361,1737.84
13.05465138,47.53025456,1738.89
13.05475891,47.53022831,1738.96
13.05480749,47.53020439,1738.38
13.05477464,47.53015857,1738.73
13.05483114,47.53012533,1735.91
</coordinates></LineString>
<LineString><altitudeMode>absolute</altitudeMode><coordinates>
13.05576295,47.53061266,1729.29
13.05573202,47.53057947,1732.12
13.05567838,47.53058936,1732.07
13.05558730,47.53059105,1732.84
13.05556396,47.53052542,1731.51
13.05550335,47.53047202,1730.09
13.05542223,47.53051734,1733.03
13.05527128,47.53046376,1737.50
13.05515486,47.53043956,1742.18
13.05513242,47.53037826,1740.31
13.05515262,47.53033847,1738.22
13.05505049,47.53023686,1740.96
13.05501475,47.53019009,1739.53
13.05496826,47.53016833,1738.45
13.05496586,47.53013248,1738.78
</coordinates></LineString>
<LineString><altitudeMode>absolute</altitudeMode><coordinates>
13.05496586,47.53013248,1738.78
13.05491916,47.53013799,1740.39
13.05487734,47.53012999,1739.08
13.05483114,47.53012533,1735.91
</coordinates></LineString>
<LineString><altitudeMode>absolute</altitudeMode><coordinates>
13.05579370,47.53086261,1733.79
13.05582596,47.53087756,1734.64
13.05580953,47.53090517,1734.97
13.05576433,47.53088803,1734.42
13.05576620,47.53086952,1732.68
13.05578373,47.53085560,1732.99
13.05579370,47.53086261,1733.79
</coordinates></LineString>
<LineString><altitudeMode>absolute</altitudeMode><coordinates>
13.05579370,47.53086261,1733.79
13.05583098,47.53083166,1729.34
13.05582510,47.53081815,1729.15
13.05578134,47.53083019,1730.06
13.05577745,47.53080961,1730.20
13.05571395,47.53077002,1730.58
13.05566870,47.53077933,1732.48
13.05564964,47.53074139,1731.59
13.05561812,47.53071710,1730.72
13.05568013,47.53068216,1729.86
13.05569782,47.53065294,1730.49
13.05576295,47.53061266,1729.29
</coordinates></LineString>
<LineString><altitudeMode>absolute</altitudeMode><coordinates>
13.05999320,47.53147564,1723.48
13.06005966,47.53150376,1708.20
</coordinates></LineString>
<LineString><altitudeMode>absolute</altitudeMode><coordinates>
13.06005966,47.53150376,1708.20
13.06010652,47.53153352,1710.48
13.06011700,47.53156304,1705.17
13.06013474,47.53157899,1706.75
13.06014896,47.53159696,1707.70
13.06013768,47.53159668,1709.32
13.06014920,47.53163359,1710.95
13.06016216,47.53164604,1714.98
13.06014043,47.53168779,1719.24
13.06016263,47.53172713,1722.93
13.06022440,47.53171665,1727.81
13.06024992,47.53167308,1729.87
13.06015801,47.53161466,1729.27
13.06003568,47.53158469,1737.37
13.05995061,47.53153529,1734.22
13.05999320,47.53147564,1723.48
</coordinates></LineString>
<LineString><altitudeMode>absolute</altitudeMode><coordinates>
13.05999320,47.53147564,1723.48
13.05983406,47.53142804,1727.58
13.05984399,47.53142542,1735.16
13.05978604,47.53139699,1736.87
13.05974730,47.53135234,1737.42
13.05971871,47.53134942,1736.83
13.05961528,47.53135469,1736.86
13.05950825,47.53137483,1734.14
13.05947626,47.53140624,1737.28
13.05943919,47.53139202,1736.94
13.05936947,47.53137294,1736.94
13.05936647,47.53135696,1735.56
13.05932120,47.53138850,1734.38
</coordinates></LineString>
<LineString><altitudeMode>absolute</altitudeMode><coordinates>
13.05755704,47.53015455,1730.38
13.05767253,47.53010314,1727.23
13.05784162,47.53008270,1732.44
13.05783424,47.53011713,1732.63
13.05784179,47.53018232,1734.49
13.05794194,47.53017600,1733.56
13.05793053,47.53020434,1733.03
13.05797615,47.53022095,1732.89
13.05806528,47.53022866,1734.96
13.05817221,47.53021851,1732.86
</coordinates></LineString>
<LineString><altitudeMode>absolute</altitudeMode><coordinates>
13.05710202,47.53033355,1742.13
13.05702416,47.53027230,1736.92
13.05703279,47.53025094,1733.75
13.05709057,47.53011821,1717.66
</coordinates></LineString>
<LineString><altitudeMode>absolute</altitudeMode><coordinates>
13.05710202,47.53033355,1742.13
13.05693855,47.53031674,1743.28
13.05687300,47.53029287,1740.50
13.05680515,47.53031349,1737.38
13.05664400,47.53030581,1737.17
13.05661155,47.53029248,1736.90
13.05650394,47.53032080,1736.24
13.05631997,47.53028394,1736.13
13.05624291,47.53029109,1736.83
13.05615466,47.53030633,1733.71
13.05613694,47.53034707,1732.32
13.05605281,47.53034780,1732.51
13.05603770,47.53034700,1729.86
13.05600214,47.53035630,1731.05
13.05593438,47.53035632,1733.94
13.05583752,47.53038176,1738.42
13.05595369,47.53043430,1732.03
13.05598966,47.53042430,1729.04
13.05595212,47.53048737,1729.16
13.05601727,47.53053292,1725.99
13.05590396,47.53060416,1728.89
13.05582087,47.53061994,1726.95
13.05576295,47.53061266,1729.29
</coordinates></LineString>
<LineString><altitudeMode>absolute</altitudeMode><coordinates>
13.05710202,47.53033355,1742.13
13.05720469,47.53033421,1741.33
13.05726670,47.53029936,1740.21
13.05738659,47.53023687,1738.00
13.05751884,47.53023533,1736.77
13.05755704,47.53015455,1730.38
</coordinates></LineString>
<LineString><altitudeMode>absolute</altitudeMode><coordinates>
13.05731228,47.53017334,1727.99
13.05733148,47.53013552,1727.15
13.05724264,47.53009478,1721.66
13.05715459,47.53012604,1720.52
13.05709057,47.53011821,1717.66
</coordinates></LineString>
<LineString><altitudeMode>absolute</altitudeMode><coordinates>
13.05731228,47.53017334,1727.99
13.05728112,47.53020755,1732.37
13.05724599,47.53024484,1733.41
13.05716727,47.53026816,1735.18
13.05710202,47.53033355,1742.13
</coordinates></LineString>
<LineString><altitudeMode>absolute</altitudeMode><coordinates>
13.05731228,47.53017334,1727.99
13.05734929,47.53014230,1730.99
13.05737678,47.53013907,1731.32
13.05738764,47.53011838,1729.66
13.05740382,47.53011560,1727.81
13.05744228,47.53016088,1729.31
13.05750913,47.53016012,1730.77
13.05755704,47.53015455,1730.38
</coordinates></LineString>
<LineString><altitudeMode>absolute</altitudeMode><coordinates>
13.05897205,47.53251098,1992.00
13.05893371,47.53251303,1983.47
13.05893593,47.53253565,1983.81
13.05894510,47.53254994,1983.47
13.05896888,47.53255367,1983.19
13.05897348,47.53256239,1983.16
13.05897542,47.53258168,1972.53
13.05899187,47.53258240,1962.11
13.05897709,47.53259763,1946.35
13.05900163,47.53259157,1939.47
13.05899938,47.53260926,1929.17
13.05894869,47.53262558,1929.46
</coordinates></LineString>
<LineString><altitudeMode>absolute</altitudeMode><coordinates>
13.05894869,47.53262558,1929.46
13.05891538,47.53263537,1926.42
13.05888787,47.53263175,1925.46
13.05888038,47.53262236,1924.95
13.05885259,47.53261928,1922.65
13.05883112,47.53262494,1921.76
13.05881889,47.53261817,1919.94
13.05880351,47.53264238,1920.02
13.05877923,47.53264152,1919.87
</coordinates></LineString>
<LineString><altitudeMode>absolute</altitudeMode><coordinates>
13.05877923,47.53264152,1919.87
13.05877442,47.53267105,1919.82
</coordinates></LineString>
<LineString><altitudeMode>absolute</altitudeMode><coordinates>
13.05877442,47.53267105,1919.82
13.05877196,47.53267640,1914.55
13.05874825,47.53265998,1904.10
13.05873992,47.53262304,1897.43
13.05866319,47.53265000,1897.92
13.05865874,47.53262994,1897.52
13.05865365,47.53262410,1896.04
13.05861122,47.53261798,1889.24
13.05859040,47.53263841,1892.29
</coordinates></LineString>
<LineString><altitudeMode>absolute</altitudeMode><coordinates>
13.05859040,47.53263841,1892.29
13.05858545,47.53259982,1891.57
13.05860104,47.53257714,1891.12
13.05861406,47.53256980,1891.88
13.05861978,47.53255892,1891.62
13.05863741,47.53256002,1888.87
13.05863783,47.53254860,1888.37
13.05864665,47.53254353,1889.52
13.05864128,47.53252725,1889.66
13.05865118,47.53252903,1880.66
13.05867090,47.53250930,1880.60
13.05867571,47.53251955,1873.01
13.05868646,47.53248032,1873.34
13.05867724,47.53245659,1870.53
13.05865557,47.53246027,1868.85
</coordinates></LineString>
<LineString><altitudeMode>absolute</altitudeMode><coordinates>
13.05865557,47.53246027,1868.85
13.05862274,47.53243542,1856.35
13.05851931,47.53241927,1821.49
13.05852246,47.53236623,1815.90
13.05854692,47.53234433,1815.99
13.05852707,47.53227012,1763.76
13.05855896,47.53232402,1752.40
</coordinates></LineString>
<LineString><altitudeMode>absolute</altitudeMode><coordinates>
13.05855896,47.53232402,1752.40
13.05859497,47.53226281,1752.55
13.05867760,47.53221274,1750.71
13.05865569,47.53215856,1752.65
13.05870567,47.53215436,1744.86
13.05870816,47.53213011,1746.07
13.05875137,47.53214011,1744.96
13.05874862,47.53215698,1740.41
13.05877396,47.53217235,1740.77
13.05880777,47.53217436,1741.61
13.05887386,47.53215838,1744.38
13.05891591,47.53218528,1744.92
13.05897104,47.53219656,1737.08
13.05898307,47.53212604,1737.64
13.05900372,47.53209930,1737.04
13.05900924,47.53206862,1737.05
13.05902484,47.53204567,1736.55
13.05902166,47.53202726,1737.17
13.05905283,47.53192071,1735.75
13.05904747,47.53186096,1736.51
13.05912369,47.53180448,1735.12
13.05910954,47.53176302,1737.24
13.05917334,47.53170831,1736.34
13.05920032,47.53170454,1734.77
13.05921121,47.53166864,1734.37
13.05930347,47.53162773,1736.09
13.05934627,47.53159129,1732.94
13.05928065,47.53158001,1732.73
13.05926549,47.53153711,1732.90
</coordinates></LineString>
<LineString><altitudeMode>absolute</altitudeMode><coordinates>
13.05926549,47.53153711,1732.90
13.05925267,47.53150305,1730.80
13.05927283,47.53147136,1730.37
13.05929080,47.53141651,1728.69
13.05929419,47.53138957,1732.38
13.05932120,47.53138850,1734.38
</coordinates></LineString>
<LineString><altitudeMode>absolute</altitudeMode><coordinates>
13.05899938,47.53260926,1929.17
13.05899718,47.53256810,1928.10
13.05900646,47.53255431,1928.97
13.05902392,47.53255280,1934.43
</coordinates></LineString>
<LineString><altitudeMode>absolute</altitudeMode><coordinates>
13.05859040,47.53263841,1892.29
13.05859040,47.53263841,1892.29
</coordinates></LineString>
<LineString><altitudeMode>absolute</altitudeMode><coordinates>
13.05859040,47.53263841,1892.29
13.05858816,47.53268472,1888.16
</coordinates></LineString>
<LineString><altitudeMode>absolute</altitudeMode><coordinates>
13.05855896,47.53232402,1752.40
13.05855701,47.53233370,1752.41
13.05854491,47.53236985,1738.40
13.05860055,47.53240679,1735.44
</coordinates></LineString>
<LineString><altitudeMode>absolute</altitudeMode><coordinates>
13.05860055,47.53240679,1735.44
13.05860776,47.53242374,1733.19
</coordinates></LineString>
<LineString><altitudeMode>absolute</altitudeMode><coordinates>
13.05860776,47.53242374,1733.19
13.05865269,47.53240533,1727.74
</coordinates></LineString>
<LineString><altitudeMode>absolute</altitudeMode><coordinates>
13.05865269,47.53240533,1727.74
13.05867701,47.53235472,1729.12
</coordinates></LineString>
<LineString><altitudeMode>absolute</altitudeMode><coordinates>
13.05867701,47.53235472,1729.12
13.05874721,47.53236437,1727.27
</coordinates></LineString>
<LineString><altitudeMode>absolute</altitudeMode><coordinates>
13.05874721,47.53236437,1727.27
13.05874294,47.53238265,1726.88
</coordinates></LineString>
<LineString><altitudeMode>absolute</altitudeMode><coordinates>
13.05874294,47.53238265,1726.88
13.05876583,47.53239267,1724.72
</coordinates></LineString>
<LineString><altitudeMode>absolute</altitudeMode><coordinates>
13.05876583,47.53239267,1724.72
13.05876939,47.53240767,1724.66
</coordinates></LineString>
<LineString><altitudeMode>absolute</altitudeMode><coordinates>
13.05876939,47.53240767,1724.66
13.05877092,47.53242389,1725.57
</coordinates></LineString>
<LineString><altitudeMode>absolute</altitudeMode><coordinates>
13.05877092,47.53242389,1725.57
13.05878239,47.53242615,1725.47
</coordinates></LineString>
<LineString><altitudeMode>absolute</altitudeMode><coordinates>
13.05878239,47.53242615,1725.47
13.05879973,47.53242078,1726.16
</coordinates></LineString>
<LineString><altitudeMode>absolute</altitudeMode><coordinates>
13.05879973,47.53242078,1726.16
13.05880022,47.53241827,1725.68
</coordinates></LineString>
<LineString><altitudeMode>absolute</altitudeMode><coordinates>
13.05880022,47.53241827,1725.68
13.05883539,47.53240861,1724.48
</coordinates></LineString>
<LineString><altitudeMode>absolute</altitudeMode><coordinates>
13.05883539,47.53240861,1724.48
13.05884538,47.53240086,1724.27
</coordinates></LineString>
<LineString><altitudeMode>absolute</altitudeMode><coordinates>
13.05884538,47.53240086,1724.27
13.05886636,47.53240481,1724.88
</coordinates></LineString>
<LineString><altitudeMode>absolute</altitudeMode><coordinates>
13.05886636,47.53240481,1724.88
13.05893139,47.53236704,1722.28
</coordinates></LineString>
<LineString><altitudeMode>absolute</altitudeMode><coordinates>
13.05893139,47.53236704,1722.28
13.05896228,47.53236909,1719.84
</coordinates></LineString>
<LineString><altitudeMode>absolute</altitudeMode><coordinates>
13.05896228,47.53236909,1719.84
13.05897621,47.53236600,1716.50
</coordinates></LineString>
<LineString><altitudeMode>absolute</altitudeMode><coordinates>
13.05874721,47.53236437,1727.27
13.05876580,47.53237179,1725.05
</coordinates></LineString>
<LineString><altitudeMode>absolute</altitudeMode><coordinates>
13.05876580,47.53237179,1725.05
13.05879679,47.53237439,1722.76
13.05881868,47.53237908,1722.19
13.05881331,47.53239482,1721.74
</coordinates></LineString>
<LineString><altitudeMode>absolute</altitudeMode><coordinates>
13.05917334,47.53170831,1736.34
13.05914315,47.53167667,1737.73
</coordinates></LineString>
<LineString><altitudeMode>absolute</altitudeMode><coordinates>
13.05914315,47.53167667,1737.73
13.05914724,47.53167035,1738.89
</coordinates></LineString>
<LineString><altitudeMode>absolute</altitudeMode><coordinates>
13.05914724,47.53167035,1738.89
13.05915370,47.53166452,1739.89
</coordinates></LineString>
<LineString><altitudeMode>absolute</altitudeMode><coordinates>
13.05915370,47.53166452,1739.89
13.05916346,47.53165938,1741.14
</coordinates></LineString>
<LineString><altitudeMode>absolute</altitudeMode><coordinates>
13.05916346,47.53165938,1741.14
13.05915050,47.53164323,1741.19
</coordinates></LineString>
<LineString><altitudeMode>absolute</altitudeMode><coordinates>
13.05932488,47.53134645,1731.22
13.05928442,47.53133037,1728.26
</coordinates></LineString>
<LineString><altitudeMode>absolute</altitudeMode><coordinates>
13.05928442,47.53133037,1728.26
13.05925877,47.53134479,1727.29
</coordinates></LineString>
<LineString><altitudeMode>absolute</altitudeMode><coordinates>
13.05925877,47.53134479,1727.29
13.05924554,47.53136139,1727.33
</coordinates></LineString>
<LineString><altitudeMode>absolute</altitudeMode><coordinates>
13.05921564,47.53126424,1732.22
13.05916735,47.53123346,1732.28
</coordinates></LineString>
<LineString><altitudeMode>absolute</altitudeMode><coordinates>
13.05916735,47.53123346,1732.28
13.05914662,47.53121196,1732.58
</coordinates></LineString>
<LineString><altitudeMode>absolute</altitudeMode><coordinates>
13.05878552,47.53073271,1732.58
13.05879099,47.53069960,1733.84
</coordinates></LineString>
<LineString><altitudeMode>absolute</altitudeMode><coordinates>
13.05879099,47.53069960,1733.84
13.05877326,47.53067240,1733.61
13.05876976,47.53066640,1733.89
</coordinates></LineString>
<LineString><altitudeMode>absolute</altitudeMode><coordinates>
13.05876976,47.53066640,1733.89
13.05876037,47.53066543,1733.96
</coordinates></LineString>
<LineString><altitudeMode>absolute</altitudeMode><coordinates>
13.05879099,47.53069960,1733.84
13.05879463,47.53071613,1736.40
</coordinates></LineString>
<LineString><altitudeMode>absolute</altitudeMode><coordinates>
13.05879463,47.53071613,1736.40
13.05873963,47.53070179,1736.71
</coordinates></LineString>
<LineString><altitudeMode>absolute</altitudeMode><coordinates>
13.05873963,47.53070179,1736.71
13.05872370,47.53066895,1736.94
</coordinates></LineString>
<LineString><altitudeMode>absolute</altitudeMode><coordinates>
13.05872370,47.53066895,1736.94
13.05871337,47.53066094,1733.80
</coordinates></LineString>
<LineString><altitudeMode>absolute</altitudeMode><coordinates>
13.05871337,47.53066094,1733.80
13.05867549,47.53065751,1732.19
</coordinates></LineString>
<LineString><altitudeMode>absolute</altitudeMode><coordinates>
13.05900279,47.53067403,1701.57
13.05905891,47.53067264,1700.86
</coordinates></LineString>
<LineString><altitudeMode>absolute</altitudeMode><coordinates>
13.05905891,47.53067264,1700.86
13.05908330,47.53069222,1700.40
</coordinates></LineString>
<LineString><altitudeMode>absolute</altitudeMode><coordinates>
13.05908330,47.53069222,1700.40
13.05912657,47.53068243,1700.11
</coordinates></LineString>
<LineString><altitudeMode>absolute</altitudeMode><coordinates>
13.05912657,47.53068243,1700.11
13.05914208,47.53070852,1700.08
</coordinates></LineString>
<LineString><altitudeMode>absolute</altitudeMode><coordinates>
13.05914208,47.53070852,1700.08
13.05922840,47.53070980,1698.60
</coordinates></LineString>
<LineString><altitudeMode>absolute</altitudeMode><coordinates>
13.05922840,47.53070980,1698.60
13.05922929,47.53072520,1698.98
</coordinates></LineString>
<LineString><altitudeMode>absolute</altitudeMode><coordinates>
13.05922929,47.53072520,1698.98
13.05928120,47.53072257,1699.22
</coordinates></LineString>
<LineString><altitudeMode>absolute</altitudeMode><coordinates>
13.05897104,47.53219656,1737.08
13.05894001,47.53221628,1738.99
</coordinates></LineString>
<LineString><altitudeMode>absolute</altitudeMode><coordinates>
13.05894001,47.53221628,1738.99
13.05895741,47.53225617,1734.56
</coordinates></LineString>
<LineString><altitudeMode>absolute</altitudeMode><coordinates>
13.05895741,47.53225617,1734.56
13.05892303,47.53229500,1734.23
</coordinates></LineString>
<LineString><altitudeMode>absolute</altitudeMode><coordinates>
13.05892303,47.53229500,1734.23
13.05892987,47.53231464,1733.62
</coordinates></LineString>
<LineString><altitudeMode>absolute</altitudeMode><coordinates>
13.05892987,47.53231464,1733.62
13.05890565,47.53233016,1735.04
</coordinates></LineString>
<LineString><altitudeMode>absolute</altitudeMode><coordinates>
13.05890565,47.53233016,1735.04
13.05887311,47.53243048,1736.61
</coordinates></LineString>
<LineString><altitudeMode>absolute</altitudeMode><coordinates>
13.05887311,47.53243048,1736.61
13.05888424,47.53248178,1737.89
</coordinates></LineString>
<LineString><altitudeMode>absolute</altitudeMode><coordinates>
13.05888424,47.53248178,1737.89
13.05888033,47.53247973,1738.02
</coordinates></LineString>
<LineString><altitudeMode>absolute</altitudeMode><coordinates>
13.05888033,47.53247973,1738.02
13.05887740,47.53249426,1737.79
</coordinates></LineString>
<LineString><altitudeMode>absolute</altitudeMode><coordinates>
13.05887740,47.53249426,1737.79
13.05886645,47.53249938,1737.67
</coordinates></LineString>
<LineString><altitudeMode>absolute</altitudeMode><coordinates>
13.05886645,47.53249938,1737.67
13.05886033,47.53250324,1737.32
</coordinates></LineString>
<LineString><altitudeMode>absolute</altitudeMode><coordinates>
13.05886033,47.53250324,1737.32
13.05884679,47.53249932,1737.45
</coordinates></LineString>
<LineString><altitudeMode>absolute</altitudeMode><coordinates>
13.05884679,47.53249932,1737.45
13.05885287,47.53251094,1737.55
</coordinates></LineString>
<LineString><altitudeMode>absolute</altitudeMode><coordinates>
13.05928120,47.53072257,1699.22
13.05933127,47.53068715,1702.22
13.05929809,47.53066095,1702.69
13.05925826,47.53059197,1704.76
13.05924420,47.53056960,1702.64
</coordinates></LineString>
<LineString><altitudeMode>absolute</altitudeMode><coordinates>
13.05928120,47.53072257,1699.22
13.05925289,47.53074108,1698.44
</coordinates></LineString>
<LineString><altitudeMode>absolute</altitudeMode><coordinates>
13.05925289,47.53074108,1698.44
13.05927864,47.53077778,1697.98
</coordinates></LineString>
<LineString><altitudeMode>absolute</altitudeMode><coordinates>
13.05927864,47.53077778,1697.98
13.05921171,47.53079104,1696.42
</coordinates></LineString>
<LineString><altitudeMode>absolute</altitudeMode><coordinates>
13.05921171,47.53079104,1696.42
13.05919721,47.53081329,1695.44
</coordinates></LineString>
<LineString><altitudeMode>absolute</altitudeMode><coordinates>
13.05919721,47.53081329,1695.44
13.05914485,47.53081357,1694.31
</coordinates></LineString>
<LineString><altitudeMode>absolute</altitudeMode><coordinates>
13.05914485,47.53081357,1694.31
13.05909438,47.53083827,1692.64
</coordinates></LineString>
<LineString><altitudeMode>absolute</altitudeMode><coordinates>
13.05909438,47.53083827,1692.64
13.05908025,47.53083237,1692.50
</coordinates></LineString>
<LineString><altitudeMode>absolute</altitudeMode><coordinates>
13.05908025,47.53083237,1692.50
13.05908151,47.53085578,1691.40
</coordinates></LineString>
<LineString><altitudeMode>absolute</altitudeMode><coordinates>
13.05908151,47.53085578,1691.40
13.05906140,47.53086777,1691.06
</coordinates></LineString>
<LineString><altitudeMode>absolute</altitudeMode><coordinates>
13.05906140,47.53086777,1691.06
13.05908042,47.53087826,1690.47
</coordinates></LineString>
<LineString><altitudeMode>absolute</altitudeMode><coordinates>
13.05908042,47.53087826,1690.47
13.05903318,47.53088025,1689.50
</coordinates></LineString>
<LineString><altitudeMode>absolute</altitudeMode><coordinates>
13.05930892,47.53022363,1723.99
13.05929505,47.53017471,1728.54
</coordinates></LineString>
<LineString><altitudeMode>absolute</altitudeMode><coordinates>
13.05929505,47.53017471,1728.54
13.05930349,47.53016190,1731.14
</coordinates></LineString>
<LineString><altitudeMode>absolute</altitudeMode><coordinates>
13.05930349,47.53016190,1731.14
13.05932285,47.53009447,1736.05
</coordinates></LineString>
<LineString><altitudeMode>absolute</altitudeMode><coordinates>
13.05932285,47.53009447,1736.05
13.05932277,47.53007512,1737.58
</coordinates></LineString>
<LineString><altitudeMode>absolute</altitudeMode><coordinates>
13.05967612,47.53007300,1737.81
13.05973010,47.53005043,1738.79
</coordinates></LineString>
<LineString><altitudeMode>absolute</altitudeMode><coordinates>
13.05973010,47.53005043,1738.79
13.05978816,47.53005402,1738.45
</coordinates></LineString>
<LineString><altitudeMode>absolute</altitudeMode><coordinates>
13.05978816,47.53005402,1738.45
13.05996387,47.53003423,1739.35
</coordinates></LineString>
<LineString><altitudeMode>absolute</altitudeMode><coordinates>
13.05996387,47.53003423,1739.35
13.06000368,47.53001754,1740.35
</coordinates></LineString>
<LineString><altitudeMode>absolute</altitudeMode><coordinates>
13.06000368,47.53001754,1740.35
13.06006931,47.53002126,1740.35
</coordinates></LineString>
<LineString><altitudeMode>absolute</altitudeMode><coordinates>
13.06006931,47.53002126,1740.35
13.06009071,47.53002828,1740.01
</coordinates></LineString>
<LineString><altitudeMode>absolute</altitudeMode><coordinates>
13.06009071,47.53002828,1740.01
13.06012109,47.53000414,1740.97
</coordinates></LineString>
<LineString><altitudeMode>absolute</altitudeMode><coordinates>
13.06012109,47.53000414,1740.97
13.06011781,47.52999229,1741.31
</coordinates></LineString>
<LineString><altitudeMode>absolute</altitudeMode><coordinates>
13.06011781,47.52999229,1741.31
13.06013751,47.52996968,1742.31
13.06026647,47.52993479,1743.53
</coordinates></LineString>
<LineString><altitudeMode>absolute</altitudeMode><coordinates>
13.06026647,47.52993479,1743.53
13.06029533,47.52997028,1742.70
</coordinates></LineString>
<LineString><altitudeMode>absolute</altitudeMode><coordinates>
13.06029533,47.52997028,1742.70
13.06031764,47.52998488,1742.01
13.06035051,47.52997967,1741.48
</coordinates></LineString>
<LineString><altitudeMode>absolute</altitudeMode><coordinates>
13.06035051,47.52997967,1741.48
13.06034887,47.53000259,1741.23
</coordinates></LineString>
<LineString><altitudeMode>absolute</altitudeMode><coordinates>
13.06034887,47.53000259,1741.23
13.06039477,47.53002244,1740.08
</coordinates></LineString>
<LineString><altitudeMode>absolute</altitudeMode><coordinates>
13.06039477,47.53002244,1740.08
13.06035780,47.53004161,1738.87
</coordinates></LineString>
<LineString><altitudeMode>absolute</altitudeMode><coordinates>
13.05930178,47.53030557,1717.76
13.05933045,47.53035312,1712.81
</coordinates></LineString>
<LineString><altitudeMode>absolute</altitudeMode><coordinates>
13.05933045,47.53035312,1712.81
13.05928372,47.53037716,1711.64
</coordinates></LineString>
<LineString><altitudeMode>absolute</altitudeMode><coordinates>
13.05928372,47.53037716,1711.64
13.05934945,47.53042867,1706.45
</coordinates></LineString>
<LineString><altitudeMode>absolute</altitudeMode><coordinates>
13.05934945,47.53042867,1706.45
13.05933191,47.53043575,1704.70
</coordinates></LineString>
<LineString><altitudeMode>absolute</altitudeMode><coordinates>
13.05933191,47.53043575,1704.70
13.05936508,47.53045152,1703.78
</coordinates></LineString>
<LineString><altitudeMode>absolute</altitudeMode><coordinates>
13.05936508,47.53045152,1703.78
13.05948948,47.53047558,1701.28
</coordinates></LineString>
<LineString><altitudeMode>absolute</altitudeMode><coordinates>
13.05948948,47.53047558,1701.28
13.05958883,47.53059172,1688.55
</coordinates></LineString>
<LineString><altitudeMode>absolute</altitudeMode><coordinates>
13.05958883,47.53059172,1688.55
13.05959242,47.53060249,1687.95
</coordinates></LineString>
<LineString><altitudeMode>absolute</altitudeMode><coordinates>
13.05959242,47.53060249,1687.95
13.05954328,47.53063414,1687.26
</coordinates></LineString>
<LineString><altitudeMode>absolute</altitudeMode><coordinates>
13.05954328,47.53063414,1687.26
13.05954398,47.53065854,1685.63
</coordinates></LineString>
<LineString><altitudeMode>absolute</altitudeMode><coordinates>
13.05954398,47.53065854,1685.63
13.05956539,47.53067240,1684.26
</coordinates></LineString>
<LineString><altitudeMode>absolute</altitudeMode><coordinates>
13.05956539,47.53067240,1684.26
13.05956803,47.53070160,1684.02
</coordinates></LineString>
<LineString><altitudeMode>absolute</altitudeMode><coordinates>
13.05956803,47.53070160,1684.02
13.05958678,47.53070848,1683.19
</coordinates></LineString>
<LineString><altitudeMode>absolute</altitudeMode><coordinates>
13.05958678,47.53070848,1683.19
13.05962341,47.53073097,1681.72
</coordinates></LineString>
<LineString><altitudeMode>absolute</altitudeMode><coordinates>
13.05962341,47.53073097,1681.72
13.05967395,47.53074406,1680.81
</coordinates></LineString>
<LineString><altitudeMode>absolute</altitudeMode><coordinates>
13.05967395,47.53074406,1680.81
13.05974501,47.53078423,1680.49
</coordinates></LineString>
<LineString><altitudeMode>absolute</altitudeMode><coordinates>
13.05974501,47.53078423,1680.49
13.05976029,47.53076982,1680.48
</coordinates></LineString>
<LineString><altitudeMode>absolute</altitudeMode><coordinates>
13.05976029,47.53076982,1680.48
13.05978583,47.53076890,1680.64
</coordinates></LineString>
<LineString><altitudeMode>absolute</altitudeMode><coordinates>
13.05978583,47.53076890,1680.64
13.05978960,47.53075682,1680.76
</coordinates></LineString>
<LineString><altitudeMode>absolute</altitudeMode><coordinates>
13.05978960,47.53075682,1680.76
13.05976403,47.53074055,1681.74
</coordinates></LineString>
<LineString><altitudeMode>absolute</altitudeMode><coordinates>
13.05976403,47.53074055,1681.74
13.05982295,47.53070285,1683.75
</coordinates></LineString>
<LineString><altitudeMode>absolute</altitudeMode><coordinates>
13.05927079,47.53030991,1718.06
13.05924123,47.53030095,1717.43
</coordinates></LineString>
<LineString><altitudeMode>absolute</altitudeMode><coordinates>
13.05924123,47.53030095,1717.43
13.05921040,47.53031194,1716.75
</coordinates></LineString>
<LineString><altitudeMode>absolute</altitudeMode><coordinates>
13.05921040,47.53031194,1716.75
13.05920772,47.53029075,1716.37
</coordinates></LineString>
<LineString><altitudeMode>absolute</altitudeMode><coordinates>
13.05920772,47.53029075,1716.37
13.05922231,47.53029514,1714.13
</coordinates></LineString>
<LineString><altitudeMode>absolute</altitudeMode><coordinates>
13.05922231,47.53029514,1714.13
13.05920237,47.53028112,1714.63
</coordinates></LineString>
<LineString><altitudeMode>absolute</altitudeMode><coordinates>
13.05920237,47.53028112,1714.63
13.05919548,47.53025167,1714.56
</coordinates></LineString>
<LineString><altitudeMode>absolute</altitudeMode><coordinates>
13.05919548,47.53025167,1714.56
13.05919956,47.53023842,1716.32
</coordinates></LineString>
<LineString><altitudeMode>absolute</altitudeMode><coordinates>
13.05919956,47.53023842,1716.32
13.05914454,47.53022085,1715.13
</coordinates></LineString>
<LineString><altitudeMode>absolute</altitudeMode><coordinates>
13.05914454,47.53022085,1715.13
13.05913355,47.53020536,1716.43
</coordinates></LineString>
<LineString><altitudeMode>absolute</altitudeMode><coordinates>
13.05913355,47.53020536,1716.43
13.05908172,47.53019144,1716.88
</coordinates></LineString>
<LineString><altitudeMode>absolute</altitudeMode><coordinates>
13.05908172,47.53019144,1716.88
13.05907038,47.53017820,1718.64
</coordinates></LineString>
<LineString><altitudeMode>absolute</altitudeMode><coordinates>
13.05907038,47.53017820,1718.64
13.05903090,47.53012480,1719.50
</coordinates></LineString>
<LineString><altitudeMode>absolute</altitudeMode><coordinates>
13.05903318,47.53088025,1689.50
13.05901677,47.53090355,1687.30
</coordinates></LineString>
<LineString><altitudeMode>absolute</altitudeMode><coordinates>
13.05901677,47.53090355,1687.30
13.05898200,47.53089900,1686.21
</coordinates></LineString>
<LineString><altitudeMode>absolute</altitudeMode><coordinates>
13.05898200,47.53089900,1686.21
13.05896533,47.53088972,1685.20
</coordinates></LineString>
<LineString><altitudeMode>absolute</altitudeMode><coordinates>
13.05896533,47.53088972,1685.20
13.05895276,47.53089563,1683.28
</coordinates></LineString>
<LineString><altitudeMode>absolute</altitudeMode><coordinates>
13.05895276,47.53089563,1683.28
13.05889296,47.53091036,1682.71
</coordinates></LineString>
<LineString><altitudeMode>absolute</altitudeMode><coordinates>
13.05889296,47.53091036,1682.71
13.05886014,47.53092825,1682.75
</coordinates></LineString>
<LineString><altitudeMode>absolute</altitudeMode><coordinates>
13.05886014,47.53092825,1682.75
13.05880581,47.53092796,1682.81
</coordinates></LineString>
<LineString><altitudeMode>absolute</altitudeMode><coordinates>
13.05880581,47.53092796,1682.81
13.05879569,47.53091438,1682.51
</coordinates></LineString>
<LineString><altitudeMode>absolute</altitudeMode><coordinates>
13.05879569,47.53091438,1682.51
13.05876592,47.53091082,1682.65
</coordinates></LineString>
<LineString><altitudeMode>absolute</altitudeMode><coordinates>
13.05876592,47.53091082,1682.65
13.05874295,47.53090341,1681.71
</coordinates></LineString>
<LineString><altitudeMode>absolute</altitudeMode><coordinates>
13.05874295,47.53090341,1681.71
13.05873375,47.53088967,1681.08
</coordinates></LineString>
<LineString><altitudeMode>absolute</altitudeMode><coordinates>
13.05873375,47.53088967,1681.08
13.05874358,47.53087535,1680.89
</coordinates></LineString>
<LineString><altitudeMode>absolute</altitudeMode><coordinates>
13.05874358,47.53087535,1680.89
13.05872015,47.53085866,1680.72
</coordinates></LineString>
<LineString><altitudeMode>absolute</altitudeMode><coordinates>
13.05872015,47.53085866,1680.72
13.05870318,47.53085775,1679.67
</coordinates></LineString>
<LineString><altitudeMode>absolute</altitudeMode><coordinates>
13.05870318,47.53085775,1679.67
13.05868920,47.53084410,1676.34
</coordinates></LineString>
<LineString><altitudeMode>absolute</altitudeMode><coordinates>
13.05843634,47.53042373,1739.96
13.05844551,47.53040571,1740.94
</coordinates></LineString>
<LineString><altitudeMode>absolute</altitudeMode><coordinates>
13.05844551,47.53040571,1740.94
13.05840522,47.53041358,1742.43
</coordinates></LineString>
<LineString><altitudeMode>absolute</altitudeMode><coordinates>
13.05840522,47.53041358,1742.43
13.05837046,47.53038348,1737.41
</coordinates></LineString>
<LineString><altitudeMode>absolute</altitudeMode><coordinates>
13.05982295,47.53070285,1683.75
13.05986702,47.53068938,1685.74
</coordinates></LineString>
<LineString><altitudeMode>absolute</altitudeMode><coordinates>
13.05986702,47.53068938,1685.74
13.05986339,47.53066907,1686.43
</coordinates></LineString>
<LineString><altitudeMode>absolute</altitudeMode><coordinates>
13.05986339,47.53066907,1686.43
13.05992723,47.53067807,1687.03
</coordinates></LineString>
<LineString><altitudeMode>absolute</altitudeMode><coordinates>
13.05986339,47.53066907,1686.43
13.05992614,47.53066447,1687.15
</coordinates></LineString>
<LineString><altitudeMode>absolute</altitudeMode><coordinates>
13.05992614,47.53066447,1687.15
13.05995971,47.53059710,1693.60
</coordinates></LineString>
<LineString><altitudeMode>absolute</altitudeMode><coordinates>
13.05877396,47.53217235,1740.77
13.05880113,47.53214536,1738.37
</coordinates></LineString>
<LineString><altitudeMode>absolute</altitudeMode><coordinates>
13.05880113,47.53214536,1738.37
13.05879869,47.53211788,1735.73
</coordinates></LineString>
<LineString><altitudeMode>absolute</altitudeMode><coordinates>
13.05879869,47.53211788,1735.73
13.05882501,47.53210302,1728.64
</coordinates></LineString>
<LineString><altitudeMode>absolute</altitudeMode><coordinates>
13.05882501,47.53210302,1728.64
13.05884391,47.53211306,1728.07
13.05885627,47.53210931,1728.25
13.05889936,47.53211544,1729.39
</coordinates></LineString>
<LineString><altitudeMode>absolute</altitudeMode><coordinates>
13.05889936,47.53211544,1729.39
13.05889969,47.53213173,1728.76
</coordinates></LineString>
<LineString><altitudeMode>absolute</altitudeMode><coordinates>
13.05889969,47.53213173,1728.76
13.05889397,47.53213902,1724.32
</coordinates></LineString>
<LineString><altitudeMode>absolute</altitudeMode><coordinates>
13.05889397,47.53213902,1724.32
13.05896246,47.53214449,1711.69
</coordinates></LineString>
<LineString><altitudeMode>absolute</altitudeMode><coordinates>
13.05896246,47.53214449,1711.69
13.05899045,47.53213849,1711.05
</coordinates></LineString>
<LineString><altitudeMode>absolute</altitudeMode><coordinates>
13.05899045,47.53213849,1711.05
13.05903858,47.53213418,1697.36
</coordinates></LineString>
<LineString><altitudeMode>absolute</altitudeMode><coordinates>
13.05903858,47.53213418,1697.36
13.05914433,47.53216674,1687.37
</coordinates></LineString>
<LineString><altitudeMode>absolute</altitudeMode><coordinates>
13.05914433,47.53216674,1687.37
13.05913886,47.53214946,1684.56
13.05917851,47.53209758,1685.34
13.05918392,47.53205529,1685.57
</coordinates></LineString>
<LineString><altitudeMode>absolute</altitudeMode><coordinates>
13.05913886,47.53214946,1684.56
13.05911377,47.53215588,1683.88
13.05915717,47.53216093,1682.53
13.05923962,47.53213020,1668.26
13.05924997,47.53210176,1662.95
13.05925631,47.53208477,1663.35
13.05925084,47.53205300,1652.68
13.05930092,47.53206042,1651.80
13.05934084,47.53202645,1648.82
13.05933033,47.53199793,1647.11
</coordinates></LineString>
<LineString><altitudeMode>absolute</altitudeMode><coordinates>
13.05915717,47.53216093,1682.53
13.05915587,47.53218538,1682.60
13.05914404,47.53220354,1682.94
</coordinates></LineString>
<LineString><altitudeMode>absolute</altitudeMode><coordinates>
13.05914404,47.53220354,1682.94
13.05912668,47.53220567,1680.99
13.05911464,47.53223319,1679.97
</coordinates></LineString>
<LineString><altitudeMode>absolute</altitudeMode><coordinates>
13.05911464,47.53223319,1679.97
13.05911181,47.53225959,1681.68
</coordinates></LineString>
<LineString><altitudeMode>absolute</altitudeMode><coordinates>
13.05911181,47.53225959,1681.68
13.05909888,47.53230383,1680.51
</coordinates></LineString>
<LineString><altitudeMode>absolute</altitudeMode><coordinates>
13.05909888,47.53230383,1680.51
13.05909565,47.53232294,1682.12
</coordinates></LineString>
<LineString><altitudeMode>absolute</altitudeMode><coordinates>
13.05909565,47.53232294,1682.12
13.05907226,47.53233028,1680.83
13.05907416,47.53235074,1680.03
</coordinates></LineString>
<LineString><altitudeMode>absolute</altitudeMode><coordinates>
13.05907416,47.53235074,1680.03
13.05905842,47.53235236,1680.71
13.05905144,47.53237240,1681.37
</coordinates></LineString>
<LineString><altitudeMode>absolute</altitudeMode><coordinates>
13.05885287,47.53251094,1737.55
13.05884150,47.53253469,1738.58
13.05881065,47.53258204,1738.87
13.05893876,47.53258132,1727.09
</coordinates></LineString>
<LineString><altitudeMode>absolute</altitudeMode><coordinates>
13.05881065,47.53258204,1738.87
13.05883557,47.53260900,1736.73
</coordinates></LineString>
<LineString><altitudeMode>absolute</altitudeMode><coordinates>
13.05883557,47.53260900,1736.73
13.05883964,47.53266432,1735.15
</coordinates></LineString>
<LineString><altitudeMode>absolute</altitudeMode><coordinates>
13.05881065,47.53258204,1738.87
13.05880571,47.53258267,1741.70
</coordinates></LineString>
<LineString><altitudeMode>absolute</altitudeMode><coordinates>
13.05880571,47.53258267,1741.70
13.05879105,47.53260195,1743.07
</coordinates></LineString>
<LineString><altitudeMode>absolute</altitudeMode><coordinates>
13.05933033,47.53199793,1647.11
13.05937836,47.53195285,1639.88
13.05944599,47.53190244,1631.19
</coordinates></LineString>
<LineString><altitudeMode>absolute</altitudeMode><coordinates>
13.05944599,47.53190244,1631.19
13.05944084,47.53186555,1630.94
</coordinates></LineString>
<LineString><altitudeMode>absolute</altitudeMode><coordinates>
13.05944084,47.53186555,1630.94
13.05946934,47.53187467,1628.58
</coordinates></LineString>
<LineString><altitudeMode>absolute</altitudeMode><coordinates>
13.05946934,47.53187467,1628.58
13.05950483,47.53185250,1622.03
</coordinates></LineString>
<LineString><altitudeMode>absolute</altitudeMode><coordinates>
13.05950483,47.53185250,1622.03
13.05955376,47.53186260,1613.18
</coordinates></LineString>
<LineString><altitudeMode>absolute</altitudeMode><coordinates>
13.05955376,47.53186260,1613.18
13.05955615,47.53187686,1609.22
</coordinates></LineString>
<LineString><altitudeMode>absolute</altitudeMode><coordinates>
13.05955615,47.53187686,1609.22
13.05960468,47.53187606,1600.78
</coordinates></LineString>
<LineString><altitudeMode>absolute</altitudeMode><coordinates>
13.05960468,47.53187606,1600.78
13.05965087,47.53188080,1599.07
13.05965686,47.53191662,1598.38
13.05967582,47.53196095,1598.11
13.05958373,47.53199007,1602.56
</coordinates></LineString>
<LineString><altitudeMode>absolute</altitudeMode><coordinates>
13.05992723,47.53067807,1687.03
13.06000757,47.53067916,1686.12
13.06009861,47.53067836,1687.45
13.06029609,47.53064121,1692.79
13.06043218,47.53066178,1694.55
13.06050505,47.53063116,1696.97
13.06063232,47.53057743,1699.99
13.06074497,47.53057439,1700.48
13.06087668,47.53056600,1701.87
13.06093174,47.53054641,1703.91
13.06098392,47.53055468,1704.37
13.06099559,47.53053355,1707.80
13.06105272,47.53047953,1709.22
13.06104820,47.53042547,1714.53
13.06107560,47.53042467,1714.43
13.06103754,47.53041926,1718.61
13.06095307,47.53042566,1716.57
13.06089674,47.53043622,1714.66
13.06088071,47.53042776,1714.73
</coordinates></LineString>
<LineString><altitudeMode>absolute</altitudeMode><coordinates>
13.06107560,47.53042467,1714.43
13.06111245,47.53044158,1715.56
</coordinates></LineString>
<LineString><altitudeMode>absolute</altitudeMode><coordinates>
13.06111245,47.53044158,1715.56
13.06111988,47.53034803,1722.69
</coordinates></LineString>
<LineString><altitudeMode>absolute</altitudeMode><coordinates>
13.06111988,47.53034803,1722.69
13.06117909,47.53028434,1728.32
</coordinates></LineString>
<LineString><altitudeMode>absolute</altitudeMode><coordinates>
13.06117909,47.53028434,1728.32
13.06121374,47.53027079,1729.32
</coordinates></LineString>
<LineString><altitudeMode>absolute</altitudeMode><coordinates>
13.06121374,47.53027079,1729.32
13.06117964,47.53023710,1730.56
</coordinates></LineString>
<LineString><altitudeMode>absolute</altitudeMode><coordinates>
13.06117964,47.53023710,1730.56
13.06119483,47.53022161,1731.79
</coordinates></LineString>
<LineString><altitudeMode>absolute</altitudeMode><coordinates>
13.06119483,47.53022161,1731.79
13.06119544,47.53019787,1732.71
</coordinates></LineString>
<LineString><altitudeMode>absolute</altitudeMode><coordinates>
13.06119544,47.53019787,1732.71
13.06115751,47.53019957,1734.30
</coordinates></LineString>
<LineString><altitudeMode>absolute</altitudeMode><coordinates>
13.06115751,47.53019957,1734.30
13.06102859,47.53013953,1738.60
</coordinates></LineString>
<LineString><altitudeMode>absolute</altitudeMode><coordinates>
13.06102859,47.53013953,1738.60
13.06095882,47.53008220,1738.25
</coordinates></LineString>
<LineString><altitudeMode>absolute</altitudeMode><coordinates>
13.06095882,47.53008220,1738.25
13.06092491,47.53005796,1738.39
13.06089366,47.53004420,1738.74
13.06085451,47.53002491,1739.88
</coordinates></LineString>
<LineString><altitudeMode>absolute</altitudeMode><coordinates>
13.06121374,47.53027079,1729.32
13.06123797,47.53029100,1727.90
</coordinates></LineString>
<LineString><altitudeMode>absolute</altitudeMode><coordinates>
13.06123797,47.53029100,1727.90
13.06132013,47.53030058,1725.72
</coordinates></LineString>
<LineString><altitudeMode>absolute</altitudeMode><coordinates>
13.06132013,47.53030058,1725.72
13.06136416,47.53033138,1722.84
</coordinates></LineString>
<LineString><altitudeMode>absolute</altitudeMode><coordinates>
13.06136416,47.53033138,1722.84
13.06140655,47.53032040,1723.95
</coordinates></LineString>
<LineString><altitudeMode>absolute</altitudeMode><coordinates>
13.05958373,47.53199007,1602.56
13.05956762,47.53199817,1602.64
13.05955356,47.53201188,1604.43
13.05951263,47.53200489,1601.66
13.05952057,47.53205991,1598.47
13.05950469,47.53206522,1595.85
13.05949478,47.53208899,1593.70
13.05953859,47.53211502,1590.23
13.05952914,47.53214086,1592.47
13.05957733,47.53215985,1593.60
13.05957150,47.53217037,1592.70
13.05957802,47.53224193,1590.05
13.05957470,47.53227085,1589.33
</coordinates></LineString>
<LineString><altitudeMode>absolute</altitudeMode><coordinates>
13.05944084,47.53186555,1630.94
13.05947537,47.53184813,1631.43
13.05952731,47.53186638,1635.88
13.05956234,47.53184610,1638.39
13.05957265,47.53182944,1638.64
13.05958866,47.53180974,1636.25
13.05950617,47.53179115,1628.64
13.05951628,47.53175830,1626.40
13.05952602,47.53173219,1621.85
13.05955678,47.53173028,1619.33
13.05956084,47.53171370,1618.31
13.05957951,47.53170115,1617.91
13.05956914,47.53167965,1617.93
13.05957806,47.53167566,1616.59
</coordinates></LineString>
<LineString><altitudeMode>absolute</altitudeMode><coordinates>
13.05944084,47.53186555,1630.94
13.05949471,47.53190353,1632.63
</coordinates></LineString>
<LineString><altitudeMode>absolute</altitudeMode><coordinates>
13.05949471,47.53190353,1632.63
13.05948401,47.53190929,1632.18
</coordinates></LineString>
<LineString><altitudeMode>absolute</altitudeMode><coordinates>
13.05957470,47.53227085,1589.33
13.05953118,47.53229072,1577.45
13.05948844,47.53231105,1565.56
13.05950410,47.53231159,1552.26
13.05956777,47.53233624,1549.88
13.05960710,47.53230739,1549.32
13.05963277,47.53230656,1539.53
13.05964594,47.53226665,1534.91
13.05966809,47.53228926,1526.83
13.05969711,47.53230936,1526.62
13.05971900,47.53232089,1523.40
13.05971560,47.53230860,1519.82
13.05971506,47.53225847,1515.42
</coordinates></LineString>
<LineString><altitudeMode>absolute</altitudeMode><coordinates>
13.05903090,47.53012480,1719.50
13.05901110,47.53008541,1721.22
13.05899344,47.53006352,1720.70
13.05898218,47.53004101,1722.59
13.05893300,47.53002722,1722.29
13.05887451,47.52999563,1723.49
</coordinates></LineString>
<LineString><altitudeMode>absolute</altitudeMode><coordinates>
13.05959242,47.53060249,1687.95
13.05960057,47.53065149,1685.08
</coordinates></LineString>
<LineString><altitudeMode>absolute</altitudeMode><coordinates>
13.05960057,47.53065149,1685.08
13.05956911,47.53067588,1680.48
</coordinates></LineString>
<LineString><altitudeMode>absolute</altitudeMode><coordinates>
13.05956911,47.53067588,1680.48
13.05952700,47.53066869,1679.36
</coordinates></LineString>
<LineString><altitudeMode>absolute</altitudeMode><coordinates>
13.05952700,47.53066869,1679.36
13.05951408,47.53066586,1671.34
</coordinates></LineString>
<LineString><altitudeMode>absolute</altitudeMode><coordinates>
13.05951408,47.53066586,1671.34
13.05954670,47.53060630,1673.96
</coordinates></LineString>
<LineString><altitudeMode>absolute</altitudeMode><coordinates>
13.05954670,47.53060630,1673.96
13.05959608,47.53056791,1677.63
</coordinates></LineString>
<LineString><altitudeMode>absolute</altitudeMode><coordinates>
13.05959608,47.53056791,1677.63
13.05955920,47.53051968,1679.68
</coordinates></LineString>
<LineString><altitudeMode>absolute</altitudeMode><coordinates>
13.05955920,47.53051968,1679.68
13.05961310,47.53051007,1680.23
</coordinates></LineString>
<LineString><altitudeMode>absolute</altitudeMode><coordinates>
13.05961310,47.53051007,1680.23
13.05966428,47.53049851,1681.76
</coordinates></LineString>
<LineString><altitudeMode>absolute</altitudeMode><coordinates>
13.05966428,47.53049851,1681.76
13.05971795,47.53051670,1680.89
</coordinates></LineString>
<LineString><altitudeMode>absolute</altitudeMode><coordinates>
13.05971795,47.53051670,1680.89
13.05976822,47.53051899,1680.79
</coordinates></LineString>
<LineString><altitudeMode>absolute</altitudeMode><coordinates>
13.05976822,47.53051899,1680.79
13.05980436,47.53046120,1683.77
</coordinates></LineString>
<LineString><altitudeMode>absolute</altitudeMode><coordinates>
13.05980436,47.53046120,1683.77
13.05987301,47.53044428,1683.92
</coordinates></LineString>
<LineString><altitudeMode>absolute</altitudeMode><coordinates>
13.05987301,47.53044428,1683.92
13.05995367,47.53035026,1688.66
</coordinates></LineString>
<LineString><altitudeMode>absolute</altitudeMode><coordinates>
13.05995367,47.53035026,1688.66
13.05997751,47.53028767,1691.90
</coordinates></LineString>
<LineString><altitudeMode>absolute</altitudeMode><coordinates>
13.05997751,47.53028767,1691.90
13.06003129,47.53026672,1693.10
</coordinates></LineString>
<LineString><altitudeMode>absolute</altitudeMode><coordinates>
13.06003129,47.53026672,1693.10
13.06008510,47.53020554,1696.29
</coordinates></LineString>
<LineString><altitudeMode>absolute</altitudeMode><coordinates>
13.06008510,47.53020554,1696.29
13.06018112,47.53014886,1699.93
</coordinates></LineString>
<LineString><altitudeMode>absolute</altitudeMode><coordinates>
13.06018112,47.53014886,1699.93
13.06024082,47.53009003,1702.89
</coordinates></LineString>
<LineString><altitudeMode>absolute</altitudeMode><coordinates>
13.06024082,47.53009003,1702.89
13.06029422,47.53007959,1703.25
</coordinates></LineString>
<LineString><altitudeMode>absolute</altitudeMode><coordinates>
13.06029422,47.53007959,1703.25
13.06033519,47.53010710,1702.53
</coordinates></LineString>
<LineString><altitudeMode>absolute</altitudeMode><coordinates>
13.06033519,47.53010710,1702.53
13.06036737,47.53008110,1703.10
</coordinates></LineString>
<LineString><altitudeMode>absolute</altitudeMode><coordinates>
13.06036737,47.53008110,1703.10
13.06044682,47.53013868,1700.62
</coordinates></LineString>
<LineString><altitudeMode>absolute</altitudeMode><coordinates>
13.06044682,47.53013868,1700.62
13.06051810,47.53011172,1702.55
</coordinates></LineString>
<LineString><altitudeMode>absolute</altitudeMode><coordinates>
13.06051810,47.53011172,1702.55
13.06062243,47.53006382,1705.65
</coordinates></LineString>
<LineString><altitudeMode>absolute</altitudeMode><coordinates>
13.06062243,47.53006382,1705.65
13.06059527,47.53005454,1705.94
</coordinates></LineString>
<LineString><altitudeMode>absolute</altitudeMode><coordinates>
13.06059527,47.53005454,1705.94
13.06060001,47.53002709,1699.95
</coordinates></LineString>
<LineString><altitudeMode>absolute</altitudeMode><coordinates>
13.06060001,47.53002709,1699.95
13.06058913,47.53000126,1699.57
</coordinates></LineString>
<LineString><altitudeMode>absolute</altitudeMode><coordinates>
13.06058913,47.53000126,1699.57
13.06065260,47.53000584,1699.66
</coordinates></LineString>
<LineString><altitudeMode>absolute</altitudeMode><coordinates>
13.06065260,47.53000584,1699.66
13.06070049,47.52998622,1700.10
</coordinates></LineString>
<LineString><altitudeMode>absolute</altitudeMode><coordinates>
13.06070049,47.52998622,1700.10
13.06071592,47.52994968,1701.24
</coordinates></LineString>
<LineString><altitudeMode>absolute</altitudeMode><coordinates>
13.06071592,47.52994968,1701.24
13.06078561,47.52993358,1702.05
</coordinates></LineString>
<LineString><altitudeMode>absolute</altitudeMode><coordinates>
13.06078561,47.52993358,1702.05
13.06084739,47.52990457,1704.40
</coordinates></LineString>
<LineString><altitudeMode>absolute</altitudeMode><coordinates>
13.06084739,47.52990457,1704.40
13.06083884,47.52987707,1704.68
</coordinates></LineString>
<LineString><altitudeMode>absolute</altitudeMode><coordinates>
13.06083884,47.52987707,1704.68
13.06081385,47.52989546,1703.79
13.06085580,47.52987115,1702.48
</coordinates></LineString>
<LineString><altitudeMode>absolute</altitudeMode><coordinates>
13.06085580,47.52987115,1702.48
13.06087637,47.52985008,1703.34
</coordinates></LineString>
<LineString><altitudeMode>absolute</altitudeMode><coordinates>
13.06087637,47.52985008,1703.34
13.06090010,47.52984788,1705.48
</coordinates></LineString>
<LineString><altitudeMode>absolute</altitudeMode><coordinates>
13.06090010,47.52984788,1705.48
13.06094266,47.52984302,1697.99
</coordinates></LineString>
<LineString><altitudeMode>absolute</altitudeMode><coordinates>
13.06094266,47.52984302,1697.99
13.06093450,47.52982290,1697.83
13.06096032,47.52980021,1694.60
</coordinates></LineString>
<LineString><altitudeMode>absolute</altitudeMode><coordinates>
13.06096032,47.52980021,1694.60
13.06093937,47.52977736,1691.38
</coordinates></LineString>
<LineString><altitudeMode>absolute</altitudeMode><coordinates>
13.06093937,47.52977736,1691.38
13.06097846,47.52977667,1684.23
</coordinates></LineString>
<LineString><altitudeMode>absolute</altitudeMode><coordinates>
13.05971506,47.53225847,1515.42
13.05974450,47.53223845,1516.82
</coordinates></LineString>
<LineString><altitudeMode>absolute</altitudeMode><coordinates>
13.05974450,47.53223845,1516.82
13.05974542,47.53220625,1516.17
</coordinates></LineString>
<LineString><altitudeMode>absolute</altitudeMode><coordinates>
13.05974542,47.53220625,1516.17
13.05976533,47.53218886,1512.29
</coordinates></LineString>
<LineString><altitudeMode>absolute</altitudeMode><coordinates>
13.05976533,47.53218886,1512.29
13.05979174,47.53215727,1508.87
</coordinates></LineString>
<LineString><altitudeMode>absolute</altitudeMode><coordinates>
13.05979174,47.53215727,1508.87
13.05977405,47.53214348,1510.44
13.05975308,47.53213196,1510.18
</coordinates></LineString>
<LineString><altitudeMode>absolute</altitudeMode><coordinates>
13.05975308,47.53213196,1510.18
13.05973759,47.53212675,1504.99
</coordinates></LineString>
<LineString><altitudeMode>absolute</altitudeMode><coordinates>
13.05973759,47.53212675,1504.99
13.05972783,47.53213199,1504.16
</coordinates></LineString>
<LineString><altitudeMode>absolute</altitudeMode><coordinates>
13.05972783,47.53213199,1504.16
13.05970252,47.53213390,1502.34
</coordinates></LineString>
<LineString><altitudeMode>absolute</altitudeMode><coordinates>
13.05970252,47.53213390,1502.34
13.05963196,47.53215205,1502.28
</coordinates></LineString>
<LineString><altitudeMode>absolute</altitudeMode><coordinates>
13.05963196,47.53215205,1502.28
13.05961570,47.53215708,1502.27
</coordinates></LineString>
<LineString><altitudeMode>absolute</altitudeMode><coordinates>
13.05961570,47.53215708,1502.27
13.05966511,47.53216467,1502.00
</coordinates></LineString>
<LineString><altitudeMode>absolute</altitudeMode><coordinates>
13.06097846,47.52977667,1684.23
13.06097308,47.52981087,1683.10
</coordinates></LineString>
<LineString><altitudeMode>absolute</altitudeMode><coordinates>
13.06097308,47.52981087,1683.10
13.06094282,47.52981719,1682.42
</coordinates></LineString>
<LineString><altitudeMode>absolute</altitudeMode><coordinates>
13.06094282,47.52981719,1682.42
13.06087301,47.52983329,1681.87
</coordinates></LineString>
<LineString><altitudeMode>absolute</altitudeMode><coordinates>
13.06087301,47.52983329,1681.87
13.06084914,47.52984989,1682.12
</coordinates></LineString>
<LineString><altitudeMode>absolute</altitudeMode><coordinates>
13.06084914,47.52984989,1682.12
13.06083420,47.52983362,1682.72
</coordinates></LineString>
<LineString><altitudeMode>absolute</altitudeMode><coordinates>
13.06083420,47.52983362,1682.72
13.06081180,47.52986465,1681.54
</coordinates></LineString>
<LineString><altitudeMode>absolute</altitudeMode><coordinates>
13.06081180,47.52986465,1681.54
13.06072065,47.52991530,1679.39
</coordinates></LineString>
<LineString><altitudeMode>absolute</altitudeMode><coordinates>
13.06072065,47.52991530,1679.39
13.06070162,47.52990166,1679.95
</coordinates></LineString>
<LineString><altitudeMode>absolute</altitudeMode><coordinates>
13.06070162,47.52990166,1679.95
13.06064321,47.52988600,1680.32
</coordinates></LineString>
<LineString><altitudeMode>absolute</altitudeMode><coordinates>
13.06064321,47.52988600,1680.32
13.06059756,47.52987362,1680.38
</coordinates></LineString>
<LineString><altitudeMode>absolute</altitudeMode><coordinates>
13.06059756,47.52987362,1680.38
13.06059228,47.52991232,1679.49
</coordinates></LineString>
<LineString><altitudeMode>absolute</altitudeMode><coordinates>
13.06059228,47.52991232,1679.49
13.06057387,47.52994692,1678.48
</coordinates></LineString>
<LineString><altitudeMode>absolute</altitudeMode><coordinates>
13.06057387,47.52994692,1678.48
13.06055138,47.52994789,1678.44
</coordinates></LineString>
<LineString><altitudeMode>absolute</altitudeMode><coordinates>
13.06055138,47.52994789,1678.44
13.06054552,47.52996992,1676.80
</coordinates></LineString>
<LineString><altitudeMode>absolute</altitudeMode><coordinates>
13.06054552,47.52996992,1676.80
13.06048753,47.53001843,1674.35
</coordinates></LineString>
<LineString><altitudeMode>absolute</altitudeMode><coordinates>
13.06048753,47.53001843,1674.35
13.06047745,47.53004670,1673.39
</coordinates></LineString>
<LineString><altitudeMode>absolute</altitudeMode><coordinates>
13.06047745,47.53004670,1673.39
13.06050119,47.53004773,1671.30
</coordinates></LineString>
<LineString><altitudeMode>absolute</altitudeMode><coordinates>
13.06050119,47.53004773,1671.30
13.06047132,47.53005793,1670.35
</coordinates></LineString>
<LineString><altitudeMode>absolute</altitudeMode><coordinates>
13.06047132,47.53005793,1670.35
13.06048589,47.53009147,1668.78
</coordinates></LineString>
<LineString><altitudeMode>absolute</altitudeMode><coordinates>
13.05890983,47.53062243,1702.85
13.05888294,47.53065257,1703.65
</coordinates></LineString>
<LineString><altitudeMode>absolute</altitudeMode><coordinates>
13.05905144,47.53237240,1681.37
13.05904705,47.53241930,1681.99
13.05903367,47.53245066,1682.13
13.05900768,47.53251779,1685.79
13.05900542,47.53256437,1687.18
13.05897431,47.53261531,1690.25
</coordinates></LineString>
<LineString><altitudeMode>absolute</altitudeMode><coordinates>
13.05966511,47.53216467,1502.00
13.05967716,47.53216586,1502.05
13.05970991,47.53219638,1501.31
13.05973276,47.53221827,1501.30
13.05976105,47.53223288,1499.95
13.05981210,47.53225732,1499.99
13.05982623,47.53227052,1497.58
13.05982648,47.53227790,1496.56
13.05984782,47.53228663,1496.10
13.05982815,47.53230105,1496.07
13.05985914,47.53231463,1498.03
13.05984726,47.53232333,1497.57
13.05982443,47.53234085,1496.32
13.05983182,47.53234935,1493.34
13.05983179,47.53237526,1492.42
13.05986219,47.53239404,1490.90
13.05988109,47.53242208,1483.92
</coordinates></LineString>
<LineString><altitudeMode>absolute</altitudeMode><coordinates>
13.05988109,47.53242208,1483.92
13.05987052,47.53242028,1483.44
13.05986935,47.53244842,1477.56
13.05984826,47.53246543,1474.66
13.05983730,47.53248540,1467.69
13.05984768,47.53246326,1466.25
13.05983656,47.53243338,1466.61
13.05980524,47.53244311,1467.71
13.05980773,47.53244423,1469.79
13.05977931,47.53244744,1469.65
13.05975525,47.53244037,1468.05
13.05975153,47.53243671,1468.32
13.05973430,47.53246818,1467.22
13.05972803,47.53245062,1466.03
13.05972653,47.53245168,1463.95
13.05969890,47.53244077,1463.02
13.05968726,47.53247171,1463.28
13.05967803,47.53248082,1466.18
13.05966085,47.53249250,1465.85
13.05959334,47.53246409,1465.65
13.05959052,47.53245045,1465.71
13.05955814,47.53244955,1465.22
13.05953532,47.53245933,1465.01
13.05949758,47.53247048,1464.64
13.05944343,47.53246515,1463.57
13.05943308,47.53247199,1463.19
13.05941861,47.53247886,1463.44
13.05937856,47.53250545,1461.57
13.05937163,47.53253133,1460.25
13.05944039,47.53255472,1459.91
13.05943857,47.53258241,1457.80
13.05941630,47.53258833,1457.42
13.05945451,47.53260409,1456.94
13.05945229,47.53262835,1455.72
13.05943531,47.53262752,1455.63
13.05942709,47.53264502,1454.86
13.05939303,47.53267513,1452.77
13.05931635,47.53270074,1450.75
13.05927333,47.53269992,1449.39
13.05925406,47.53271435,1449.04
13.05926375,47.53274349,1447.54
13.05919483,47.53273179,1446.97
13.05919519,47.53273630,1447.01
13.05913592,47.53274033,1445.79
13.05909653,47.53275263,1444.73
13.05904032,47.53271685,1445.56
13.05906480,47.53271232,1445.82
13.05906463,47.53272788,1445.27
13.05909591,47.53273714,1444.49
13.05914286,47.53276466,1444.41
13.05913700,47.53278642,1443.18
13.05914618,47.53278982,1443.21
</coordinates></LineString>
<LineString><altitudeMode>absolute</altitudeMode><coordinates>
13.05909653,47.53275263,1444.73
13.05910756,47.53276352,1444.45
</coordinates></LineString>
<LineString><altitudeMode>absolute</altitudeMode><coordinates>
13.05941630,47.53258833,1457.42
13.05939554,47.53259986,1457.69
</coordinates></LineString>
<LineString><altitudeMode>absolute</altitudeMode><coordinates>
13.05973430,47.53246818,1467.22
13.05971861,47.53247926,1467.38
</coordinates></LineString>
<LineString><altitudeMode>absolute</altitudeMode><coordinates>
13.05852781,47.53037525,1713.71
13.05849589,47.53040135,1709.64
</coordinates></LineString>
<LineString><altitudeMode>absolute</altitudeMode><coordinates>
13.05855189,47.53041390,1713.81
13.05855596,47.53037564,1718.00
</coordinates></LineString>
<LineString><altitudeMode>absolute</altitudeMode><coordinates>
13.06072065,47.52991530,1679.39
13.06068491,47.52992594,1678.44
</coordinates></LineString>
<LineString><altitudeMode>absolute</altitudeMode><coordinates>
13.06068491,47.52992594,1678.44
13.06071107,47.52994798,1678.08
</coordinates></LineString>
<LineString><altitudeMode>absolute</altitudeMode><coordinates>
13.06071107,47.52994798,1678.08
13.06077743,47.52992841,1679.17
</coordinates></LineString>
<LineString><altitudeMode>absolute</altitudeMode><coordinates>
13.06077743,47.52992841,1679.17
13.06084926,47.52993313,1677.96
</coordinates></LineString>
<LineString><altitudeMode>absolute</altitudeMode><coordinates>
13.06084926,47.52993313,1677.96
13.06096622,47.52997533,1676.55
</coordinates></LineString>
<LineString><altitudeMode>absolute</altitudeMode><coordinates>
13.06096622,47.52997533,1676.55
13.06105283,47.52997941,1676.32
</coordinates></LineString>
<LineString><altitudeMode>absolute</altitudeMode><coordinates>
13.06105283,47.52997941,1676.32
13.06104997,47.53001715,1674.81
</coordinates></LineString>
<LineString><altitudeMode>absolute</altitudeMode><coordinates>
13.06104997,47.53001715,1674.81
13.06103405,47.53004172,1673.27
</coordinates></LineString>
<LineString><altitudeMode>absolute</altitudeMode><coordinates>
13.06103405,47.53004172,1673.27
13.06104420,47.53006924,1672.32
</coordinates></LineString>
<LineString><altitudeMode>absolute</altitudeMode><coordinates>
13.06104420,47.53006924,1672.32
13.06102360,47.53007654,1671.88
</coordinates></LineString>
<LineString><altitudeMode>absolute</altitudeMode><coordinates>
13.06102360,47.53007654,1671.88
13.06097564,47.53007654,1671.84
</coordinates></LineString>
<LineString><altitudeMode>absolute</altitudeMode><coordinates>
13.06097564,47.53007654,1671.84
13.06092815,47.53007088,1672.99
</coordinates></LineString>
<LineString><altitudeMode>absolute</altitudeMode><coordinates>
13.06092815,47.53007088,1672.99
13.06092849,47.53010121,1672.13
</coordinates></LineString>
<LineString><altitudeMode>absolute</altitudeMode><coordinates>
13.06092849,47.53010121,1672.13
13.06088655,47.53011445,1671.29
</coordinates></LineString>
<LineString><altitudeMode>absolute</altitudeMode><coordinates>
13.06088655,47.53011445,1671.29
13.06086362,47.53016337,1668.85
</coordinates></LineString>
<LineString><altitudeMode>absolute</altitudeMode><coordinates>
13.06086362,47.53016337,1668.85
13.06081882,47.53016063,1669.26
</coordinates></LineString>
<LineString><altitudeMode>absolute</altitudeMode><coordinates>
13.06081882,47.53016063,1669.26
13.06084196,47.53019954,1668.17
</coordinates></LineString>
<LineString><altitudeMode>absolute</altitudeMode><coordinates>
13.06084196,47.53019954,1668.17
13.06086404,47.53021692,1668.84
</coordinates></LineString>
<LineString><altitudeMode>absolute</altitudeMode><coordinates>
13.06086404,47.53021692,1668.84
13.06085740,47.53024560,1672.30
</coordinates></LineString>
<LineString><altitudeMode>absolute</altitudeMode><coordinates>
13.06085740,47.53024560,1672.30
13.06087540,47.53025490,1672.20
</coordinates></LineString>
<LineString><altitudeMode>absolute</altitudeMode><coordinates>
13.06087540,47.53025490,1672.20
13.06081101,47.53026794,1671.74
</coordinates></LineString>
<LineString><altitudeMode>absolute</altitudeMode><coordinates>
13.06081101,47.53026794,1671.74
13.06078673,47.53027428,1671.59
</coordinates></LineString>
<LineString><altitudeMode>absolute</altitudeMode><coordinates>
13.06078673,47.53027428,1671.59
13.06077606,47.53028247,1671.05
</coordinates></LineString>
<LineString><altitudeMode>absolute</altitudeMode><coordinates>
13.06077606,47.53028247,1671.05
13.06073943,47.53030317,1669.88
</coordinates></LineString>
<LineString><altitudeMode>absolute</altitudeMode><coordinates>
13.06073943,47.53030317,1669.88
13.06069281,47.53032416,1668.77
</coordinates></LineString>
<LineString><altitudeMode>absolute</altitudeMode><coordinates>
13.06069281,47.53032416,1668.77
13.06066795,47.53032455,1668.69
13.06066104,47.53032102,1668.78
</coordinates></LineString>
<LineString><altitudeMode>absolute</altitudeMode><coordinates>
13.06066104,47.53032102,1668.78
13.06061848,47.53032578,1668.36
</coordinates></LineString>
<LineString><altitudeMode>absolute</altitudeMode><coordinates>
13.06061848,47.53032578,1668.36
13.06059807,47.53033885,1667.95
</coordinates></LineString>
<LineString><altitudeMode>absolute</altitudeMode><coordinates>
13.05712060,47.52996007,1700.32
13.05708505,47.52995479,1700.70
</coordinates></LineString>
<LineString><altitudeMode>absolute</altitudeMode><coordinates>
13.05650394,47.53032080,1736.24
13.05647464,47.53042721,1743.87
</coordinates></LineString>
<LineString><altitudeMode>absolute</altitudeMode><coordinates>
13.05515262,47.53033847,1738.22
13.05534609,47.53023017,1734.69
</coordinates></LineString>
<LineString><altitudeMode>absolute</altitudeMode><coordinates>
13.05515262,47.53033847,1738.22
13.05521819,47.53020002,1737.11
</coordinates></LineString>
<LineString><altitudeMode>absolute</altitudeMode><coordinates>
13.05820617,47.53020927,1730.58
13.05825393,47.53014988,1728.62
</coordinates></LineString>
<LineString><altitudeMode>absolute</altitudeMode><coordinates>
13.05452558,47.53033314,1735.58
13.05446797,47.53035691,1734.18
13.05436180,47.53038597,1732.04
13.05430073,47.53042066,1731.43
13.05425146,47.53039481,1730.61
13.05421950,47.53040038,1730.15
13.05413409,47.53041054,1728.02
13.05408141,47.53044834,1727.56
13.05402818,47.53048667,1727.09
</coordinates></LineString>
<LineString><altitudeMode>absolute</altitudeMode><coordinates>
13.05413409,47.53041054,1728.02
13.05411161,47.53040053,1732.06
13.05407567,47.53036285,1731.84
13.05401936,47.53037665,1730.88
13.05398172,47.53039203,1733.32
13.05388339,47.53041403,1734.73
13.05376184,47.53033098,1734.28
13.05371388,47.53033079,1735.41
13.05367648,47.53032908,1736.41
13.05355954,47.53032952,1738.64
13.05355057,47.53039236,1738.61
13.05354790,47.53043236,1739.05
13.05351022,47.53042353,1738.06
13.05343388,47.53047946,1736.06
13.05347066,47.53050168,1736.51
13.05343293,47.53056628,1736.25
13.05348361,47.53057551,1735.48
13.05349409,47.53060466,1736.35
13.05349758,47.53069686,1738.71
13.05346381,47.53078735,1740.18
13.05342549,47.53083187,1743.20
13.05338475,47.53090578,1741.62
13.05335259,47.53102086,1740.24
13.05329048,47.53106939,1743.26
13.05326376,47.53107694,1744.58
13.05321946,47.53109635,1745.56
13.05320631,47.53111061,1746.29
13.05324242,47.53116872,1744.69
13.05322292,47.53121833,1744.76
13.05319987,47.53127751,1744.47
13.05316975,47.53128339,1744.56
13.05313501,47.53131384,1745.41
13.05316508,47.53134504,1745.41
13.05317419,47.53137525,1747.04
13.05313825,47.53141657,1747.77
13.05313956,47.53143144,1747.88
13.05316056,47.53145267,1746.76
13.05314805,47.53148207,1746.57
13.05312983,47.53153278,1745.10
13.05315564,47.53153537,1744.97
13.05316161,47.53155356,1744.91
13.05312971,47.53158982,1745.19
13.05305098,47.53159893,1747.39
13.05305049,47.53157282,1746.77
13.05301335,47.53158182,1746.11
13.05300521,47.53159707,1745.75
13.05297772,47.53158229,1745.74
13.05293977,47.53158480,1744.88
13.05288206,47.53157509,1744.78
13.05284937,47.53159325,1745.27
13.05282493,47.53158222,1745.44
13.05276561,47.53160911,1750.75
13.05265805,47.53162546,1756.45
13.05262967,47.53163127,1759.00
13.05258955,47.53163824,1762.01
</coordinates></LineString>
<LineString><altitudeMode>absolute</altitudeMode><coordinates>
13.05282493,47.53158222,1745.44
13.05281166,47.53159612,1746.11
13.05277034,47.53161782,1746.14
13.05275213,47.53163596,1746.01
13.05275806,47.53165523,1746.23
13.05270854,47.53168633,1746.28
13.05268594,47.53168667,1746.70
13.05265216,47.53170922,1746.84
13.05263829,47.53171762,1747.39
13.05265558,47.53174221,1747.03
13.05264017,47.53175662,1747.06
13.05261260,47.53175120,1747.67
13.05258768,47.53176410,1749.00
13.05253229,47.53176711,1748.35
</coordinates></LineString>
<LineString><altitudeMode>absolute</altitudeMode><coordinates>
13.05349409,47.53060466,1736.35
13.05357902,47.53056786,1730.46
</coordinates></LineString>
<LineString><altitudeMode>absolute</altitudeMode><coordinates>
13.05357902,47.53056786,1730.46
13.05360378,47.53054137,1733.06
13.05363069,47.53053238,1730.78
</coordinates></LineString>
<LineString><altitudeMode>absolute</altitudeMode><coordinates>
13.05363069,47.53053238,1730.78
13.05361218,47.53051182,1731.01
</coordinates></LineString>
<LineString><altitudeMode>absolute</altitudeMode><coordinates>
13.05361218,47.53051182,1731.01
13.05363484,47.53049547,1731.74
</coordinates></LineString>
<LineString><altitudeMode>absolute</altitudeMode><coordinates>
13.05363484,47.53049547,1731.74
13.05360348,47.53049215,1731.90
</coordinates></LineString>
<LineString><altitudeMode>absolute</altitudeMode><coordinates>
13.05360348,47.53049215,1731.90
13.05362145,47.53047689,1730.45
</coordinates></LineString>
<LineString><altitudeMode>absolute</altitudeMode><coordinates>
13.05355954,47.53032952,1738.64
13.05357079,47.53027680,1741.85
</coordinates></LineString>
<LineString><altitudeMode>absolute</altitudeMode><coordinates>
13.05357079,47.53027680,1741.85
13.05354343,47.53021209,1741.95
</coordinates></LineString>
<LineString><altitudeMode>absolute</altitudeMode><coordinates>
13.05354343,47.53021209,1741.95
13.05352291,47.53018502,1743.19
</coordinates></LineString>
<LineString><altitudeMode>absolute</altitudeMode><coordinates>
13.05352291,47.53018502,1743.19
13.05350020,47.53017041,1746.30
</coordinates></LineString>
<LineString><altitudeMode>absolute</altitudeMode><coordinates>
13.05350020,47.53017041,1746.30
13.05346323,47.53015341,1748.76
</coordinates></LineString>
<LineString><altitudeMode>absolute</altitudeMode><coordinates>
13.05983656,47.53243338,1466.61
13.05980156,47.53239176,1467.52
</coordinates></LineString>
<LineString><altitudeMode>absolute</altitudeMode><coordinates>
13.05980156,47.53239176,1467.52
13.05978741,47.53238270,1466.77
</coordinates></LineString>
<LineString><altitudeMode>absolute</altitudeMode><coordinates>
13.05978741,47.53238270,1466.77
13.05982047,47.53236517,1461.67
</coordinates></LineString>
<LineString><altitudeMode>absolute</altitudeMode><coordinates>
13.05982047,47.53236517,1461.67
13.05983189,47.53231146,1457.59
</coordinates></LineString>
<LineString><altitudeMode>absolute</altitudeMode><coordinates>
13.05983189,47.53231146,1457.59
13.05984508,47.53231052,1451.08
</coordinates></LineString>
<LineString><altitudeMode>absolute</altitudeMode><coordinates>
13.05984508,47.53231052,1451.08
13.05986890,47.53227358,1451.20
</coordinates></LineString>
<LineString><altitudeMode>absolute</altitudeMode><coordinates>
13.05580953,47.53090517,1734.97
13.05584728,47.53090455,1733.79
</coordinates></LineString>
<LineString><altitudeMode>absolute</altitudeMode><coordinates>
13.05584728,47.53090455,1733.79
13.05584336,47.53093535,1733.37
</coordinates></LineString>
<LineString><altitudeMode>absolute</altitudeMode><coordinates>
13.05584336,47.53093535,1733.37
13.05586655,47.53096562,1730.16
</coordinates></LineString>
<LineString><altitudeMode>absolute</altitudeMode><coordinates>
13.05586655,47.53096562,1730.16
13.05588694,47.53098909,1729.86
</coordinates></LineString>
<LineString><altitudeMode>absolute</altitudeMode><coordinates>
13.05588694,47.53098909,1729.86
13.05584883,47.53101022,1731.33
</coordinates></LineString>
<LineString><altitudeMode>absolute</altitudeMode><coordinates>
13.05584883,47.53101022,1731.33
13.05582928,47.53102501,1731.99
</coordinates></LineString>
<LineString><altitudeMode>absolute</altitudeMode><coordinates>
13.05582928,47.53102501,1731.99
13.05581945,47.53103924,1732.75
</coordinates></LineString>
<LineString><altitudeMode>absolute</altitudeMode><coordinates>
13.05576433,47.53088803,1734.42
13.05573938,47.53086907,1735.72
</coordinates></LineString>
<LineString><altitudeMode>absolute</altitudeMode><coordinates>
13.05573938,47.53086907,1735.72
13.05571767,47.53089219,1736.28
</coordinates></LineString>
<LineString><altitudeMode>absolute</altitudeMode><coordinates>
13.05571767,47.53089219,1736.28
13.05569163,47.53090281,1737.07
</coordinates></LineString>
<LineString><altitudeMode>absolute</altitudeMode><coordinates>
13.05569163,47.53090281,1737.07
13.05567657,47.53091147,1738.77
</coordinates></LineString>
<LineString><altitudeMode>absolute</altitudeMode><coordinates>
13.05567657,47.53091147,1738.77
13.05564508,47.53090787,1739.87
</coordinates></LineString>
<LineString><altitudeMode>absolute</altitudeMode><coordinates>
13.05564508,47.53090787,1739.87
13.05560697,47.53088923,1740.46
</coordinates></LineString>
<LineString><altitudeMode>absolute</altitudeMode><coordinates>
13.05282493,47.53158222,1745.44
13.05282432,47.53162018,1743.75
13.05287473,47.53160799,1736.51
13.05287748,47.53159112,1735.62
13.05290429,47.53158492,1729.36
13.05289303,47.53155881,1727.69
13.05288809,47.53160606,1724.53
13.05291593,47.53163290,1723.45
13.05291980,47.53166104,1723.29
13.05295301,47.53171514,1722.53
13.05288547,47.53171993,1720.04
13.05293191,47.53172531,1709.64
</coordinates></LineString>
<LineString><altitudeMode>absolute</altitudeMode><coordinates>
13.05319987,47.53127751,1744.47
13.05324210,47.53128525,1744.11
</coordinates></LineString>
<LineString><altitudeMode>absolute</altitudeMode><coordinates>
13.05324210,47.53128525,1744.11
13.05328972,47.53128372,1740.98
</coordinates></LineString>
<LineString><altitudeMode>absolute</altitudeMode><coordinates>
13.05328972,47.53128372,1740.98
13.05330820,47.53125470,1742.11
</coordinates></LineString>
<LineString><altitudeMode>absolute</altitudeMode><coordinates>
13.05330820,47.53125470,1742.11
13.05331690,47.53124936,1741.65
</coordinates></LineString>
<LineString><altitudeMode>absolute</altitudeMode><coordinates>
13.05262967,47.53163127,1759.00
13.05267866,47.53162860,1762.09
</coordinates></LineString>
<LineString><altitudeMode>absolute</altitudeMode><coordinates>
13.06016263,47.53172713,1722.93
13.06020923,47.53177831,1728.83
13.06020694,47.53181156,1731.58
13.06022206,47.53188794,1733.54
13.06034648,47.53188294,1725.90
13.06042697,47.53190149,1729.95
13.06046728,47.53193978,1729.20
</coordinates></LineString>
<LineString><altitudeMode>absolute</altitudeMode><coordinates>
13.06034648,47.53188294,1725.90
13.06038158,47.53192187,1727.43
</coordinates></LineString>
<LineString><altitudeMode>absolute</altitudeMode><coordinates>
13.06038158,47.53192187,1727.43
13.06040918,47.53193007,1724.91
</coordinates></LineString></MultiGeometry></Placemark>
</Document></kml>
