<?xml version="1.0" encoding="UTF-8"?>
<gpx version="1.0" creator="survex 1.4.17 (aven) - https://survex.com/" xmlns:xsi="http://www.w3.org/2001/XMLSchema-instance" xmlns="http://www.topografix.com/GPX/1/0" xsi:schemaLocation="http://www.topografix.com/GPX/1/0 http://www.topografix.com/GPX/1/0/gpx.xsd">
<name>kamieniolom-master</name>
<time>2025-06-01T11:45:46Z</time>
<trk><name>kamieniolom-master</name><trkseg>
<trkpt lon="13.05922598" lat="47.52822296"><ele>2011.70</ele></trkpt>
<trkpt lon="13.05919300" lat="47.52825975"><ele>2011.55</ele></trkpt>
<trkpt lon="13.05914339" lat="47.52826494"><ele>2011.50</ele></trkpt>
<trkpt lon="13.05907947" lat="47.52828671"><ele>2011.40</ele></trkpt>
<trkpt lon="13.05905839" lat="47.52828555"><ele>2011.16</ele></trkpt>
<trkpt lon="13.05904362" lat="47.52829348"><ele>2010.01</ele></trkpt>
<trkpt lon="13.05905909" lat="47.52828466"><ele>2006.30</ele></trkpt>
<trkpt lon="13.05904169" lat="47.52829903"><ele>2006.69</ele></trkpt>
</trkseg><trkseg>
<trkpt lon="13.05905909" lat="47.52828466"><ele>2006.30</ele></trkpt>
<trkpt lon="13.05908842" lat="47.52828551"><ele>2006.05</ele></trkpt>
<trkpt lon="13.05908229" lat="47.52827893"><ele>1997.77</ele></trkpt>
</trkseg></trk>
</gpx>
