<?xml version="1.0" encoding="UTF-8"?>
<kml xmlns="http://www.opengis.net/kml/2.2">
<Document><name>kamieniolom-master</name>
<Style id="fix"><IconStyle><Icon><href>https://maps.google.com/mapfiles/kml/paddle/red-blank.png</href></Icon><color>ff0000ff</color><hotSpot x="32" y="1" xunits="pixels" yunits="pixels"/></IconStyle></Style>
<Style id="exp"><IconStyle><Icon><href>https://maps.google.com/mapfiles/kml/paddle/blu-blank.png</href></Icon><color>ffff0000</color><hotSpot x="32" y="1" xunits="pixels" yunits="pixels"/></IconStyle></Style>
<Style id="ent"><IconStyle><Icon><href>https://maps.google.com/mapfiles/kml/paddle/grn-blank.png</href></Icon><color>ff00ff00</color><hotSpot x="32" y="1" xunits="pixels" yunits="pixels"/></IconStyle></Style>
<Style id="surf"><LineStyle><color>ff00ff00</color></LineStyle></Style>
<Style id="splay"><LineStyle><color>40ff00ff</color></LineStyle></Style>
<Placemark><MultiGeometry><LineString><altitudeMode>absolute</altitudeMode><coordinates>
13.05922598,47.52822296,2011.70
13.05919300,47.52825975,2011.55
13.05914339,47.52826494,2011.50
13.05907947,47.52828671,2011.40
13.05905839,47.52828555,2011.16
13.05904362,47.52829348,2010.01
13.05905909,47.52828466,2006.30
13.05904169,47.52829903,2006.69
</coordinates></LineString>
<LineString><altitudeMode>absolute</altitudeMode><coordinates>
13.05905909,47.52828466,2006.30
13.05908842,47.52828551,2006.05
13.05908229,47.52827893,1997.77
</coordinates></LineString></MultiGeometry></Placemark>
</Document></kml>
