<?xml version="1.0" encoding="UTF-8"?>
<gpx version="1.0" creator="survex 1.4.17 (aven) - https://survex.com/" xmlns:xsi="http://www.w3.org/2001/XMLSchema-instance" xmlns="http://www.topografix.com/GPX/1/0" xsi:schemaLocation="http://www.topografix.com/GPX/1/0 http://www.topografix.com/GPX/1/0/gpx.xsd">
<name>280-master</name>
<time>2025-06-23T19:15:24Z</time>
<trk><name>280-master</name><trkseg>
<trkpt lon="13.03806665" lat="47.53930002"><ele>1977.30</ele></trkpt>
<trkpt lon="13.03806185" lat="47.53927195"><ele>1977.05</ele></trkpt>
<trkpt lon="13.03806751" lat="47.53920573"><ele>1966.90</ele></trkpt>
<trkpt lon="13.03806751" lat="47.53920573"><ele>1946.90</ele></trkpt>
<trkpt lon="13.03803681" lat="47.53919882"><ele>1931.54</ele></trkpt>
<trkpt lon="13.03803681" lat="47.53919882"><ele>1911.41</ele></trkpt>
<trkpt lon="13.03803873" lat="47.53919354"><ele>1911.41</ele></trkpt>
<trkpt lon="13.03803873" lat="47.53919354"><ele>1891.41</ele></trkpt>
<trkpt lon="13.03805181" lat="47.53919565"><ele>1891.41</ele></trkpt>
<trkpt lon="13.03802631" lat="47.53919162"><ele>1887.55</ele></trkpt>
<trkpt lon="13.03800963" lat="47.53913653"><ele>1886.76</ele></trkpt>
<trkpt lon="13.03804705" lat="47.53910955"><ele>1884.83</ele></trkpt>
<trkpt lon="13.03804705" lat="47.53910955"><ele>1848.63</ele></trkpt>
<trkpt lon="13.03806137" lat="47.53910673"><ele>1848.63</ele></trkpt>
<trkpt lon="13.03806137" lat="47.53910673"><ele>1832.23</ele></trkpt>
<trkpt lon="13.03811671" lat="47.53912289"><ele>1831.94</ele></trkpt>
<trkpt lon="13.03815631" lat="47.53912303"><ele>1827.08</ele></trkpt>
</trkseg><trkseg>
<trkpt lon="13.03815631" lat="47.53912303"><ele>1827.08</ele></trkpt>
<trkpt lon="13.03815937" lat="47.53912290"><ele>1825.60</ele></trkpt>
<trkpt lon="13.03815937" lat="47.53912290"><ele>1803.60</ele></trkpt>
<trkpt lon="13.03818357" lat="47.53914743"><ele>1800.43</ele></trkpt>
<trkpt lon="13.03813264" lat="47.53914116"><ele>1796.40</ele></trkpt>
<trkpt lon="13.03813264" lat="47.53914116"><ele>1782.23</ele></trkpt>
<trkpt lon="13.03812532" lat="47.53913797"><ele>1780.21</ele></trkpt>
<trkpt lon="13.03813044" lat="47.53911107"><ele>1778.02</ele></trkpt>
</trkseg><trkseg>
<trkpt lon="13.03812532" lat="47.53913797"><ele>1780.21</ele></trkpt>
<trkpt lon="13.03812066" lat="47.53916678"><ele>1779.04</ele></trkpt>
<trkpt lon="13.03809678" lat="47.53915485"><ele>1779.04</ele></trkpt>
<trkpt lon="13.03806918" lat="47.53913593"><ele>1779.04</ele></trkpt>
<trkpt lon="13.03806918" lat="47.53913593"><ele>1777.81</ele></trkpt>
<trkpt lon="13.03806178" lat="47.53910647"><ele>1777.10</ele></trkpt>
<trkpt lon="13.03806178" lat="47.53910647"><ele>1768.90</ele></trkpt>
<trkpt lon="13.03809531" lat="47.53908761"><ele>1765.94</ele></trkpt>
<trkpt lon="13.03809531" lat="47.53908761"><ele>1753.56</ele></trkpt>
<trkpt lon="13.03817402" lat="47.53906853"><ele>1752.11</ele></trkpt>
<trkpt lon="13.03818690" lat="47.53904742"><ele>1751.75</ele></trkpt>
<trkpt lon="13.03821579" lat="47.53906034"><ele>1747.59</ele></trkpt>
<trkpt lon="13.03823019" lat="47.53906958"><ele>1743.68</ele></trkpt>
<trkpt lon="13.03824272" lat="47.53906152"><ele>1743.68</ele></trkpt>
</trkseg><trkseg>
<trkpt lon="13.03824272" lat="47.53906152"><ele>1743.68</ele></trkpt>
<trkpt lon="13.03825041" lat="47.53908684"><ele>1743.22</ele></trkpt>
<trkpt lon="13.03823089" lat="47.53911135"><ele>1744.23</ele></trkpt>
<trkpt lon="13.03824160" lat="47.53914122"><ele>1745.97</ele></trkpt>
<trkpt lon="13.03831334" lat="47.53923792"><ele>1745.02</ele></trkpt>
<trkpt lon="13.03830671" lat="47.53921630"><ele>1745.10</ele></trkpt>
<trkpt lon="13.03832337" lat="47.53922901"><ele>1744.42</ele></trkpt>
<trkpt lon="13.03841154" lat="47.53922728"><ele>1731.39</ele></trkpt>
<trkpt lon="13.03842548" lat="47.53920970"><ele>1731.46</ele></trkpt>
<trkpt lon="13.03840550" lat="47.53918272"><ele>1729.41</ele></trkpt>
<trkpt lon="13.03843033" lat="47.53917613"><ele>1729.73</ele></trkpt>
<trkpt lon="13.03844117" lat="47.53918810"><ele>1730.38</ele></trkpt>
<trkpt lon="13.03848418" lat="47.53918218"><ele>1728.70</ele></trkpt>
<trkpt lon="13.03852937" lat="47.53917854"><ele>1720.41</ele></trkpt>
<trkpt lon="13.03855880" lat="47.53920532"><ele>1718.88</ele></trkpt>
<trkpt lon="13.03855867" lat="47.53921936"><ele>1718.23</ele></trkpt>
<trkpt lon="13.03854275" lat="47.53923303"><ele>1717.70</ele></trkpt>
<trkpt lon="13.03859914" lat="47.53923525"><ele>1718.17</ele></trkpt>
<trkpt lon="13.03860560" lat="47.53922601"><ele>1718.35</ele></trkpt>
</trkseg><trkseg>
<trkpt lon="13.03860560" lat="47.53922601"><ele>1718.35</ele></trkpt>
<trkpt lon="13.03859278" lat="47.53921697"><ele>1718.25</ele></trkpt>
<trkpt lon="13.03865950" lat="47.53920245"><ele>1712.40</ele></trkpt>
<trkpt lon="13.03866992" lat="47.53921163"><ele>1712.81</ele></trkpt>
<trkpt lon="13.03869606" lat="47.53920920"><ele>1698.65</ele></trkpt>
<trkpt lon="13.03869358" lat="47.53921851"><ele>1688.63</ele></trkpt>
<trkpt lon="13.03869871" lat="47.53933045"><ele>1691.73</ele></trkpt>
<trkpt lon="13.03870504" lat="47.53933533"><ele>1687.61</ele></trkpt>
<trkpt lon="13.03870245" lat="47.53935121"><ele>1686.02</ele></trkpt>
<trkpt lon="13.03870245" lat="47.53935121"><ele>1667.82</ele></trkpt>
<trkpt lon="13.03878518" lat="47.53936333"><ele>1667.82</ele></trkpt>
<trkpt lon="13.03876664" lat="47.53938677"><ele>1667.56</ele></trkpt>
<trkpt lon="13.03882334" lat="47.53936993"><ele>1668.05</ele></trkpt>
<trkpt lon="13.03883368" lat="47.53936362"><ele>1667.71</ele></trkpt>
<trkpt lon="13.03885063" lat="47.53935096"><ele>1665.44</ele></trkpt>
<trkpt lon="13.03890415" lat="47.53933028"><ele>1655.94</ele></trkpt>
<trkpt lon="13.03892724" lat="47.53937386"><ele>1656.30</ele></trkpt>
<trkpt lon="13.03893091" lat="47.53938598"><ele>1636.65</ele></trkpt>
<trkpt lon="13.03893091" lat="47.53938598"><ele>1620.91</ele></trkpt>
</trkseg><trkseg>
<trkpt lon="13.03893091" lat="47.53938598"><ele>1620.91</ele></trkpt>
<trkpt lon="13.03893990" lat="47.53933035"><ele>1619.58</ele></trkpt>
<trkpt lon="13.03893902" lat="47.53931117"><ele>1618.89</ele></trkpt>
<trkpt lon="13.03900359" lat="47.53929373"><ele>1615.36</ele></trkpt>
<trkpt lon="13.03904538" lat="47.53921706"><ele>1609.69</ele></trkpt>
<trkpt lon="13.03910885" lat="47.53918620"><ele>1607.31</ele></trkpt>
<trkpt lon="13.03910885" lat="47.53918620"><ele>1596.38</ele></trkpt>
<trkpt lon="13.03918918" lat="47.53918452"><ele>1594.18</ele></trkpt>
<trkpt lon="13.03920256" lat="47.53916774"><ele>1593.49</ele></trkpt>
<trkpt lon="13.03933118" lat="47.53917876"><ele>1576.58</ele></trkpt>
<trkpt lon="13.03940284" lat="47.53911718"><ele>1571.95</ele></trkpt>
<trkpt lon="13.03944201" lat="47.53912153"><ele>1570.22</ele></trkpt>
<trkpt lon="13.03949198" lat="47.53907866"><ele>1568.93</ele></trkpt>
<trkpt lon="13.03950686" lat="47.53908251"><ele>1568.76</ele></trkpt>
<trkpt lon="13.03955038" lat="47.53906283"><ele>1568.21</ele></trkpt>
<trkpt lon="13.03964486" lat="47.53900569"><ele>1566.87</ele></trkpt>
<trkpt lon="13.03964417" lat="47.53899928"><ele>1565.53</ele></trkpt>
</trkseg><trkseg>
<trkpt lon="13.03964417" lat="47.53899928"><ele>1565.53</ele></trkpt>
<trkpt lon="13.03971418" lat="47.53893929"><ele>1565.53</ele></trkpt>
<trkpt lon="13.03976055" lat="47.53889320"><ele>1565.53</ele></trkpt>
<trkpt lon="13.03976055" lat="47.53889320"><ele>1560.83</ele></trkpt>
<trkpt lon="13.03980635" lat="47.53883019"><ele>1560.83</ele></trkpt>
<trkpt lon="13.03980635" lat="47.53883019"><ele>1555.53</ele></trkpt>
<trkpt lon="13.03981826" lat="47.53877460"><ele>1555.53</ele></trkpt>
<trkpt lon="13.03981826" lat="47.53877460"><ele>1535.83</ele></trkpt>
<trkpt lon="13.03988365" lat="47.53876699"><ele>1535.83</ele></trkpt>
<trkpt lon="13.03988365" lat="47.53876699"><ele>1534.43</ele></trkpt>
<trkpt lon="13.03987960" lat="47.53867613"><ele>1534.43</ele></trkpt>
<trkpt lon="13.03987756" lat="47.53863101"><ele>1535.31</ele></trkpt>
<trkpt lon="13.03988528" lat="47.53860208"><ele>1531.14</ele></trkpt>
<trkpt lon="13.03991302" lat="47.53852805"><ele>1531.14</ele></trkpt>
<trkpt lon="13.03992312" lat="47.53852471"><ele>1525.20</ele></trkpt>
</trkseg></trk>
</gpx>
