<?xml version="1.0" encoding="UTF-8"?>
<kml xmlns="http://www.opengis.net/kml/2.2">
<Document><name>280-master</name>
<Style id="fix"><IconStyle><Icon><href>https://maps.google.com/mapfiles/kml/paddle/red-blank.png</href></Icon><color>ff0000ff</color><hotSpot x="32" y="1" xunits="pixels" yunits="pixels"/></IconStyle></Style>
<Style id="exp"><IconStyle><Icon><href>https://maps.google.com/mapfiles/kml/paddle/blu-blank.png</href></Icon><color>ffff0000</color><hotSpot x="32" y="1" xunits="pixels" yunits="pixels"/></IconStyle></Style>
<Style id="ent"><IconStyle><Icon><href>https://maps.google.com/mapfiles/kml/paddle/grn-blank.png</href></Icon><color>ff00ff00</color><hotSpot x="32" y="1" xunits="pixels" yunits="pixels"/></IconStyle></Style>
<Style id="surf"><LineStyle><color>ff00ff00</color></LineStyle></Style>
<Style id="splay"><LineStyle><color>40ff00ff</color></LineStyle></Style>
<Placemark><MultiGeometry><LineString><altitudeMode>absolute</altitudeMode><coordinates>
13.03806665,47.53930002,1977.30
13.03806185,47.53927195,1977.05
13.03806751,47.53920573,1966.90
13.03806751,47.53920573,1946.90
13.03803681,47.53919882,1931.54
13.03803681,47.53919882,1911.41
13.03803873,47.53919354,1911.41
13.03803873,47.53919354,1891.41
13.03805181,47.53919565,1891.41
13.03802631,47.53919162,1887.55
13.03800963,47.53913653,1886.76
13.03804705,47.53910955,1884.83
13.03804705,47.53910955,1848.63
13.03806137,47.53910673,1848.63
13.03806137,47.53910673,1832.23
13.03811671,47.53912289,1831.94
13.03815631,47.53912303,1827.08
</coordinates></LineString>
<LineString><altitudeMode>absolute</altitudeMode><coordinates>
13.03815631,47.53912303,1827.08
13.03815937,47.53912290,1825.60
13.03815937,47.53912290,1803.60
13.03818357,47.53914743,1800.43
13.03813264,47.53914116,1796.40
13.03813264,47.53914116,1782.23
13.03812532,47.53913797,1780.21
13.03813044,47.53911107,1778.02
</coordinates></LineString>
<LineString><altitudeMode>absolute</altitudeMode><coordinates>
13.03812532,47.53913797,1780.21
13.03812066,47.53916678,1779.04
13.03809678,47.53915485,1779.04
13.03806918,47.53913593,1779.04
13.03806918,47.53913593,1777.81
13.03806178,47.53910647,1777.10
13.03806178,47.53910647,1768.90
13.03809531,47.53908761,1765.94
13.03809531,47.53908761,1753.56
13.03817402,47.53906853,1752.11
13.03818690,47.53904742,1751.75
13.03821579,47.53906034,1747.59
13.03823019,47.53906958,1743.68
13.03824272,47.53906152,1743.68
</coordinates></LineString>
<LineString><altitudeMode>absolute</altitudeMode><coordinates>
13.03824272,47.53906152,1743.68
13.03825041,47.53908684,1743.22
13.03823089,47.53911135,1744.23
13.03824160,47.53914122,1745.97
13.03831334,47.53923792,1745.02
13.03830671,47.53921630,1745.10
13.03832337,47.53922901,1744.42
13.03841154,47.53922728,1731.39
13.03842548,47.53920970,1731.46
13.03840550,47.53918272,1729.41
13.03843033,47.53917613,1729.73
13.03844117,47.53918810,1730.38
13.03848418,47.53918218,1728.70
13.03852937,47.53917854,1720.41
13.03855880,47.53920532,1718.88
13.03855867,47.53921936,1718.23
13.03854275,47.53923303,1717.70
13.03859914,47.53923525,1718.17
13.03860560,47.53922601,1718.35
</coordinates></LineString>
<LineString><altitudeMode>absolute</altitudeMode><coordinates>
13.03860560,47.53922601,1718.35
13.03859278,47.53921697,1718.25
13.03865950,47.53920245,1712.40
13.03866992,47.53921163,1712.81
13.03869606,47.53920920,1698.65
13.03869358,47.53921851,1688.63
13.03869871,47.53933045,1691.73
13.03870504,47.53933533,1687.61
13.03870245,47.53935121,1686.02
13.03870245,47.53935121,1667.82
13.03878518,47.53936333,1667.82
13.03876664,47.53938677,1667.56
13.03882334,47.53936993,1668.05
13.03883368,47.53936362,1667.71
13.03885063,47.53935096,1665.44
13.03890415,47.53933028,1655.94
13.03892724,47.53937386,1656.30
13.03893091,47.53938598,1636.65
13.03893091,47.53938598,1620.91
</coordinates></LineString>
<LineString><altitudeMode>absolute</altitudeMode><coordinates>
13.03893091,47.53938598,1620.91
13.03893990,47.53933035,1619.58
13.03893902,47.53931117,1618.89
13.03900359,47.53929373,1615.36
13.03904538,47.53921706,1609.69
13.03910885,47.53918620,1607.31
13.03910885,47.53918620,1596.38
13.03918918,47.53918452,1594.18
13.03920256,47.53916774,1593.49
13.03933118,47.53917876,1576.58
13.03940284,47.53911718,1571.95
13.03944201,47.53912153,1570.22
13.03949198,47.53907866,1568.93
13.03950686,47.53908251,1568.76
13.03955038,47.53906283,1568.21
13.03964486,47.53900569,1566.87
13.03964417,47.53899928,1565.53
</coordinates></LineString>
<LineString><altitudeMode>absolute</altitudeMode><coordinates>
13.03964417,47.53899928,1565.53
13.03971418,47.53893929,1565.53
13.03976055,47.53889320,1565.53
13.03976055,47.53889320,1560.83
13.03980635,47.53883019,1560.83
13.03980635,47.53883019,1555.53
13.03981826,47.53877460,1555.53
13.03981826,47.53877460,1535.83
13.03988365,47.53876699,1535.83
13.03988365,47.53876699,1534.43
13.03987960,47.53867613,1534.43
13.03987756,47.53863101,1535.31
13.03988528,47.53860208,1531.14
13.03991302,47.53852805,1531.14
13.03992312,47.53852471,1525.20
</coordinates></LineString></MultiGeometry></Placemark>
</Document></kml>
