<?xml version="1.0" encoding="UTF-8"?>
<gpx version="1.0" creator="survex 1.4.17 (aven) - https://survex.com/" xmlns:xsi="http://www.w3.org/2001/XMLSchema-instance" xmlns="http://www.topografix.com/GPX/1/0" xsi:schemaLocation="http://www.topografix.com/GPX/1/0 http://www.topografix.com/GPX/1/0/gpx.xsd">
<name>491-master</name>
<time>2025-06-23T19:15:31Z</time>
<trk><name>491-master</name><trkseg>
<trkpt lon="13.05704605" lat="47.53496929"><ele>1627.12</ele></trkpt>
<trkpt lon="13.05708772" lat="47.53497440"><ele>1623.09</ele></trkpt>
<trkpt lon="13.05707978" lat="47.53499154"><ele>1622.16</ele></trkpt>
<trkpt lon="13.05707960" lat="47.53498920"><ele>1611.34</ele></trkpt>
<trkpt lon="13.05708504" lat="47.53502529"><ele>1607.45</ele></trkpt>
<trkpt lon="13.05709841" lat="47.53505917"><ele>1608.06</ele></trkpt>
<trkpt lon="13.05712618" lat="47.53507709"><ele>1607.25</ele></trkpt>
<trkpt lon="13.05716760" lat="47.53508535"><ele>1602.69</ele></trkpt>
</trkseg><trkseg>
<trkpt lon="13.05716760" lat="47.53508535"><ele>1602.69</ele></trkpt>
<trkpt lon="13.05718658" lat="47.53508217"><ele>1594.23</ele></trkpt>
<trkpt lon="13.05716537" lat="47.53509522"><ele>1594.61</ele></trkpt>
<trkpt lon="13.05717263" lat="47.53507491"><ele>1585.61</ele></trkpt>
<trkpt lon="13.05720197" lat="47.53509377"><ele>1569.81</ele></trkpt>
<trkpt lon="13.05723964" lat="47.53507740"><ele>1569.64</ele></trkpt>
<trkpt lon="13.05727531" lat="47.53507584"><ele>1567.40</ele></trkpt>
<trkpt lon="13.05727530" lat="47.53505092"><ele>1567.00</ele></trkpt>
<trkpt lon="13.05726857" lat="47.53503892"><ele>1564.95</ele></trkpt>
<trkpt lon="13.05726839" lat="47.53503667"><ele>1554.18</ele></trkpt>
<trkpt lon="13.05726755" lat="47.53501974"><ele>1554.23</ele></trkpt>
<trkpt lon="13.05733164" lat="47.53502920"><ele>1551.47</ele></trkpt>
<trkpt lon="13.05735941" lat="47.53501131"><ele>1534.94</ele></trkpt>
<trkpt lon="13.05733188" lat="47.53498340"><ele>1533.67</ele></trkpt>
<trkpt lon="13.05736318" lat="47.53497403"><ele>1532.78</ele></trkpt>
<trkpt lon="13.05737073" lat="47.53495310"><ele>1527.83</ele></trkpt>
</trkseg><trkseg>
<trkpt lon="13.05737073" lat="47.53495310"><ele>1527.83</ele></trkpt>
<trkpt lon="13.05741646" lat="47.53490942"><ele>1508.74</ele></trkpt>
<trkpt lon="13.05735926" lat="47.53485348"><ele>1492.22</ele></trkpt>
</trkseg><trkseg>
<trkpt lon="13.05735926" lat="47.53485348"><ele>1492.22</ele></trkpt>
<trkpt lon="13.05737288" lat="47.53483733"><ele>1492.37</ele></trkpt>
<trkpt lon="13.05732134" lat="47.53485490"><ele>1506.87</ele></trkpt>
<trkpt lon="13.05722074" lat="47.53483016"><ele>1509.84</ele></trkpt>
<trkpt lon="13.05722291" lat="47.53483992"><ele>1510.22</ele></trkpt>
<trkpt lon="13.05719537" lat="47.53483729"><ele>1514.79</ele></trkpt>
<trkpt lon="13.05720377" lat="47.53481836"><ele>1519.77</ele></trkpt>
<trkpt lon="13.05718345" lat="47.53477131"><ele>1530.04</ele></trkpt>
<trkpt lon="13.05717681" lat="47.53476760"><ele>1530.16</ele></trkpt>
<trkpt lon="13.05715032" lat="47.53474735"><ele>1548.52</ele></trkpt>
<trkpt lon="13.05709509" lat="47.53476765"><ele>1551.40</ele></trkpt>
<trkpt lon="13.05707133" lat="47.53481737"><ele>1554.51</ele></trkpt>
<trkpt lon="13.05706302" lat="47.53479078"><ele>1569.18</ele></trkpt>
<trkpt lon="13.05709586" lat="47.53479367"><ele>1573.32</ele></trkpt>
<trkpt lon="13.05705891" lat="47.53484083"><ele>1578.05</ele></trkpt>
<trkpt lon="13.05706669" lat="47.53484231"><ele>1578.15</ele></trkpt>
<trkpt lon="13.05702758" lat="47.53488673"><ele>1585.83</ele></trkpt>
<trkpt lon="13.05703345" lat="47.53490419"><ele>1588.38</ele></trkpt>
<trkpt lon="13.05701138" lat="47.53492236"><ele>1594.89</ele></trkpt>
</trkseg><trkseg>
<trkpt lon="13.05701138" lat="47.53492236"><ele>1594.89</ele></trkpt>
<trkpt lon="13.05701236" lat="47.53495711"><ele>1594.67</ele></trkpt>
<trkpt lon="13.05699383" lat="47.53498388"><ele>1599.43</ele></trkpt>
<trkpt lon="13.05699786" lat="47.53498980"><ele>1599.51</ele></trkpt>
<trkpt lon="13.05695314" lat="47.53509252"><ele>1603.62</ele></trkpt>
<trkpt lon="13.05688495" lat="47.53509694"><ele>1612.79</ele></trkpt>
<trkpt lon="13.05687694" lat="47.53514108"><ele>1613.12</ele></trkpt>
<trkpt lon="13.05688146" lat="47.53513720"><ele>1614.50</ele></trkpt>
<trkpt lon="13.05693162" lat="47.53509224"><ele>1621.04</ele></trkpt>
<trkpt lon="13.05696628" lat="47.53505342"><ele>1624.01</ele></trkpt>
<trkpt lon="13.05695630" lat="47.53504299"><ele>1624.21</ele></trkpt>
<trkpt lon="13.05704037" lat="47.53495416"><ele>1623.93</ele></trkpt>
<trkpt lon="13.05704605" lat="47.53496929"><ele>1627.12</ele></trkpt>
</trkseg><trkseg>
<trkpt lon="13.05470006" lat="47.53521664"><ele>1880.00</ele></trkpt>
<trkpt lon="13.05471757" lat="47.53523898"><ele>1876.00</ele></trkpt>
<trkpt lon="13.05476893" lat="47.53521187"><ele>1873.30</ele></trkpt>
<trkpt lon="13.05485979" lat="47.53523429"><ele>1870.29</ele></trkpt>
<trkpt lon="13.05496395" lat="47.53524181"><ele>1864.74</ele></trkpt>
<trkpt lon="13.05496243" lat="47.53521101"><ele>1863.63</ele></trkpt>
<trkpt lon="13.05507191" lat="47.53521107"><ele>1849.17</ele></trkpt>
<trkpt lon="13.05513527" lat="47.53519379"><ele>1842.09</ele></trkpt>
<trkpt lon="13.05521964" lat="47.53518676"><ele>1826.66</ele></trkpt>
<trkpt lon="13.05521468" lat="47.53516283"><ele>1825.07</ele></trkpt>
<trkpt lon="13.05524661" lat="47.53512225"><ele>1810.14</ele></trkpt>
<trkpt lon="13.05530951" lat="47.53512449"><ele>1809.23</ele></trkpt>
<trkpt lon="13.05534118" lat="47.53510514"><ele>1802.93</ele></trkpt>
<trkpt lon="13.05537921" lat="47.53509733"><ele>1803.12</ele></trkpt>
<trkpt lon="13.05540745" lat="47.53510977"><ele>1801.83</ele></trkpt>
<trkpt lon="13.05549891" lat="47.53512995"><ele>1795.24</ele></trkpt>
<trkpt lon="13.05554834" lat="47.53515167"><ele>1793.40</ele></trkpt>
<trkpt lon="13.05561448" lat="47.53513803"><ele>1792.74</ele></trkpt>
<trkpt lon="13.05562875" lat="47.53513314"><ele>1792.76</ele></trkpt>
<trkpt lon="13.05557675" lat="47.53510554"><ele>1791.89</ele></trkpt>
<trkpt lon="13.05563123" lat="47.53506606"><ele>1787.52</ele></trkpt>
<trkpt lon="13.05564455" lat="47.53505782"><ele>1770.28</ele></trkpt>
<trkpt lon="13.05571074" lat="47.53506822"><ele>1763.24</ele></trkpt>
<trkpt lon="13.05575451" lat="47.53504160"><ele>1754.54</ele></trkpt>
</trkseg><trkseg>
<trkpt lon="13.05575451" lat="47.53504160"><ele>1754.54</ele></trkpt>
<trkpt lon="13.05575782" lat="47.53503464"><ele>1753.96</ele></trkpt>
<trkpt lon="13.05578677" lat="47.53501372"><ele>1753.45</ele></trkpt>
<trkpt lon="13.05585903" lat="47.53500333"><ele>1751.25</ele></trkpt>
<trkpt lon="13.05585832" lat="47.53497246"><ele>1750.13</ele></trkpt>
<trkpt lon="13.05592791" lat="47.53493008"><ele>1749.58</ele></trkpt>
<trkpt lon="13.05597048" lat="47.53488221"><ele>1733.90</ele></trkpt>
<trkpt lon="13.05600255" lat="47.53483768"><ele>1732.58</ele></trkpt>
<trkpt lon="13.05600840" lat="47.53486981"><ele>1732.64</ele></trkpt>
<trkpt lon="13.05604596" lat="47.53491058"><ele>1732.22</ele></trkpt>
<trkpt lon="13.05602509" lat="47.53498284"><ele>1734.18</ele></trkpt>
<trkpt lon="13.05600389" lat="47.53500984"><ele>1731.28</ele></trkpt>
<trkpt lon="13.05598311" lat="47.53501857"><ele>1730.34</ele></trkpt>
<trkpt lon="13.05597016" lat="47.53497696"><ele>1714.96</ele></trkpt>
<trkpt lon="13.05601354" lat="47.53496798"><ele>1713.54</ele></trkpt>
<trkpt lon="13.05603406" lat="47.53495924"><ele>1709.13</ele></trkpt>
<trkpt lon="13.05612391" lat="47.53494070"><ele>1707.32</ele></trkpt>
</trkseg><trkseg>
<trkpt lon="13.05612391" lat="47.53494070"><ele>1707.32</ele></trkpt>
<trkpt lon="13.05617410" lat="47.53498123"><ele>1706.58</ele></trkpt>
<trkpt lon="13.05620991" lat="47.53500820"><ele>1705.34</ele></trkpt>
<trkpt lon="13.05620957" lat="47.53501738"><ele>1705.19</ele></trkpt>
<trkpt lon="13.05619851" lat="47.53498929"><ele>1702.60</ele></trkpt>
<trkpt lon="13.05619128" lat="47.53499088"><ele>1698.56</ele></trkpt>
<trkpt lon="13.05622469" lat="47.53499289"><ele>1692.19</ele></trkpt>
<trkpt lon="13.05630686" lat="47.53502379"><ele>1691.41</ele></trkpt>
<trkpt lon="13.05632441" lat="47.53503066"><ele>1691.02</ele></trkpt>
<trkpt lon="13.05628649" lat="47.53503200"><ele>1691.29</ele></trkpt>
<trkpt lon="13.05631451" lat="47.53505038"><ele>1690.23</ele></trkpt>
<trkpt lon="13.05634463" lat="47.53509840"><ele>1690.23</ele></trkpt>
<trkpt lon="13.05636014" lat="47.53511729"><ele>1688.24</ele></trkpt>
<trkpt lon="13.05633512" lat="47.53512910"><ele>1686.16</ele></trkpt>
<trkpt lon="13.05638501" lat="47.53513823"><ele>1682.50</ele></trkpt>
<trkpt lon="13.05641119" lat="47.53513444"><ele>1682.56</ele></trkpt>
<trkpt lon="13.05644511" lat="47.53514780"><ele>1682.14</ele></trkpt>
<trkpt lon="13.05647099" lat="47.53516659"><ele>1681.36</ele></trkpt>
<trkpt lon="13.05649691" lat="47.53515569"><ele>1680.28</ele></trkpt>
<trkpt lon="13.05649691" lat="47.53515569"><ele>1675.41</ele></trkpt>
<trkpt lon="13.05653053" lat="47.53512324"><ele>1675.34</ele></trkpt>
<trkpt lon="13.05652335" lat="47.53509810"><ele>1674.37</ele></trkpt>
<trkpt lon="13.05653372" lat="47.53506210"><ele>1673.92</ele></trkpt>
<trkpt lon="13.05654776" lat="47.53503463"><ele>1669.76</ele></trkpt>
<trkpt lon="13.05657524" lat="47.53503527"><ele>1670.66</ele></trkpt>
<trkpt lon="13.05658408" lat="47.53501887"><ele>1670.81</ele></trkpt>
<trkpt lon="13.05659742" lat="47.53501018"><ele>1670.83</ele></trkpt>
<trkpt lon="13.05660527" lat="47.53499925"><ele>1660.12</ele></trkpt>
<trkpt lon="13.05661644" lat="47.53497739"><ele>1660.20</ele></trkpt>
<trkpt lon="13.05664221" lat="47.53498485"><ele>1659.25</ele></trkpt>
<trkpt lon="13.05665181" lat="47.53498042"><ele>1654.23</ele></trkpt>
<trkpt lon="13.05667881" lat="47.53497233"><ele>1654.91</ele></trkpt>
<trkpt lon="13.05670968" lat="47.53499643"><ele>1652.81</ele></trkpt>
<trkpt lon="13.05674795" lat="47.53498205"><ele>1653.17</ele></trkpt>
<trkpt lon="13.05674983" lat="47.53498505"><ele>1649.37</ele></trkpt>
<trkpt lon="13.05680644" lat="47.53494543"><ele>1648.00</ele></trkpt>
<trkpt lon="13.05683047" lat="47.53493855"><ele>1647.72</ele></trkpt>
<trkpt lon="13.05683884" lat="47.53497117"><ele>1647.72</ele></trkpt>
<trkpt lon="13.05686096" lat="47.53494428"><ele>1646.43</ele></trkpt>
<trkpt lon="13.05684505" lat="47.53493232"><ele>1644.80</ele></trkpt>
<trkpt lon="13.05684340" lat="47.53491951"><ele>1643.54</ele></trkpt>
<trkpt lon="13.05687523" lat="47.53492491"><ele>1642.78</ele></trkpt>
<trkpt lon="13.05689428" lat="47.53491992"><ele>1641.97</ele></trkpt>
<trkpt lon="13.05691346" lat="47.53493302"><ele>1641.31</ele></trkpt>
<trkpt lon="13.05693021" lat="47.53492206"><ele>1640.65</ele></trkpt>
<trkpt lon="13.05697579" lat="47.53493993"><ele>1638.78</ele></trkpt>
<trkpt lon="13.05703333" lat="47.53494684"><ele>1625.91</ele></trkpt>
<trkpt lon="13.05704605" lat="47.53496929"><ele>1627.12</ele></trkpt>
</trkseg><trkseg>
<trkpt lon="13.05735926" lat="47.53485348"><ele>1492.22</ele></trkpt>
<trkpt lon="13.05731857" lat="47.53481121"><ele>1490.07</ele></trkpt>
<trkpt lon="13.05736068" lat="47.53473256"><ele>1472.58</ele></trkpt>
<trkpt lon="13.05732422" lat="47.53470882"><ele>1464.77</ele></trkpt>
<trkpt lon="13.05737663" lat="47.53468910"><ele>1453.03</ele></trkpt>
<trkpt lon="13.05739601" lat="47.53467881"><ele>1451.92</ele></trkpt>
<trkpt lon="13.05739601" lat="47.53467881"><ele>1434.88</ele></trkpt>
<trkpt lon="13.05743641" lat="47.53466429"><ele>1418.65</ele></trkpt>
<trkpt lon="13.05746622" lat="47.53469530"><ele>1404.30</ele></trkpt>
<trkpt lon="13.05748560" lat="47.53466710"><ele>1403.24</ele></trkpt>
<trkpt lon="13.05753050" lat="47.53469261"><ele>1391.11</ele></trkpt>
<trkpt lon="13.05756707" lat="47.53472787"><ele>1379.82</ele></trkpt>
<trkpt lon="13.05758271" lat="47.53466776"><ele>1369.75</ele></trkpt>
<trkpt lon="13.05761881" lat="47.53466162"><ele>1356.54</ele></trkpt>
<trkpt lon="13.05764156" lat="47.53462853"><ele>1355.60</ele></trkpt>
<trkpt lon="13.05767281" lat="47.53459172"><ele>1351.49</ele></trkpt>
<trkpt lon="13.05778843" lat="47.53455174"><ele>1342.70</ele></trkpt>
<trkpt lon="13.05781871" lat="47.53450546"><ele>1331.65</ele></trkpt>
<trkpt lon="13.05783457" lat="47.53451482"><ele>1330.37</ele></trkpt>
<trkpt lon="13.05789118" lat="47.53451479"><ele>1320.79</ele></trkpt>
<trkpt lon="13.05792832" lat="47.53451650"><ele>1319.61</ele></trkpt>
<trkpt lon="13.05793994" lat="47.53451112"><ele>1318.10</ele></trkpt>
<trkpt lon="13.05795228" lat="47.53451870"><ele>1311.63</ele></trkpt>
<trkpt lon="13.05799788" lat="47.53451102"><ele>1311.51</ele></trkpt>
<trkpt lon="13.05803450" lat="47.53451227"><ele>1307.98</ele></trkpt>
<trkpt lon="13.05806567" lat="47.53451037"><ele>1305.36</ele></trkpt>
<trkpt lon="13.05808311" lat="47.53453811"><ele>1302.93</ele></trkpt>
<trkpt lon="13.05811096" lat="47.53456126"><ele>1297.61</ele></trkpt>
<trkpt lon="13.05809517" lat="47.53457134"><ele>1287.34</ele></trkpt>
<trkpt lon="13.05813350" lat="47.53454436"><ele>1290.83</ele></trkpt>
</trkseg><trkseg>
<trkpt lon="13.05813350" lat="47.53454436"><ele>1290.83</ele></trkpt>
<trkpt lon="13.05817692" lat="47.53453799"><ele>1286.05</ele></trkpt>
<trkpt lon="13.05817641" lat="47.53452673"><ele>1284.55</ele></trkpt>
<trkpt lon="13.05823539" lat="47.53453439"><ele>1281.27</ele></trkpt>
<trkpt lon="13.05828382" lat="47.53450020"><ele>1271.77</ele></trkpt>
<trkpt lon="13.05827423" lat="47.53448996"><ele>1264.15</ele></trkpt>
<trkpt lon="13.05832002" lat="47.53448768"><ele>1264.09</ele></trkpt>
<trkpt lon="13.05834856" lat="47.53447773"><ele>1255.07</ele></trkpt>
<trkpt lon="13.05840505" lat="47.53449155"><ele>1254.28</ele></trkpt>
<trkpt lon="13.05843643" lat="47.53454130"><ele>1245.99</ele></trkpt>
<trkpt lon="13.05852705" lat="47.53453789"><ele>1233.14</ele></trkpt>
<trkpt lon="13.05856234" lat="47.53456431"><ele>1232.45</ele></trkpt>
<trkpt lon="13.05861924" lat="47.53460676"><ele>1230.38</ele></trkpt>
<trkpt lon="13.05873357" lat="47.53461607"><ele>1220.41</ele></trkpt>
<trkpt lon="13.05875070" lat="47.53462356"><ele>1218.44</ele></trkpt>
<trkpt lon="13.05878302" lat="47.53460809"><ele>1216.58</ele></trkpt>
<trkpt lon="13.05881219" lat="47.53459194"><ele>1214.74</ele></trkpt>
<trkpt lon="13.05883464" lat="47.53456316"><ele>1212.20</ele></trkpt>
<trkpt lon="13.05885646" lat="47.53453735"><ele>1215.39</ele></trkpt>
<trkpt lon="13.05891837" lat="47.53451581"><ele>1222.35</ele></trkpt>
<trkpt lon="13.05894552" lat="47.53449674"><ele>1225.39</ele></trkpt>
<trkpt lon="13.05896729" lat="47.53447201"><ele>1225.67</ele></trkpt>
<trkpt lon="13.05898555" lat="47.53446692"><ele>1221.58</ele></trkpt>
<trkpt lon="13.05900884" lat="47.53443717"><ele>1220.86</ele></trkpt>
<trkpt lon="13.05902119" lat="47.53443378"><ele>1214.52</ele></trkpt>
<trkpt lon="13.05909683" lat="47.53443632"><ele>1210.52</ele></trkpt>
<trkpt lon="13.05912557" lat="47.53443896"><ele>1205.13</ele></trkpt>
<trkpt lon="13.05910053" lat="47.53444763"><ele>1199.31</ele></trkpt>
<trkpt lon="13.05906100" lat="47.53448907"><ele>1190.54</ele></trkpt>
<trkpt lon="13.05901707" lat="47.53446601"><ele>1180.67</ele></trkpt>
<trkpt lon="13.05901707" lat="47.53446601"><ele>1176.67</ele></trkpt>
</trkseg><trkseg>
<trkpt lon="13.05901707" lat="47.53446601"><ele>1180.67</ele></trkpt>
<trkpt lon="13.05897921" lat="47.53445871"><ele>1181.46</ele></trkpt>
<trkpt lon="13.05899911" lat="47.53449189"><ele>1180.62</ele></trkpt>
<trkpt lon="13.05901153" lat="47.53451892"><ele>1181.06</ele></trkpt>
<trkpt lon="13.05906162" lat="47.53454082"><ele>1184.20</ele></trkpt>
<trkpt lon="13.05905954" lat="47.53456832"><ele>1185.08</ele></trkpt>
<trkpt lon="13.05908809" lat="47.53455081"><ele>1187.34</ele></trkpt>
<trkpt lon="13.05912547" lat="47.53453155"><ele>1187.28</ele></trkpt>
<trkpt lon="13.05917527" lat="47.53451431"><ele>1184.85</ele></trkpt>
<trkpt lon="13.05917527" lat="47.53451431"><ele>1180.90</ele></trkpt>
<trkpt lon="13.05914553" lat="47.53452793"><ele>1180.85</ele></trkpt>
<trkpt lon="13.05917583" lat="47.53457821"><ele>1179.68</ele></trkpt>
<trkpt lon="13.05919079" lat="47.53459430"><ele>1178.25</ele></trkpt>
<trkpt lon="13.05917119" lat="47.53459253"><ele>1169.81</ele></trkpt>
<trkpt lon="13.05917881" lat="47.53460912"><ele>1169.50</ele></trkpt>
<trkpt lon="13.05919179" lat="47.53464993"><ele>1160.00</ele></trkpt>
<trkpt lon="13.05922087" lat="47.53469361"><ele>1160.66</ele></trkpt>
<trkpt lon="13.05928393" lat="47.53468442"><ele>1145.69</ele></trkpt>
</trkseg><trkseg>
<trkpt lon="13.05928393" lat="47.53468442"><ele>1145.69</ele></trkpt>
<trkpt lon="13.05935725" lat="47.53473911"><ele>1145.69</ele></trkpt>
<trkpt lon="13.05940608" lat="47.53476972"><ele>1143.35</ele></trkpt>
<trkpt lon="13.05947491" lat="47.53478042"><ele>1140.15</ele></trkpt>
<trkpt lon="13.05963321" lat="47.53479705"><ele>1129.30</ele></trkpt>
<trkpt lon="13.05966456" lat="47.53482602"><ele>1128.67</ele></trkpt>
<trkpt lon="13.05967009" lat="47.53481657"><ele>1128.11</ele></trkpt>
<trkpt lon="13.05971794" lat="47.53479462"><ele>1125.70</ele></trkpt>
<trkpt lon="13.05972002" lat="47.53481013"><ele>1124.66</ele></trkpt>
<trkpt lon="13.05972786" lat="47.53482466"><ele>1124.24</ele></trkpt>
<trkpt lon="13.05974971" lat="47.53483376"><ele>1122.24</ele></trkpt>
<trkpt lon="13.05977433" lat="47.53483291"><ele>1122.07</ele></trkpt>
<trkpt lon="13.05977240" lat="47.53485277"><ele>1121.84</ele></trkpt>
<trkpt lon="13.05974998" lat="47.53486265"><ele>1120.32</ele></trkpt>
<trkpt lon="13.05975857" lat="47.53484228"><ele>1119.74</ele></trkpt>
<trkpt lon="13.05979804" lat="47.53485635"><ele>1118.45</ele></trkpt>
</trkseg><trkseg>
<trkpt lon="13.05979804" lat="47.53485635"><ele>1118.45</ele></trkpt>
<trkpt lon="13.05982850" lat="47.53488449"><ele>1109.74</ele></trkpt>
<trkpt lon="13.05985484" lat="47.53490500"><ele>1103.55</ele></trkpt>
<trkpt lon="13.05988229" lat="47.53494272"><ele>1100.63</ele></trkpt>
<trkpt lon="13.05990262" lat="47.53498230"><ele>1099.89</ele></trkpt>
<trkpt lon="13.05992969" lat="47.53499041"><ele>1090.24</ele></trkpt>
<trkpt lon="13.05998175" lat="47.53497671"><ele>1076.50</ele></trkpt>
<trkpt lon="13.06001274" lat="47.53492918"><ele>1072.30</ele></trkpt>
<trkpt lon="13.06001260" lat="47.53490038"><ele>1070.30</ele></trkpt>
<trkpt lon="13.06002074" lat="47.53487794"><ele>1065.25</ele></trkpt>
<trkpt lon="13.05999104" lat="47.53484027"><ele>1061.67</ele></trkpt>
<trkpt lon="13.06000322" lat="47.53482689"><ele>1057.74</ele></trkpt>
<trkpt lon="13.06004506" lat="47.53481302"><ele>1053.25</ele></trkpt>
<trkpt lon="13.06004097" lat="47.53479414"><ele>1049.73</ele></trkpt>
<trkpt lon="13.06004447" lat="47.53478206"><ele>1038.60</ele></trkpt>
<trkpt lon="13.06007517" lat="47.53476386"><ele>1032.56</ele></trkpt>
<trkpt lon="13.06009423" lat="47.53475509"><ele>1024.43</ele></trkpt>
</trkseg><trkseg>
<trkpt lon="13.06004506" lat="47.53481302"><ele>1053.25</ele></trkpt>
<trkpt lon="13.06005998" lat="47.53480823"><ele>1051.71</ele></trkpt>
<trkpt lon="13.06006758" lat="47.53481835"><ele>1050.10</ele></trkpt>
<trkpt lon="13.06007261" lat="47.53482617"><ele>1046.30</ele></trkpt>
<trkpt lon="13.06009292" lat="47.53481581"><ele>1041.04</ele></trkpt>
</trkseg><trkseg>
<trkpt lon="13.05720377" lat="47.53481836"><ele>1519.77</ele></trkpt>
<trkpt lon="13.05719303" lat="47.53480333"><ele>1519.66</ele></trkpt>
<trkpt lon="13.05714018" lat="47.53480603"><ele>1523.36</ele></trkpt>
<trkpt lon="13.05713585" lat="47.53477590"><ele>1524.38</ele></trkpt>
<trkpt lon="13.05712256" lat="47.53476884"><ele>1525.21</ele></trkpt>
<trkpt lon="13.05700590" lat="47.53466446"><ele>1536.16</ele></trkpt>
</trkseg><trkseg>
<trkpt lon="13.05806567" lat="47.53451037"><ele>1305.36</ele></trkpt>
<trkpt lon="13.05806634" lat="47.53449562"><ele>1304.63</ele></trkpt>
<trkpt lon="13.05804890" lat="47.53446797"><ele>1302.20</ele></trkpt>
<trkpt lon="13.05804439" lat="47.53446034"><ele>1297.92</ele></trkpt>
<trkpt lon="13.05804127" lat="47.53440476"><ele>1290.55</ele></trkpt>
<trkpt lon="13.05800284" lat="47.53440897"><ele>1288.99</ele></trkpt>
<trkpt lon="13.05799257" lat="47.53440277"><ele>1285.98</ele></trkpt>
<trkpt lon="13.05801922" lat="47.53439008"><ele>1284.73</ele></trkpt>
<trkpt lon="13.05800156" lat="47.53435748"><ele>1283.62</ele></trkpt>
<trkpt lon="13.05799524" lat="47.53432354"><ele>1279.68</ele></trkpt>
<trkpt lon="13.05807202" lat="47.53430945"><ele>1270.79</ele></trkpt>
<trkpt lon="13.05805934" lat="47.53429673"><ele>1269.42</ele></trkpt>
<trkpt lon="13.05806933" lat="47.53427800"><ele>1269.07</ele></trkpt>
<trkpt lon="13.05809629" lat="47.53425686"><ele>1267.75</ele></trkpt>
<trkpt lon="13.05812161" lat="47.53423318"><ele>1266.76</ele></trkpt>
<trkpt lon="13.05817355" lat="47.53420130"><ele>1266.85</ele></trkpt>
<trkpt lon="13.05821154" lat="47.53417630"><ele>1265.93</ele></trkpt>
<trkpt lon="13.05822917" lat="47.53416661"><ele>1263.29</ele></trkpt>
<trkpt lon="13.05822113" lat="47.53413606"><ele>1259.59</ele></trkpt>
<trkpt lon="13.05827165" lat="47.53410281"><ele>1254.28</ele></trkpt>
<trkpt lon="13.05829274" lat="47.53410020"><ele>1254.63</ele></trkpt>
<trkpt lon="13.05832950" lat="47.53409443"><ele>1241.28</ele></trkpt>
<trkpt lon="13.05837782" lat="47.53407041"><ele>1241.28</ele></trkpt>
<trkpt lon="13.05839342" lat="47.53406177"><ele>1242.47</ele></trkpt>
<trkpt lon="13.05843755" lat="47.53411525"><ele>1239.00</ele></trkpt>
<trkpt lon="13.05840977" lat="47.53413700"><ele>1238.55</ele></trkpt>
<trkpt lon="13.05839876" lat="47.53414735"><ele>1240.12</ele></trkpt>
<trkpt lon="13.05837876" lat="47.53416365"><ele>1242.65</ele></trkpt>
<trkpt lon="13.05837842" lat="47.53417661"><ele>1243.01</ele></trkpt>
<trkpt lon="13.05843126" lat="47.53414529"><ele>1238.88</ele></trkpt>
<trkpt lon="13.05843693" lat="47.53415375"><ele>1236.19</ele></trkpt>
</trkseg></trk>
</gpx>
