<?xml version="1.0" encoding="UTF-8"?>
<kml xmlns="http://www.opengis.net/kml/2.2">
<Document><name>491-master</name>
<Style id="fix"><IconStyle><Icon><href>https://maps.google.com/mapfiles/kml/paddle/red-blank.png</href></Icon><color>ff0000ff</color><hotSpot x="32" y="1" xunits="pixels" yunits="pixels"/></IconStyle></Style>
<Style id="exp"><IconStyle><Icon><href>https://maps.google.com/mapfiles/kml/paddle/blu-blank.png</href></Icon><color>ffff0000</color><hotSpot x="32" y="1" xunits="pixels" yunits="pixels"/></IconStyle></Style>
<Style id="ent"><IconStyle><Icon><href>https://maps.google.com/mapfiles/kml/paddle/grn-blank.png</href></Icon><color>ff00ff00</color><hotSpot x="32" y="1" xunits="pixels" yunits="pixels"/></IconStyle></Style>
<Style id="surf"><LineStyle><color>ff00ff00</color></LineStyle></Style>
<Style id="splay"><LineStyle><color>40ff00ff</color></LineStyle></Style>
<Placemark><MultiGeometry><LineString><altitudeMode>absolute</altitudeMode><coordinates>
13.05704605,47.53496929,1627.12
13.05708772,47.53497440,1623.09
13.05707978,47.53499154,1622.16
13.05707960,47.53498920,1611.34
13.05708504,47.53502529,1607.45
13.05709841,47.53505917,1608.06
13.05712618,47.53507709,1607.25
13.05716760,47.53508535,1602.69
</coordinates></LineString>
<LineString><altitudeMode>absolute</altitudeMode><coordinates>
13.05716760,47.53508535,1602.69
13.05718658,47.53508217,1594.23
13.05716537,47.53509522,1594.61
13.05717263,47.53507491,1585.61
13.05720197,47.53509377,1569.81
13.05723964,47.53507740,1569.64
13.05727531,47.53507584,1567.40
13.05727530,47.53505092,1567.00
13.05726857,47.53503892,1564.95
13.05726839,47.53503667,1554.18
13.05726755,47.53501974,1554.23
13.05733164,47.53502920,1551.47
13.05735941,47.53501131,1534.94
13.05733188,47.53498340,1533.67
13.05736318,47.53497403,1532.78
13.05737073,47.53495310,1527.83
</coordinates></LineString>
<LineString><altitudeMode>absolute</altitudeMode><coordinates>
13.05737073,47.53495310,1527.83
13.05741646,47.53490942,1508.74
13.05735926,47.53485348,1492.22
</coordinates></LineString>
<LineString><altitudeMode>absolute</altitudeMode><coordinates>
13.05735926,47.53485348,1492.22
13.05737288,47.53483733,1492.37
13.05732134,47.53485490,1506.87
13.05722074,47.53483016,1509.84
13.05722291,47.53483992,1510.22
13.05719537,47.53483729,1514.79
13.05720377,47.53481836,1519.77
13.05718345,47.53477131,1530.04
13.05717681,47.53476760,1530.16
13.05715032,47.53474735,1548.52
13.05709509,47.53476765,1551.40
13.05707133,47.53481737,1554.51
13.05706302,47.53479078,1569.18
13.05709586,47.53479367,1573.32
13.05705891,47.53484083,1578.05
13.05706669,47.53484231,1578.15
13.05702758,47.53488673,1585.83
13.05703345,47.53490419,1588.38
13.05701138,47.53492236,1594.89
</coordinates></LineString>
<LineString><altitudeMode>absolute</altitudeMode><coordinates>
13.05701138,47.53492236,1594.89
13.05701236,47.53495711,1594.67
13.05699383,47.53498388,1599.43
13.05699786,47.53498980,1599.51
13.05695314,47.53509252,1603.62
13.05688495,47.53509694,1612.79
13.05687694,47.53514108,1613.12
13.05688146,47.53513720,1614.50
13.05693162,47.53509224,1621.04
13.05696628,47.53505342,1624.01
13.05695630,47.53504299,1624.21
13.05704037,47.53495416,1623.93
13.05704605,47.53496929,1627.12
</coordinates></LineString>
<LineString><altitudeMode>absolute</altitudeMode><coordinates>
13.05470006,47.53521664,1880.00
13.05471757,47.53523898,1876.00
13.05476893,47.53521187,1873.30
13.05485979,47.53523429,1870.29
13.05496395,47.53524181,1864.74
13.05496243,47.53521101,1863.63
13.05507191,47.53521107,1849.17
13.05513527,47.53519379,1842.09
13.05521964,47.53518676,1826.66
13.05521468,47.53516283,1825.07
13.05524661,47.53512225,1810.14
13.05530951,47.53512449,1809.23
13.05534118,47.53510514,1802.93
13.05537921,47.53509733,1803.12
13.05540745,47.53510977,1801.83
13.05549891,47.53512995,1795.24
13.05554834,47.53515167,1793.40
13.05561448,47.53513803,1792.74
13.05562875,47.53513314,1792.76
13.05557675,47.53510554,1791.89
13.05563123,47.53506606,1787.52
13.05564455,47.53505782,1770.28
13.05571074,47.53506822,1763.24
13.05575451,47.53504160,1754.54
</coordinates></LineString>
<LineString><altitudeMode>absolute</altitudeMode><coordinates>
13.05575451,47.53504160,1754.54
13.05575782,47.53503464,1753.96
13.05578677,47.53501372,1753.45
13.05585903,47.53500333,1751.25
13.05585832,47.53497246,1750.13
13.05592791,47.53493008,1749.58
13.05597048,47.53488221,1733.90
13.05600255,47.53483768,1732.58
13.05600840,47.53486981,1732.64
13.05604596,47.53491058,1732.22
13.05602509,47.53498284,1734.18
13.05600389,47.53500984,1731.28
13.05598311,47.53501857,1730.34
13.05597016,47.53497696,1714.96
13.05601354,47.53496798,1713.54
13.05603406,47.53495924,1709.13
13.05612391,47.53494070,1707.32
</coordinates></LineString>
<LineString><altitudeMode>absolute</altitudeMode><coordinates>
13.05612391,47.53494070,1707.32
13.05617410,47.53498123,1706.58
13.05620991,47.53500820,1705.34
13.05620957,47.53501738,1705.19
13.05619851,47.53498929,1702.60
13.05619128,47.53499088,1698.56
13.05622469,47.53499289,1692.19
13.05630686,47.53502379,1691.41
13.05632441,47.53503066,1691.02
13.05628649,47.53503200,1691.29
13.05631451,47.53505038,1690.23
13.05634463,47.53509840,1690.23
13.05636014,47.53511729,1688.24
13.05633512,47.53512910,1686.16
13.05638501,47.53513823,1682.50
13.05641119,47.53513444,1682.56
13.05644511,47.53514780,1682.14
13.05647099,47.53516659,1681.36
13.05649691,47.53515569,1680.28
13.05649691,47.53515569,1675.41
13.05653053,47.53512324,1675.34
13.05652335,47.53509810,1674.37
13.05653372,47.53506210,1673.92
13.05654776,47.53503463,1669.76
13.05657524,47.53503527,1670.66
13.05658408,47.53501887,1670.81
13.05659742,47.53501018,1670.83
13.05660527,47.53499925,1660.12
13.05661644,47.53497739,1660.20
13.05664221,47.53498485,1659.25
13.05665181,47.53498042,1654.23
13.05667881,47.53497233,1654.91
13.05670968,47.53499643,1652.81
13.05674795,47.53498205,1653.17
13.05674983,47.53498505,1649.37
13.05680644,47.53494543,1648.00
13.05683047,47.53493855,1647.72
13.05683884,47.53497117,1647.72
13.05686096,47.53494428,1646.43
13.05684505,47.53493232,1644.80
13.05684340,47.53491951,1643.54
13.05687523,47.53492491,1642.78
13.05689428,47.53491992,1641.97
13.05691346,47.53493302,1641.31
13.05693021,47.53492206,1640.65
13.05697579,47.53493993,1638.78
13.05703333,47.53494684,1625.91
13.05704605,47.53496929,1627.12
</coordinates></LineString>
<LineString><altitudeMode>absolute</altitudeMode><coordinates>
13.05735926,47.53485348,1492.22
13.05731857,47.53481121,1490.07
13.05736068,47.53473256,1472.58
13.05732422,47.53470882,1464.77
13.05737663,47.53468910,1453.03
13.05739601,47.53467881,1451.92
13.05739601,47.53467881,1434.88
13.05743641,47.53466429,1418.65
13.05746622,47.53469530,1404.30
13.05748560,47.53466710,1403.24
13.05753050,47.53469261,1391.11
13.05756707,47.53472787,1379.82
13.05758271,47.53466776,1369.75
13.05761881,47.53466162,1356.54
13.05764156,47.53462853,1355.60
13.05767281,47.53459172,1351.49
13.05778843,47.53455174,1342.70
13.05781871,47.53450546,1331.65
13.05783457,47.53451482,1330.37
13.05789118,47.53451479,1320.79
13.05792832,47.53451650,1319.61
13.05793994,47.53451112,1318.10
13.05795228,47.53451870,1311.63
13.05799788,47.53451102,1311.51
13.05803450,47.53451227,1307.98
13.05806567,47.53451037,1305.36
13.05808311,47.53453811,1302.93
13.05811096,47.53456126,1297.61
13.05809517,47.53457134,1287.34
13.05813350,47.53454436,1290.83
</coordinates></LineString>
<LineString><altitudeMode>absolute</altitudeMode><coordinates>
13.05813350,47.53454436,1290.83
13.05817692,47.53453799,1286.05
13.05817641,47.53452673,1284.55
13.05823539,47.53453439,1281.27
13.05828382,47.53450020,1271.77
13.05827423,47.53448996,1264.15
13.05832002,47.53448768,1264.09
13.05834856,47.53447773,1255.07
13.05840505,47.53449155,1254.28
13.05843643,47.53454130,1245.99
13.05852705,47.53453789,1233.14
13.05856234,47.53456431,1232.45
13.05861924,47.53460676,1230.38
13.05873357,47.53461607,1220.41
13.05875070,47.53462356,1218.44
13.05878302,47.53460809,1216.58
13.05881219,47.53459194,1214.74
13.05883464,47.53456316,1212.20
13.05885646,47.53453735,1215.39
13.05891837,47.53451581,1222.35
13.05894552,47.53449674,1225.39
13.05896729,47.53447201,1225.67
13.05898555,47.53446692,1221.58
13.05900884,47.53443717,1220.86
13.05902119,47.53443378,1214.52
13.05909683,47.53443632,1210.52
13.05912557,47.53443896,1205.13
13.05910053,47.53444763,1199.31
13.05906100,47.53448907,1190.54
13.05901707,47.53446601,1180.67
13.05901707,47.53446601,1176.67
</coordinates></LineString>
<LineString><altitudeMode>absolute</altitudeMode><coordinates>
13.05901707,47.53446601,1180.67
13.05897921,47.53445871,1181.46
13.05899911,47.53449189,1180.62
13.05901153,47.53451892,1181.06
13.05906162,47.53454082,1184.20
13.05905954,47.53456832,1185.08
13.05908809,47.53455081,1187.34
13.05912547,47.53453155,1187.28
13.05917527,47.53451431,1184.85
13.05917527,47.53451431,1180.90
13.05914553,47.53452793,1180.85
13.05917583,47.53457821,1179.68
13.05919079,47.53459430,1178.25
13.05917119,47.53459253,1169.81
13.05917881,47.53460912,1169.50
13.05919179,47.53464993,1160.00
13.05922087,47.53469361,1160.66
13.05928393,47.53468442,1145.69
</coordinates></LineString>
<LineString><altitudeMode>absolute</altitudeMode><coordinates>
13.05928393,47.53468442,1145.69
13.05935725,47.53473911,1145.69
13.05940608,47.53476972,1143.35
13.05947491,47.53478042,1140.15
13.05963321,47.53479705,1129.30
13.05966456,47.53482602,1128.67
13.05967009,47.53481657,1128.11
13.05971794,47.53479462,1125.70
13.05972002,47.53481013,1124.66
13.05972786,47.53482466,1124.24
13.05974971,47.53483376,1122.24
13.05977433,47.53483291,1122.07
13.05977240,47.53485277,1121.84
13.05974998,47.53486265,1120.32
13.05975857,47.53484228,1119.74
13.05979804,47.53485635,1118.45
</coordinates></LineString>
<LineString><altitudeMode>absolute</altitudeMode><coordinates>
13.05979804,47.53485635,1118.45
13.05982850,47.53488449,1109.74
13.05985484,47.53490500,1103.55
13.05988229,47.53494272,1100.63
13.05990262,47.53498230,1099.89
13.05992969,47.53499041,1090.24
13.05998175,47.53497671,1076.50
13.06001274,47.53492918,1072.30
13.06001260,47.53490038,1070.30
13.06002074,47.53487794,1065.25
13.05999104,47.53484027,1061.67
13.06000322,47.53482689,1057.74
13.06004506,47.53481302,1053.25
13.06004097,47.53479414,1049.73
13.06004447,47.53478206,1038.60
13.06007517,47.53476386,1032.56
13.06009423,47.53475509,1024.43
</coordinates></LineString>
<LineString><altitudeMode>absolute</altitudeMode><coordinates>
13.06004506,47.53481302,1053.25
13.06005998,47.53480823,1051.71
13.06006758,47.53481835,1050.10
13.06007261,47.53482617,1046.30
13.06009292,47.53481581,1041.04
</coordinates></LineString>
<LineString><altitudeMode>absolute</altitudeMode><coordinates>
13.05720377,47.53481836,1519.77
13.05719303,47.53480333,1519.66
13.05714018,47.53480603,1523.36
13.05713585,47.53477590,1524.38
13.05712256,47.53476884,1525.21
13.05700590,47.53466446,1536.16
</coordinates></LineString>
<LineString><altitudeMode>absolute</altitudeMode><coordinates>
13.05806567,47.53451037,1305.36
13.05806634,47.53449562,1304.63
13.05804890,47.53446797,1302.20
13.05804439,47.53446034,1297.92
13.05804127,47.53440476,1290.55
13.05800284,47.53440897,1288.99
13.05799257,47.53440277,1285.98
13.05801922,47.53439008,1284.73
13.05800156,47.53435748,1283.62
13.05799524,47.53432354,1279.68
13.05807202,47.53430945,1270.79
13.05805934,47.53429673,1269.42
13.05806933,47.53427800,1269.07
13.05809629,47.53425686,1267.75
13.05812161,47.53423318,1266.76
13.05817355,47.53420130,1266.85
13.05821154,47.53417630,1265.93
13.05822917,47.53416661,1263.29
13.05822113,47.53413606,1259.59
13.05827165,47.53410281,1254.28
13.05829274,47.53410020,1254.63
13.05832950,47.53409443,1241.28
13.05837782,47.53407041,1241.28
13.05839342,47.53406177,1242.47
13.05843755,47.53411525,1239.00
13.05840977,47.53413700,1238.55
13.05839876,47.53414735,1240.12
13.05837876,47.53416365,1242.65
13.05837842,47.53417661,1243.01
13.05843126,47.53414529,1238.88
13.05843693,47.53415375,1236.19
</coordinates></LineString></MultiGeometry></Placemark>
</Document></kml>
