<?xml version="1.0" encoding="UTF-8"?>
<kml xmlns="http://www.opengis.net/kml/2.2">
<Document><name>571-master</name>
<Style id="fix"><IconStyle><Icon><href>https://maps.google.com/mapfiles/kml/paddle/red-blank.png</href></Icon><color>ff0000ff</color><hotSpot x="32" y="1" xunits="pixels" yunits="pixels"/></IconStyle></Style>
<Style id="exp"><IconStyle><Icon><href>https://maps.google.com/mapfiles/kml/paddle/blu-blank.png</href></Icon><color>ffff0000</color><hotSpot x="32" y="1" xunits="pixels" yunits="pixels"/></IconStyle></Style>
<Style id="ent"><IconStyle><Icon><href>https://maps.google.com/mapfiles/kml/paddle/grn-blank.png</href></Icon><color>ff00ff00</color><hotSpot x="32" y="1" xunits="pixels" yunits="pixels"/></IconStyle></Style>
<Style id="surf"><LineStyle><color>ff00ff00</color></LineStyle></Style>
<Style id="splay"><LineStyle><color>40ff00ff</color></LineStyle></Style>
<Placemark><MultiGeometry><LineString><altitudeMode>absolute</altitudeMode><coordinates>
13.05254997,47.51898665,2090.00
13.05250854,47.51896839,2089.60
13.05247136,47.51897163,2089.55
13.05243731,47.51896215,2089.87
13.05242341,47.51896794,2089.10
13.05238071,47.51896955,2088.09
13.05235992,47.51898207,2087.65
13.05229705,47.51897254,2087.78
13.05226295,47.51896800,2095.00
</coordinates></LineString>
<LineString><altitudeMode>absolute</altitudeMode><coordinates>
13.05229705,47.51897254,2087.78
13.05230373,47.51892487,2087.04
</coordinates></LineString>
<LineString><altitudeMode>absolute</altitudeMode><coordinates>
13.05230373,47.51892487,2087.04
13.05227575,47.51891288,2085.37
</coordinates></LineString>
<LineString><altitudeMode>absolute</altitudeMode><coordinates>
13.05227575,47.51891288,2085.37
13.05225169,47.51889879,2084.30
</coordinates></LineString>
<LineString><altitudeMode>absolute</altitudeMode><coordinates>
13.05225169,47.51889879,2084.30
13.05220746,47.51886646,2084.54
</coordinates></LineString>
<LineString><altitudeMode>absolute</altitudeMode><coordinates>
13.05220746,47.51886646,2084.54
13.05213639,47.51886660,2082.42
</coordinates></LineString>
<LineString><altitudeMode>absolute</altitudeMode><coordinates>
13.05213639,47.51886660,2082.42
13.05209429,47.51885554,2082.33
</coordinates></LineString>
<LineString><altitudeMode>absolute</altitudeMode><coordinates>
13.05209429,47.51885554,2082.33
13.05203099,47.51884681,2082.47
</coordinates></LineString>
<LineString><altitudeMode>absolute</altitudeMode><coordinates>
13.05203099,47.51884681,2082.47
13.05202610,47.51881748,2081.26
</coordinates></LineString></MultiGeometry></Placemark>
</Document></kml>
