<?xml version="1.0" encoding="UTF-8"?>
<gpx version="1.0" creator="survex 1.4.17 (aven) - https://survex.com/" xmlns:xsi="http://www.w3.org/2001/XMLSchema-instance" xmlns="http://www.topografix.com/GPX/1/0" xsi:schemaLocation="http://www.topografix.com/GPX/1/0 http://www.topografix.com/GPX/1/0/gpx.xsd">
<name>571-master</name>
<time>2025-05-26T22:12:27Z</time>
<trk><name>571-master</name><trkseg>
<trkpt lon="13.05254997" lat="47.51898665"><ele>2090.00</ele></trkpt>
<trkpt lon="13.05250854" lat="47.51896839"><ele>2089.60</ele></trkpt>
<trkpt lon="13.05247136" lat="47.51897163"><ele>2089.55</ele></trkpt>
<trkpt lon="13.05243731" lat="47.51896215"><ele>2089.87</ele></trkpt>
<trkpt lon="13.05242341" lat="47.51896794"><ele>2089.10</ele></trkpt>
<trkpt lon="13.05238071" lat="47.51896955"><ele>2088.09</ele></trkpt>
<trkpt lon="13.05235992" lat="47.51898207"><ele>2087.65</ele></trkpt>
<trkpt lon="13.05229705" lat="47.51897254"><ele>2087.78</ele></trkpt>
<trkpt lon="13.05226295" lat="47.51896800"><ele>2095.00</ele></trkpt>
</trkseg><trkseg>
<trkpt lon="13.05229705" lat="47.51897254"><ele>2087.78</ele></trkpt>
<trkpt lon="13.05230373" lat="47.51892487"><ele>2087.04</ele></trkpt>
</trkseg><trkseg>
<trkpt lon="13.05230373" lat="47.51892487"><ele>2087.04</ele></trkpt>
<trkpt lon="13.05227575" lat="47.51891288"><ele>2085.37</ele></trkpt>
</trkseg><trkseg>
<trkpt lon="13.05227575" lat="47.51891288"><ele>2085.37</ele></trkpt>
<trkpt lon="13.05225169" lat="47.51889879"><ele>2084.30</ele></trkpt>
</trkseg><trkseg>
<trkpt lon="13.05225169" lat="47.51889879"><ele>2084.30</ele></trkpt>
<trkpt lon="13.05220746" lat="47.51886646"><ele>2084.54</ele></trkpt>
</trkseg><trkseg>
<trkpt lon="13.05220746" lat="47.51886646"><ele>2084.54</ele></trkpt>
<trkpt lon="13.05213639" lat="47.51886660"><ele>2082.42</ele></trkpt>
</trkseg><trkseg>
<trkpt lon="13.05213639" lat="47.51886660"><ele>2082.42</ele></trkpt>
<trkpt lon="13.05209429" lat="47.51885554"><ele>2082.33</ele></trkpt>
</trkseg><trkseg>
<trkpt lon="13.05209429" lat="47.51885554"><ele>2082.33</ele></trkpt>
<trkpt lon="13.05203099" lat="47.51884681"><ele>2082.47</ele></trkpt>
</trkseg><trkseg>
<trkpt lon="13.05203099" lat="47.51884681"><ele>2082.47</ele></trkpt>
<trkpt lon="13.05202610" lat="47.51881748"><ele>2081.26</ele></trkpt>
</trkseg></trk>
</gpx>
