<?xml version="1.0" encoding="UTF-8"?>
<kml xmlns="http://www.opengis.net/kml/2.2">
<Document><name>486-master</name>
<Style id="fix"><IconStyle><Icon><href>https://maps.google.com/mapfiles/kml/paddle/red-blank.png</href></Icon><color>ff0000ff</color><hotSpot x="32" y="1" xunits="pixels" yunits="pixels"/></IconStyle></Style>
<Style id="exp"><IconStyle><Icon><href>https://maps.google.com/mapfiles/kml/paddle/blu-blank.png</href></Icon><color>ffff0000</color><hotSpot x="32" y="1" xunits="pixels" yunits="pixels"/></IconStyle></Style>
<Style id="ent"><IconStyle><Icon><href>https://maps.google.com/mapfiles/kml/paddle/grn-blank.png</href></Icon><color>ff00ff00</color><hotSpot x="32" y="1" xunits="pixels" yunits="pixels"/></IconStyle></Style>
<Style id="surf"><LineStyle><color>ff00ff00</color></LineStyle></Style>
<Style id="splay"><LineStyle><color>40ff00ff</color></LineStyle></Style>
<Placemark><MultiGeometry><LineString><altitudeMode>absolute</altitudeMode><coordinates>
13.03497163,47.53627836,2025.00
13.03489756,47.53620888,2013.23
13.03481740,47.53612796,1998.87
13.03482539,47.53613818,1996.74
13.03484001,47.53609191,1999.08
13.03487097,47.53608479,1994.64
</coordinates></LineString>
<LineString><altitudeMode>absolute</altitudeMode><coordinates>
13.03484001,47.53609191,1999.08
13.03492189,47.53608035,2003.65
</coordinates></LineString>
<LineString><altitudeMode>absolute</altitudeMode><coordinates>
13.03482539,47.53613818,1996.74
13.03478961,47.53617824,1994.20
13.03479786,47.53620285,1995.57
13.03479511,47.53621603,1992.55
</coordinates></LineString></MultiGeometry></Placemark>
</Document></kml>
