<?xml version="1.0" encoding="UTF-8"?>
<kml xmlns="http://www.opengis.net/kml/2.2">
<Document><name>501-master</name>
<Style id="fix"><IconStyle><Icon><href>https://maps.google.com/mapfiles/kml/paddle/red-blank.png</href></Icon><color>ff0000ff</color><hotSpot x="32" y="1" xunits="pixels" yunits="pixels"/></IconStyle></Style>
<Style id="exp"><IconStyle><Icon><href>https://maps.google.com/mapfiles/kml/paddle/blu-blank.png</href></Icon><color>ffff0000</color><hotSpot x="32" y="1" xunits="pixels" yunits="pixels"/></IconStyle></Style>
<Style id="ent"><IconStyle><Icon><href>https://maps.google.com/mapfiles/kml/paddle/grn-blank.png</href></Icon><color>ff00ff00</color><hotSpot x="32" y="1" xunits="pixels" yunits="pixels"/></IconStyle></Style>
<Style id="surf"><LineStyle><color>ff00ff00</color></LineStyle></Style>
<Style id="splay"><LineStyle><color>40ff00ff</color></LineStyle></Style>
<Placemark><MultiGeometry><LineString><altitudeMode>absolute</altitudeMode><coordinates>
13.06358334,47.53460001,1991.00
13.06359292,47.53462842,1988.06
13.06365802,47.53466480,1984.20
13.06369145,47.53464467,1978.40
13.06370451,47.53464354,1974.90
13.06370629,47.53464555,1973.48
13.06374678,47.53457442,1973.80
13.06375020,47.53454290,1974.99
13.06376707,47.53452509,1975.11
13.06382533,47.53449440,1964.17
13.06387975,47.53449253,1950.32
13.06393688,47.53450700,1943.14
13.06396989,47.53454877,1942.07
13.06402180,47.53456080,1930.89
13.06404188,47.53453495,1929.72
13.06409512,47.53451084,1921.60
13.06412845,47.53452229,1920.30
13.06418181,47.53450942,1909.91
13.06421481,47.53450440,1905.53
13.06424218,47.53451899,1900.70
13.06426011,47.53451182,1899.38
13.06428495,47.53449416,1895.88
13.06434344,47.53448264,1894.71
13.06433932,47.53450425,1894.71
</coordinates></LineString>
<LineString><altitudeMode>absolute</altitudeMode><coordinates>
13.06434344,47.53448264,1894.71
13.06434278,47.53451844,1894.43
13.06433553,47.53453127,1893.68
13.06433930,47.53453737,1893.13
13.06438485,47.53457044,1882.52
13.06440449,47.53454216,1881.19
13.06449633,47.53453075,1871.03
13.06451943,47.53450234,1868.18
13.06450853,47.53451692,1867.63
</coordinates></LineString>
<LineString><altitudeMode>absolute</altitudeMode><coordinates>
13.06426011,47.53451182,1899.38
13.06424445,47.53454386,1898.87
</coordinates></LineString>
<LineString><altitudeMode>absolute</altitudeMode><coordinates>
13.06424445,47.53454386,1898.87
13.06423368,47.53455853,1898.30
13.06422493,47.53458331,1897.94
13.06421007,47.53459709,1897.39
13.06420969,47.53460393,1897.20
13.06419238,47.53460831,1897.35
13.06417104,47.53463954,1896.40
13.06413691,47.53465336,1895.59
13.06411564,47.53467172,1895.09
13.06407696,47.53468303,1894.14
13.06407483,47.53467957,1894.09
13.06405484,47.53469552,1893.74
13.06401933,47.53470725,1893.08
13.06397287,47.53472410,1892.64
13.06395733,47.53474553,1892.27
13.06395119,47.53474255,1891.75
13.06391796,47.53475008,1891.51
</coordinates></LineString>
<LineString><altitudeMode>absolute</altitudeMode><coordinates>
13.06391796,47.53475008,1891.51
13.06389157,47.53475243,1891.64
13.06386427,47.53477212,1891.11
13.06385534,47.53476927,1891.23
13.06382999,47.53479746,1891.28
13.06378309,47.53480072,1891.37
13.06380566,47.53476537,1892.14
13.06378427,47.53476510,1891.97
13.06373805,47.53472851,1891.33
13.06375856,47.53473461,1890.83
13.06375849,47.53472543,1890.37
13.06378052,47.53472275,1890.09
13.06379307,47.53472458,1889.68
13.06383252,47.53471769,1888.98
13.06383125,47.53469463,1885.68
13.06381016,47.53468986,1885.17
13.06378650,47.53467929,1883.92
13.06381188,47.53466479,1883.93
13.06385495,47.53466074,1884.54
13.06385318,47.53467637,1882.59
13.06389499,47.53464864,1882.37
13.06387067,47.53462349,1882.80
13.06392147,47.53461868,1881.17
13.06393063,47.53462261,1872.95
13.06388720,47.53458246,1870.86
13.06387108,47.53454746,1870.90
13.06394766,47.53453903,1871.83
13.06395802,47.53450672,1872.99
13.06394410,47.53450226,1871.02
13.06394450,47.53449120,1871.01
13.06393375,47.53448742,1870.71
13.06391163,47.53447472,1870.88
13.06391164,47.53447085,1870.76
13.06390117,47.53444844,1863.76
13.06393576,47.53448340,1857.62
</coordinates></LineString></MultiGeometry></Placemark>
</Document></kml>
