<?xml version="1.0" encoding="UTF-8"?>
<kml xmlns="http://www.opengis.net/kml/2.2">
<Document><name>498-master</name>
<Style id="fix"><IconStyle><Icon><href>https://maps.google.com/mapfiles/kml/paddle/red-blank.png</href></Icon><color>ff0000ff</color><hotSpot x="32" y="1" xunits="pixels" yunits="pixels"/></IconStyle></Style>
<Style id="exp"><IconStyle><Icon><href>https://maps.google.com/mapfiles/kml/paddle/blu-blank.png</href></Icon><color>ffff0000</color><hotSpot x="32" y="1" xunits="pixels" yunits="pixels"/></IconStyle></Style>
<Style id="ent"><IconStyle><Icon><href>https://maps.google.com/mapfiles/kml/paddle/grn-blank.png</href></Icon><color>ff00ff00</color><hotSpot x="32" y="1" xunits="pixels" yunits="pixels"/></IconStyle></Style>
<Style id="surf"><LineStyle><color>ff00ff00</color></LineStyle></Style>
<Style id="splay"><LineStyle><color>40ff00ff</color></LineStyle></Style>
<Placemark><MultiGeometry><LineString><altitudeMode>absolute</altitudeMode><coordinates>
13.04991667,47.53395002,1924.00
13.04993636,47.53394208,1923.74
13.04994271,47.53395370,1922.82
13.04996256,47.53393082,1922.28
13.05003483,47.53395257,1915.79
13.05008390,47.53392983,1911.86
13.05013029,47.53389013,1903.80
13.05015185,47.53386413,1903.24
13.05015060,47.53385817,1902.18
13.05015217,47.53385180,1900.04
13.05016333,47.53384111,1899.82
13.05016168,47.53382812,1893.56
13.05019190,47.53380884,1893.76
13.05022536,47.53377701,1894.19
13.05023957,47.53373064,1898.84
13.05024248,47.53369515,1901.37
</coordinates></LineString>
<LineString><altitudeMode>absolute</altitudeMode><coordinates>
13.05023957,47.53373064,1898.84
13.05023220,47.53372521,1904.25
13.05020723,47.53375007,1911.91
</coordinates></LineString>
<LineString><altitudeMode>absolute</altitudeMode><coordinates>
13.05023220,47.53372521,1904.25
13.05020486,47.53371008,1901.79
</coordinates></LineString>
<LineString><altitudeMode>absolute</altitudeMode><coordinates>
13.05019190,47.53380884,1893.76
13.05024314,47.53382078,1877.52
13.05021800,47.53383943,1875.99
13.05025155,47.53388076,1871.62
13.05022454,47.53388516,1854.55
13.05022331,47.53389324,1854.13
13.05023969,47.53387075,1846.39
13.05026495,47.53387766,1839.79
13.05026509,47.53385939,1836.03
13.05028168,47.53384924,1834.68
13.05027667,47.53384456,1834.67
</coordinates></LineString>
<LineString><altitudeMode>absolute</altitudeMode><coordinates>
13.05026495,47.53387766,1839.79
13.05025491,47.53388316,1840.23
13.05031410,47.53388866,1839.06
13.05031798,47.53389521,1839.26
13.05033901,47.53390501,1830.98
13.05034721,47.53387726,1829.93
13.05032820,47.53386308,1829.62
13.05032342,47.53384527,1828.71
13.05031374,47.53382666,1827.12
13.05030606,47.53381537,1826.60
13.05029340,47.53381983,1827.29
13.05028735,47.53380740,1829.42
13.05026152,47.53381254,1831.46
13.05026105,47.53382522,1833.82
</coordinates></LineString>
<LineString><altitudeMode>absolute</altitudeMode><coordinates>
13.05030606,47.53381537,1826.60
13.05031958,47.53380534,1821.40
13.05031987,47.53377952,1821.47
13.05031277,47.53373468,1818.74
</coordinates></LineString>
<LineString><altitudeMode>absolute</altitudeMode><coordinates>
13.05031987,47.53377952,1821.47
13.05034251,47.53381059,1821.86
</coordinates></LineString></MultiGeometry></Placemark>
</Document></kml>
