<?xml version="1.0" encoding="UTF-8"?>
<gpx version="1.0" creator="survex 1.4.17 (aven) - https://survex.com/" xmlns:xsi="http://www.w3.org/2001/XMLSchema-instance" xmlns="http://www.topografix.com/GPX/1/0" xsi:schemaLocation="http://www.topografix.com/GPX/1/0 http://www.topografix.com/GPX/1/0/gpx.xsd">
<name>498-master</name>
<time>2025-05-13T20:08:05Z</time>
<trk><name>498-master</name><trkseg>
<trkpt lon="13.04991667" lat="47.53395002"><ele>1924.00</ele></trkpt>
<trkpt lon="13.04993636" lat="47.53394208"><ele>1923.74</ele></trkpt>
<trkpt lon="13.04994271" lat="47.53395370"><ele>1922.82</ele></trkpt>
<trkpt lon="13.04996256" lat="47.53393082"><ele>1922.28</ele></trkpt>
<trkpt lon="13.05003483" lat="47.53395257"><ele>1915.79</ele></trkpt>
<trkpt lon="13.05008390" lat="47.53392983"><ele>1911.86</ele></trkpt>
<trkpt lon="13.05013029" lat="47.53389013"><ele>1903.80</ele></trkpt>
<trkpt lon="13.05015185" lat="47.53386413"><ele>1903.24</ele></trkpt>
<trkpt lon="13.05015060" lat="47.53385817"><ele>1902.18</ele></trkpt>
<trkpt lon="13.05015217" lat="47.53385180"><ele>1900.04</ele></trkpt>
<trkpt lon="13.05016333" lat="47.53384111"><ele>1899.82</ele></trkpt>
<trkpt lon="13.05016168" lat="47.53382812"><ele>1893.56</ele></trkpt>
<trkpt lon="13.05019190" lat="47.53380884"><ele>1893.76</ele></trkpt>
<trkpt lon="13.05022536" lat="47.53377701"><ele>1894.19</ele></trkpt>
<trkpt lon="13.05023957" lat="47.53373064"><ele>1898.84</ele></trkpt>
<trkpt lon="13.05024248" lat="47.53369515"><ele>1901.37</ele></trkpt>
</trkseg><trkseg>
<trkpt lon="13.05023957" lat="47.53373064"><ele>1898.84</ele></trkpt>
<trkpt lon="13.05023220" lat="47.53372521"><ele>1904.25</ele></trkpt>
<trkpt lon="13.05020723" lat="47.53375007"><ele>1911.91</ele></trkpt>
</trkseg><trkseg>
<trkpt lon="13.05023220" lat="47.53372521"><ele>1904.25</ele></trkpt>
<trkpt lon="13.05020486" lat="47.53371008"><ele>1901.79</ele></trkpt>
</trkseg><trkseg>
<trkpt lon="13.05019190" lat="47.53380884"><ele>1893.76</ele></trkpt>
<trkpt lon="13.05024314" lat="47.53382078"><ele>1877.52</ele></trkpt>
<trkpt lon="13.05021800" lat="47.53383943"><ele>1875.99</ele></trkpt>
<trkpt lon="13.05025155" lat="47.53388076"><ele>1871.62</ele></trkpt>
<trkpt lon="13.05022454" lat="47.53388516"><ele>1854.55</ele></trkpt>
<trkpt lon="13.05022331" lat="47.53389324"><ele>1854.13</ele></trkpt>
<trkpt lon="13.05023969" lat="47.53387075"><ele>1846.39</ele></trkpt>
<trkpt lon="13.05026495" lat="47.53387766"><ele>1839.79</ele></trkpt>
<trkpt lon="13.05026509" lat="47.53385939"><ele>1836.03</ele></trkpt>
<trkpt lon="13.05028168" lat="47.53384924"><ele>1834.68</ele></trkpt>
<trkpt lon="13.05027667" lat="47.53384456"><ele>1834.67</ele></trkpt>
</trkseg><trkseg>
<trkpt lon="13.05026495" lat="47.53387766"><ele>1839.79</ele></trkpt>
<trkpt lon="13.05025491" lat="47.53388316"><ele>1840.23</ele></trkpt>
<trkpt lon="13.05031410" lat="47.53388866"><ele>1839.06</ele></trkpt>
<trkpt lon="13.05031798" lat="47.53389521"><ele>1839.26</ele></trkpt>
<trkpt lon="13.05033901" lat="47.53390501"><ele>1830.98</ele></trkpt>
<trkpt lon="13.05034721" lat="47.53387726"><ele>1829.93</ele></trkpt>
<trkpt lon="13.05032820" lat="47.53386308"><ele>1829.62</ele></trkpt>
<trkpt lon="13.05032342" lat="47.53384527"><ele>1828.71</ele></trkpt>
<trkpt lon="13.05031374" lat="47.53382666"><ele>1827.12</ele></trkpt>
<trkpt lon="13.05030606" lat="47.53381537"><ele>1826.60</ele></trkpt>
<trkpt lon="13.05029340" lat="47.53381983"><ele>1827.29</ele></trkpt>
<trkpt lon="13.05028735" lat="47.53380740"><ele>1829.42</ele></trkpt>
<trkpt lon="13.05026152" lat="47.53381254"><ele>1831.46</ele></trkpt>
<trkpt lon="13.05026105" lat="47.53382522"><ele>1833.82</ele></trkpt>
</trkseg><trkseg>
<trkpt lon="13.05030606" lat="47.53381537"><ele>1826.60</ele></trkpt>
<trkpt lon="13.05031958" lat="47.53380534"><ele>1821.40</ele></trkpt>
<trkpt lon="13.05031987" lat="47.53377952"><ele>1821.47</ele></trkpt>
<trkpt lon="13.05031277" lat="47.53373468"><ele>1818.74</ele></trkpt>
</trkseg><trkseg>
<trkpt lon="13.05031987" lat="47.53377952"><ele>1821.47</ele></trkpt>
<trkpt lon="13.05034251" lat="47.53381059"><ele>1821.86</ele></trkpt>
</trkseg></trk>
</gpx>
