<?xml version="1.0" encoding="UTF-8"?>
<gpx version="1.0" creator="survex 1.4.17 (aven) - https://survex.com/" xmlns:xsi="http://www.w3.org/2001/XMLSchema-instance" xmlns="http://www.topografix.com/GPX/1/0" xsi:schemaLocation="http://www.topografix.com/GPX/1/0 http://www.topografix.com/GPX/1/0/gpx.xsd">
<name>507-master</name>
<time>2025-06-23T19:15:39Z</time>
<trk><name>507-master</name><trkseg>
<trkpt lon="13.05475463" lat="47.52742029"><ele>2016.33</ele></trkpt>
<trkpt lon="13.05475463" lat="47.52742029"><ele>2016.33</ele></trkpt>
<trkpt lon="13.05476492" lat="47.52742587"><ele>2017.49</ele></trkpt>
<trkpt lon="13.05480340" lat="47.52743777"><ele>2014.54</ele></trkpt>
<trkpt lon="13.05482481" lat="47.52744794"><ele>2011.88</ele></trkpt>
<trkpt lon="13.05480525" lat="47.52745975"><ele>2010.49</ele></trkpt>
<trkpt lon="13.05478327" lat="47.52746847"><ele>2010.58</ele></trkpt>
<trkpt lon="13.05468278" lat="47.52747342"><ele>2011.54</ele></trkpt>
<trkpt lon="13.05465438" lat="47.52747249"><ele>2011.65</ele></trkpt>
<trkpt lon="13.05470022" lat="47.52747255"><ele>2013.68</ele></trkpt>
<trkpt lon="13.05472816" lat="47.52746780"><ele>2013.40</ele></trkpt>
<trkpt lon="13.05470825" lat="47.52745649"><ele>2015.75</ele></trkpt>
<trkpt lon="13.05471420" lat="47.52745002"><ele>2016.46</ele></trkpt>
<trkpt lon="13.05473422" lat="47.52743317"><ele>2017.27</ele></trkpt>
<trkpt lon="13.05475463" lat="47.52742029"><ele>2016.33</ele></trkpt>
</trkseg><trkseg>
<trkpt lon="13.05423332" lat="47.52735170"><ele>2058.00</ele></trkpt>
<trkpt lon="13.05422710" lat="47.52737967"><ele>2055.30</ele></trkpt>
<trkpt lon="13.05422488" lat="47.52737162"><ele>2034.58</ele></trkpt>
<trkpt lon="13.05424296" lat="47.52737832"><ele>2032.51</ele></trkpt>
<trkpt lon="13.05429083" lat="47.52738813"><ele>2027.87</ele></trkpt>
<trkpt lon="13.05439034" lat="47.52738082"><ele>2022.41</ele></trkpt>
<trkpt lon="13.05447243" lat="47.52735593"><ele>2023.37</ele></trkpt>
<trkpt lon="13.05446196" lat="47.52735180"><ele>2025.58</ele></trkpt>
<trkpt lon="13.05447126" lat="47.52736617"><ele>2031.65</ele></trkpt>
<trkpt lon="13.05449705" lat="47.52737642"><ele>2032.59</ele></trkpt>
<trkpt lon="13.05453775" lat="47.52736073"><ele>2032.43</ele></trkpt>
<trkpt lon="13.05457589" lat="47.52734977"><ele>2025.74</ele></trkpt>
<trkpt lon="13.05463610" lat="47.52731318"><ele>2019.20</ele></trkpt>
<trkpt lon="13.05472670" lat="47.52738149"><ele>2017.92</ele></trkpt>
<trkpt lon="13.05475760" lat="47.52739389"><ele>2017.39</ele></trkpt>
<trkpt lon="13.05475141" lat="47.52740674"><ele>2016.51</ele></trkpt>
<trkpt lon="13.05475463" lat="47.52742029"><ele>2016.33</ele></trkpt>
</trkseg><trkseg>
<trkpt lon="13.05422488" lat="47.52737162"><ele>2034.58</ele></trkpt>
<trkpt lon="13.05426012" lat="47.52733110"><ele>2030.22</ele></trkpt>
<trkpt lon="13.05430954" lat="47.52731691"><ele>2030.60</ele></trkpt>
</trkseg><trkseg>
<trkpt lon="13.05465438" lat="47.52747249"><ele>2011.65</ele></trkpt>
<trkpt lon="13.05465956" lat="47.52747618"><ele>2012.63</ele></trkpt>
<trkpt lon="13.05464710" lat="47.52746472"><ele>2013.35</ele></trkpt>
<trkpt lon="13.05459563" lat="47.52746970"><ele>2014.56</ele></trkpt>
<trkpt lon="13.05458517" lat="47.52749048"><ele>2016.12</ele></trkpt>
<trkpt lon="13.05455243" lat="47.52748840"><ele>2017.11</ele></trkpt>
<trkpt lon="13.05451287" lat="47.52751985"><ele>2018.26</ele></trkpt>
<trkpt lon="13.05441960" lat="47.52757037"><ele>2019.59</ele></trkpt>
<trkpt lon="13.05438589" lat="47.52755855"><ele>2020.25</ele></trkpt>
<trkpt lon="13.05437743" lat="47.52756821"><ele>2020.24</ele></trkpt>
<trkpt lon="13.05434317" lat="47.52757123"><ele>2002.58</ele></trkpt>
</trkseg><trkseg>
<trkpt lon="13.05437743" lat="47.52756821"><ele>2020.24</ele></trkpt>
<trkpt lon="13.05433951" lat="47.52758404"><ele>2018.82</ele></trkpt>
<trkpt lon="13.05434749" lat="47.52760190"><ele>2015.54</ele></trkpt>
<trkpt lon="13.05437737" lat="47.52757343"><ele>2011.96</ele></trkpt>
</trkseg><trkseg>
<trkpt lon="13.05426012" lat="47.52733110"><ele>2030.22</ele></trkpt>
<trkpt lon="13.05414355" lat="47.52728961"><ele>2033.08</ele></trkpt>
</trkseg><trkseg>
<trkpt lon="13.05414355" lat="47.52728961"><ele>2033.08</ele></trkpt>
<trkpt lon="13.05409588" lat="47.52734630"><ele>2036.37</ele></trkpt>
</trkseg><trkseg>
<trkpt lon="13.05414355" lat="47.52728961"><ele>2033.08</ele></trkpt>
<trkpt lon="13.05411575" lat="47.52729049"><ele>2033.06</ele></trkpt>
</trkseg><trkseg>
<trkpt lon="13.05411575" lat="47.52729049"><ele>2033.06</ele></trkpt>
<trkpt lon="13.05409914" lat="47.52727977"><ele>2033.14</ele></trkpt>
<trkpt lon="13.05408571" lat="47.52726569"><ele>2033.95</ele></trkpt>
</trkseg><trkseg>
<trkpt lon="13.05463610" lat="47.52731318"><ele>2019.20</ele></trkpt>
<trkpt lon="13.05469002" lat="47.52730276"><ele>2017.17</ele></trkpt>
</trkseg><trkseg>
<trkpt lon="13.05463610" lat="47.52731318"><ele>2019.20</ele></trkpt>
<trkpt lon="13.05454524" lat="47.52733800"><ele>2016.68</ele></trkpt>
</trkseg><trkseg>
<trkpt lon="13.05469002" lat="47.52730276"><ele>2017.17</ele></trkpt>
<trkpt lon="13.05471072" lat="47.52728565"><ele>2014.67</ele></trkpt>
</trkseg><trkseg>
<trkpt lon="13.05471072" lat="47.52728565"><ele>2014.67</ele></trkpt>
<trkpt lon="13.05473765" lat="47.52726514"><ele>2012.33</ele></trkpt>
</trkseg><trkseg>
<trkpt lon="13.05473765" lat="47.52726514"><ele>2012.33</ele></trkpt>
<trkpt lon="13.05471775" lat="47.52725707"><ele>2011.07</ele></trkpt>
</trkseg><trkseg>
<trkpt lon="13.05471775" lat="47.52725707"><ele>2011.07</ele></trkpt>
<trkpt lon="13.05471575" lat="47.52721051"><ele>2012.86</ele></trkpt>
</trkseg><trkseg>
<trkpt lon="13.05471575" lat="47.52721051"><ele>2012.86</ele></trkpt>
<trkpt lon="13.05471068" lat="47.52719315"><ele>2012.28</ele></trkpt>
</trkseg><trkseg>
<trkpt lon="13.05471068" lat="47.52719315"><ele>2012.28</ele></trkpt>
<trkpt lon="13.05469990" lat="47.52718658"><ele>2011.67</ele></trkpt>
</trkseg><trkseg>
<trkpt lon="13.05469990" lat="47.52718658"><ele>2011.67</ele></trkpt>
<trkpt lon="13.05466868" lat="47.52719738"><ele>2006.60</ele></trkpt>
</trkseg><trkseg>
<trkpt lon="13.05466868" lat="47.52719738"><ele>2006.60</ele></trkpt>
<trkpt lon="13.05466118" lat="47.52719888"><ele>2005.46</ele></trkpt>
</trkseg><trkseg>
<trkpt lon="13.05482481" lat="47.52744794"><ele>2011.88</ele></trkpt>
<trkpt lon="13.05487763" lat="47.52744946"><ele>2011.53</ele></trkpt>
</trkseg><trkseg>
<trkpt lon="13.05487763" lat="47.52744946"><ele>2011.53</ele></trkpt>
<trkpt lon="13.05490500" lat="47.52745299"><ele>2011.76</ele></trkpt>
</trkseg><trkseg>
<trkpt lon="13.05490500" lat="47.52745299"><ele>2011.76</ele></trkpt>
<trkpt lon="13.05490876" lat="47.52745917"><ele>2012.97</ele></trkpt>
</trkseg><trkseg>
<trkpt lon="13.05490876" lat="47.52745917"><ele>2012.97</ele></trkpt>
<trkpt lon="13.05492871" lat="47.52746581"><ele>2013.48</ele></trkpt>
</trkseg><trkseg>
<trkpt lon="13.05466118" lat="47.52719888"><ele>2005.46</ele></trkpt>
<trkpt lon="13.05466031" lat="47.52720462"><ele>2002.47</ele></trkpt>
<trkpt lon="13.05466607" lat="47.52720679"><ele>2001.04</ele></trkpt>
<trkpt lon="13.05460525" lat="47.52720621"><ele>1994.15</ele></trkpt>
<trkpt lon="13.05458967" lat="47.52717130"><ele>1997.49</ele></trkpt>
<trkpt lon="13.05456744" lat="47.52714015"><ele>1995.96</ele></trkpt>
<trkpt lon="13.05460062" lat="47.52709779"><ele>1991.28</ele></trkpt>
<trkpt lon="13.05465934" lat="47.52711228"><ele>1990.12</ele></trkpt>
</trkseg><trkseg>
<trkpt lon="13.05460525" lat="47.52720621"><ele>1994.15</ele></trkpt>
<trkpt lon="13.05461207" lat="47.52724079"><ele>1988.53</ele></trkpt>
</trkseg><trkseg>
<trkpt lon="13.05458967" lat="47.52717130"><ele>1997.49</ele></trkpt>
<trkpt lon="13.05458532" lat="47.52715593"><ele>2008.60</ele></trkpt>
</trkseg><trkseg>
<trkpt lon="13.05466118" lat="47.52719888"><ele>2005.46</ele></trkpt>
<trkpt lon="13.05466855" lat="47.52719720"><ele>2006.63</ele></trkpt>
<trkpt lon="13.05469944" lat="47.52718819"><ele>2011.71</ele></trkpt>
<trkpt lon="13.05470956" lat="47.52719493"><ele>2012.37</ele></trkpt>
<trkpt lon="13.05471622" lat="47.52721232"><ele>2012.95</ele></trkpt>
</trkseg></trk>
</gpx>
