<?xml version="1.0" encoding="UTF-8"?>
<kml xmlns="http://www.opengis.net/kml/2.2">
<Document><name>507-master</name>
<Style id="fix"><IconStyle><Icon><href>https://maps.google.com/mapfiles/kml/paddle/red-blank.png</href></Icon><color>ff0000ff</color><hotSpot x="32" y="1" xunits="pixels" yunits="pixels"/></IconStyle></Style>
<Style id="exp"><IconStyle><Icon><href>https://maps.google.com/mapfiles/kml/paddle/blu-blank.png</href></Icon><color>ffff0000</color><hotSpot x="32" y="1" xunits="pixels" yunits="pixels"/></IconStyle></Style>
<Style id="ent"><IconStyle><Icon><href>https://maps.google.com/mapfiles/kml/paddle/grn-blank.png</href></Icon><color>ff00ff00</color><hotSpot x="32" y="1" xunits="pixels" yunits="pixels"/></IconStyle></Style>
<Style id="surf"><LineStyle><color>ff00ff00</color></LineStyle></Style>
<Style id="splay"><LineStyle><color>40ff00ff</color></LineStyle></Style>
<Placemark><MultiGeometry><LineString><altitudeMode>absolute</altitudeMode><coordinates>
13.05475463,47.52742029,2016.33
13.05475463,47.52742029,2016.33
13.05476492,47.52742587,2017.49
13.05480340,47.52743777,2014.54
13.05482481,47.52744794,2011.88
13.05480525,47.52745975,2010.49
13.05478327,47.52746847,2010.58
13.05468278,47.52747342,2011.54
13.05465438,47.52747249,2011.65
13.05470022,47.52747255,2013.68
13.05472816,47.52746780,2013.40
13.05470825,47.52745649,2015.75
13.05471420,47.52745002,2016.46
13.05473422,47.52743317,2017.27
13.05475463,47.52742029,2016.33
</coordinates></LineString>
<LineString><altitudeMode>absolute</altitudeMode><coordinates>
13.05423332,47.52735170,2058.00
13.05422710,47.52737967,2055.30
13.05422488,47.52737162,2034.58
13.05424296,47.52737832,2032.51
13.05429083,47.52738813,2027.87
13.05439034,47.52738082,2022.41
13.05447243,47.52735593,2023.37
13.05446196,47.52735180,2025.58
13.05447126,47.52736617,2031.65
13.05449705,47.52737642,2032.59
13.05453775,47.52736073,2032.43
13.05457589,47.52734977,2025.74
13.05463610,47.52731318,2019.20
13.05472670,47.52738149,2017.92
13.05475760,47.52739389,2017.39
13.05475141,47.52740674,2016.51
13.05475463,47.52742029,2016.33
</coordinates></LineString>
<LineString><altitudeMode>absolute</altitudeMode><coordinates>
13.05422488,47.52737162,2034.58
13.05426012,47.52733110,2030.22
13.05430954,47.52731691,2030.60
</coordinates></LineString>
<LineString><altitudeMode>absolute</altitudeMode><coordinates>
13.05465438,47.52747249,2011.65
13.05465956,47.52747618,2012.63
13.05464710,47.52746472,2013.35
13.05459563,47.52746970,2014.56
13.05458517,47.52749048,2016.12
13.05455243,47.52748840,2017.11
13.05451287,47.52751985,2018.26
13.05441960,47.52757037,2019.59
13.05438589,47.52755855,2020.25
13.05437743,47.52756821,2020.24
13.05434317,47.52757123,2002.58
</coordinates></LineString>
<LineString><altitudeMode>absolute</altitudeMode><coordinates>
13.05437743,47.52756821,2020.24
13.05433951,47.52758404,2018.82
13.05434749,47.52760190,2015.54
13.05437737,47.52757343,2011.96
</coordinates></LineString>
<LineString><altitudeMode>absolute</altitudeMode><coordinates>
13.05426012,47.52733110,2030.22
13.05414355,47.52728961,2033.08
</coordinates></LineString>
<LineString><altitudeMode>absolute</altitudeMode><coordinates>
13.05414355,47.52728961,2033.08
13.05409588,47.52734630,2036.37
</coordinates></LineString>
<LineString><altitudeMode>absolute</altitudeMode><coordinates>
13.05414355,47.52728961,2033.08
13.05411575,47.52729049,2033.06
</coordinates></LineString>
<LineString><altitudeMode>absolute</altitudeMode><coordinates>
13.05411575,47.52729049,2033.06
13.05409914,47.52727977,2033.14
13.05408571,47.52726569,2033.95
</coordinates></LineString>
<LineString><altitudeMode>absolute</altitudeMode><coordinates>
13.05463610,47.52731318,2019.20
13.05469002,47.52730276,2017.17
</coordinates></LineString>
<LineString><altitudeMode>absolute</altitudeMode><coordinates>
13.05463610,47.52731318,2019.20
13.05454524,47.52733800,2016.68
</coordinates></LineString>
<LineString><altitudeMode>absolute</altitudeMode><coordinates>
13.05469002,47.52730276,2017.17
13.05471072,47.52728565,2014.67
</coordinates></LineString>
<LineString><altitudeMode>absolute</altitudeMode><coordinates>
13.05471072,47.52728565,2014.67
13.05473765,47.52726514,2012.33
</coordinates></LineString>
<LineString><altitudeMode>absolute</altitudeMode><coordinates>
13.05473765,47.52726514,2012.33
13.05471775,47.52725707,2011.07
</coordinates></LineString>
<LineString><altitudeMode>absolute</altitudeMode><coordinates>
13.05471775,47.52725707,2011.07
13.05471575,47.52721051,2012.86
</coordinates></LineString>
<LineString><altitudeMode>absolute</altitudeMode><coordinates>
13.05471575,47.52721051,2012.86
13.05471068,47.52719315,2012.28
</coordinates></LineString>
<LineString><altitudeMode>absolute</altitudeMode><coordinates>
13.05471068,47.52719315,2012.28
13.05469990,47.52718658,2011.67
</coordinates></LineString>
<LineString><altitudeMode>absolute</altitudeMode><coordinates>
13.05469990,47.52718658,2011.67
13.05466868,47.52719738,2006.60
</coordinates></LineString>
<LineString><altitudeMode>absolute</altitudeMode><coordinates>
13.05466868,47.52719738,2006.60
13.05466118,47.52719888,2005.46
</coordinates></LineString>
<LineString><altitudeMode>absolute</altitudeMode><coordinates>
13.05482481,47.52744794,2011.88
13.05487763,47.52744946,2011.53
</coordinates></LineString>
<LineString><altitudeMode>absolute</altitudeMode><coordinates>
13.05487763,47.52744946,2011.53
13.05490500,47.52745299,2011.76
</coordinates></LineString>
<LineString><altitudeMode>absolute</altitudeMode><coordinates>
13.05490500,47.52745299,2011.76
13.05490876,47.52745917,2012.97
</coordinates></LineString>
<LineString><altitudeMode>absolute</altitudeMode><coordinates>
13.05490876,47.52745917,2012.97
13.05492871,47.52746581,2013.48
</coordinates></LineString>
<LineString><altitudeMode>absolute</altitudeMode><coordinates>
13.05471575,47.52721051,2012.86
13.05470909,47.52719312,2012.28
13.05469898,47.52718638,2011.61
13.05466809,47.52719539,2006.53
13.05466072,47.52719707,2005.36
13.05465971,47.52720281,2002.37
13.05466547,47.52720498,2000.94
13.05460478,47.52720440,1994.05
13.05458907,47.52716949,1997.39
13.05456697,47.52713834,1995.87
13.05460002,47.52709598,1991.19
13.05465887,47.52711047,1990.03
</coordinates></LineString>
<LineString><altitudeMode>absolute</altitudeMode><coordinates>
13.05460478,47.52720440,1994.05
13.05461161,47.52723898,1988.43
</coordinates></LineString>
<LineString><altitudeMode>absolute</altitudeMode><coordinates>
13.05458907,47.52716949,1997.39
13.05458472,47.52715412,2008.50
</coordinates></LineString></MultiGeometry></Placemark>
</Document></kml>
