<?xml version="1.0" encoding="UTF-8"?>
<kml xmlns="http://www.opengis.net/kml/2.2">
<Document><name>508-master</name>
<Style id="fix"><IconStyle><Icon><href>https://maps.google.com/mapfiles/kml/paddle/red-blank.png</href></Icon><color>ff0000ff</color><hotSpot x="32" y="1" xunits="pixels" yunits="pixels"/></IconStyle></Style>
<Style id="exp"><IconStyle><Icon><href>https://maps.google.com/mapfiles/kml/paddle/blu-blank.png</href></Icon><color>ffff0000</color><hotSpot x="32" y="1" xunits="pixels" yunits="pixels"/></IconStyle></Style>
<Style id="ent"><IconStyle><Icon><href>https://maps.google.com/mapfiles/kml/paddle/grn-blank.png</href></Icon><color>ff00ff00</color><hotSpot x="32" y="1" xunits="pixels" yunits="pixels"/></IconStyle></Style>
<Style id="surf"><LineStyle><color>ff00ff00</color></LineStyle></Style>
<Style id="splay"><LineStyle><color>40ff00ff</color></LineStyle></Style>
<Placemark><MultiGeometry><LineString><altitudeMode>absolute</altitudeMode><coordinates>
13.05322670,47.52805835,2048.00
13.05319431,47.52802531,2042.56
</coordinates></LineString>
<LineString><altitudeMode>absolute</altitudeMode><coordinates>
13.05319431,47.52802531,2042.56
13.05324153,47.52803088,2037.44
13.05329720,47.52802364,2035.44
</coordinates></LineString>
<LineString><altitudeMode>absolute</altitudeMode><coordinates>
13.05329720,47.52802364,2035.44
13.05332420,47.52799764,2033.21
</coordinates></LineString>
<LineString><altitudeMode>absolute</altitudeMode><coordinates>
13.05332420,47.52799764,2033.21
13.05342604,47.52795285,2031.96
</coordinates></LineString>
<LineString><altitudeMode>absolute</altitudeMode><coordinates>
13.05342604,47.52795285,2031.96
13.05346661,47.52795849,2030.85
</coordinates></LineString>
<LineString><altitudeMode>absolute</altitudeMode><coordinates>
13.05346661,47.52795849,2030.85
13.05349404,47.52795698,2028.87
</coordinates></LineString>
<LineString><altitudeMode>absolute</altitudeMode><coordinates>
13.05349404,47.52795698,2028.87
13.05352378,47.52799338,2029.25
</coordinates></LineString>
<LineString><altitudeMode>absolute</altitudeMode><coordinates>
13.05352378,47.52799338,2029.25
13.05359333,47.52798080,2028.01
</coordinates></LineString>
<LineString><altitudeMode>absolute</altitudeMode><coordinates>
13.05359333,47.52798080,2028.01
13.05363189,47.52796562,2028.84
</coordinates></LineString>
<LineString><altitudeMode>absolute</altitudeMode><coordinates>
13.05363189,47.52796562,2028.84
13.05368369,47.52797297,2029.02
</coordinates></LineString>
<LineString><altitudeMode>absolute</altitudeMode><coordinates>
13.05368369,47.52797297,2029.02
13.05370469,47.52801598,2028.52
</coordinates></LineString>
<LineString><altitudeMode>absolute</altitudeMode><coordinates>
13.05370469,47.52801598,2028.52
13.05370187,47.52803816,2028.60
</coordinates></LineString>
<LineString><altitudeMode>absolute</altitudeMode><coordinates>
13.05370187,47.52803816,2028.60
13.05362323,47.52806319,2023.40
13.05360842,47.52810433,2024.23
</coordinates></LineString>
<LineString><altitudeMode>absolute</altitudeMode><coordinates>
13.05360842,47.52810433,2024.23
13.05353328,47.52810648,2028.09
</coordinates></LineString>
<LineString><altitudeMode>absolute</altitudeMode><coordinates>
13.05353328,47.52810648,2028.09
13.05352514,47.52815034,2023.72
</coordinates></LineString>
<LineString><altitudeMode>absolute</altitudeMode><coordinates>
13.05352514,47.52815034,2023.72
13.05348046,47.52815858,2022.35
</coordinates></LineString>
<LineString><altitudeMode>absolute</altitudeMode><coordinates>
13.05370187,47.52803816,2028.60
13.05379211,47.52800523,2035.19
</coordinates></LineString>
<LineString><altitudeMode>absolute</altitudeMode><coordinates>
13.05363189,47.52796562,2028.84
13.05374910,47.52792522,2031.66
</coordinates></LineString>
<LineString><altitudeMode>absolute</altitudeMode><coordinates>
13.05374910,47.52792522,2031.66
13.05374852,47.52789066,2038.05
</coordinates></LineString>
<LineString><altitudeMode>absolute</altitudeMode><coordinates>
13.05363189,47.52796562,2028.84
13.05367273,47.52790674,2027.86
13.05370270,47.52786496,2026.44
</coordinates></LineString>
<LineString><altitudeMode>absolute</altitudeMode><coordinates>
13.05370270,47.52786496,2026.44
13.05378291,47.52782295,2023.94
</coordinates></LineString>
<LineString><altitudeMode>absolute</altitudeMode><coordinates>
13.05378291,47.52782295,2023.94
13.05379560,47.52779590,2022.89
</coordinates></LineString>
<LineString><altitudeMode>absolute</altitudeMode><coordinates>
13.05379560,47.52779590,2022.89
13.05374883,47.52776028,2015.32
</coordinates></LineString>
<LineString><altitudeMode>absolute</altitudeMode><coordinates>
13.05378291,47.52782295,2023.94
13.05383975,47.52776614,2028.03
</coordinates></LineString>
<LineString><altitudeMode>absolute</altitudeMode><coordinates>
13.05383975,47.52776614,2028.03
13.05385114,47.52775977,2028.25
13.05388413,47.52776239,2028.46
</coordinates></LineString>
<LineString><altitudeMode>absolute</altitudeMode><coordinates>
13.05388413,47.52776239,2028.46
13.05392331,47.52774470,2028.09
</coordinates></LineString>
<LineString><altitudeMode>absolute</altitudeMode><coordinates>
13.05392331,47.52774470,2028.09
13.05394600,47.52773843,2029.58
13.05396661,47.52771628,2030.35
</coordinates></LineString>
<LineString><altitudeMode>absolute</altitudeMode><coordinates>
13.05396661,47.52771628,2030.35
13.05401800,47.52769889,2031.69
</coordinates></LineString>
<LineString><altitudeMode>absolute</altitudeMode><coordinates>
13.05401800,47.52769889,2031.69
13.05409024,47.52768914,2032.38
</coordinates></LineString>
<LineString><altitudeMode>absolute</altitudeMode><coordinates>
13.05409024,47.52768914,2032.38
13.05414941,47.52769140,2034.22
</coordinates></LineString>
<LineString><altitudeMode>absolute</altitudeMode><coordinates>
13.05414941,47.52769140,2034.22
13.05418416,47.52769307,2035.44
</coordinates></LineString>
<LineString><altitudeMode>absolute</altitudeMode><coordinates>
13.05418416,47.52769307,2035.44
13.05419806,47.52767990,2034.78
13.05421341,47.52767080,2035.55
</coordinates></LineString>
<LineString><altitudeMode>absolute</altitudeMode><coordinates>
13.05342604,47.52795285,2031.96
13.05342995,47.52797991,2029.24
13.05345670,47.52799656,2026.33
</coordinates></LineString>
<LineString><altitudeMode>absolute</altitudeMode><coordinates>
13.05329720,47.52802364,2035.44
13.05325934,47.52798413,2034.37
</coordinates></LineString>
<LineString><altitudeMode>absolute</altitudeMode><coordinates>
13.05325934,47.52798413,2034.37
13.05325487,47.52799350,2043.67
</coordinates></LineString></MultiGeometry></Placemark>
</Document></kml>
