<?xml version="1.0" encoding="UTF-8"?>
<gpx version="1.0" creator="survex 1.4.17 (aven) - https://survex.com/" xmlns:xsi="http://www.w3.org/2001/XMLSchema-instance" xmlns="http://www.topografix.com/GPX/1/0" xsi:schemaLocation="http://www.topografix.com/GPX/1/0 http://www.topografix.com/GPX/1/0/gpx.xsd">
<name>German_1-master</name>
<time>2025-06-23T19:15:45Z</time>
<trk><name>German_1-master</name><trkseg>
<trkpt lon="13.03933337" lat="47.52146664"><ele>2081.00</ele></trkpt>
<trkpt lon="13.03932923" lat="47.52147431"><ele>2078.83</ele></trkpt>
<trkpt lon="13.03931913" lat="47.52146730"><ele>2076.37</ele></trkpt>
</trkseg><trkseg>
<trkpt lon="13.03931913" lat="47.52146730"><ele>2076.37</ele></trkpt>
<trkpt lon="13.03919803" lat="47.52150158"><ele>2070.34</ele></trkpt>
</trkseg><trkseg>
<trkpt lon="13.03919803" lat="47.52150158"><ele>2070.34</ele></trkpt>
<trkpt lon="13.03918645" lat="47.52153072"><ele>2068.85</ele></trkpt>
</trkseg><trkseg>
<trkpt lon="13.03918645" lat="47.52153072"><ele>2068.85</ele></trkpt>
<trkpt lon="13.03916258" lat="47.52155119"><ele>2067.24</ele></trkpt>
</trkseg><trkseg>
<trkpt lon="13.03916258" lat="47.52155119"><ele>2067.24</ele></trkpt>
<trkpt lon="13.03917207" lat="47.52157456"><ele>2065.39</ele></trkpt>
</trkseg><trkseg>
<trkpt lon="13.03917207" lat="47.52157456"><ele>2065.39</ele></trkpt>
<trkpt lon="13.03915383" lat="47.52157551"><ele>2065.19</ele></trkpt>
</trkseg><trkseg>
<trkpt lon="13.03915383" lat="47.52157551"><ele>2065.19</ele></trkpt>
<trkpt lon="13.03913357" lat="47.52160594"><ele>2065.63</ele></trkpt>
</trkseg><trkseg>
<trkpt lon="13.03916258" lat="47.52155119"><ele>2067.24</ele></trkpt>
<trkpt lon="13.03911266" lat="47.52152550"><ele>2066.36</ele></trkpt>
<trkpt lon="13.03912503" lat="47.52151068"><ele>2066.83</ele></trkpt>
<trkpt lon="13.03911306" lat="47.52150760"><ele>2067.16</ele></trkpt>
</trkseg><trkseg>
<trkpt lon="13.03911306" lat="47.52150760"><ele>2067.16</ele></trkpt>
<trkpt lon="13.03911470" lat="47.52150286"><ele>2066.40</ele></trkpt>
</trkseg><trkseg>
<trkpt lon="13.03911470" lat="47.52150286"><ele>2066.40</ele></trkpt>
<trkpt lon="13.03909688" lat="47.52148896"><ele>2066.66</ele></trkpt>
<trkpt lon="13.03909893" lat="47.52148045"><ele>2067.40</ele></trkpt>
<trkpt lon="13.03911049" lat="47.52147309"><ele>2066.82</ele></trkpt>
</trkseg><trkseg>
<trkpt lon="13.03911049" lat="47.52147309"><ele>2066.82</ele></trkpt>
<trkpt lon="13.03910350" lat="47.52146478"><ele>2061.70</ele></trkpt>
</trkseg><trkseg>
<trkpt lon="13.03910350" lat="47.52146478"><ele>2061.70</ele></trkpt>
<trkpt lon="13.03909592" lat="47.52149354"><ele>2056.92</ele></trkpt>
</trkseg><trkseg>
<trkpt lon="13.03909592" lat="47.52149354"><ele>2056.92</ele></trkpt>
<trkpt lon="13.03908697" lat="47.52152326"><ele>2050.17</ele></trkpt>
</trkseg><trkseg>
<trkpt lon="13.03908697" lat="47.52152326"><ele>2050.17</ele></trkpt>
<trkpt lon="13.03906613" lat="47.52155503"><ele>2044.12</ele></trkpt>
</trkseg><trkseg>
<trkpt lon="13.03906613" lat="47.52155503"><ele>2044.12</ele></trkpt>
<trkpt lon="13.03907500" lat="47.52156651"><ele>2041.63</ele></trkpt>
</trkseg><trkseg>
<trkpt lon="13.03907500" lat="47.52156651"><ele>2041.63</ele></trkpt>
<trkpt lon="13.03906163" lat="47.52157232"><ele>2040.88</ele></trkpt>
</trkseg><trkseg>
<trkpt lon="13.03906163" lat="47.52157232"><ele>2040.88</ele></trkpt>
<trkpt lon="13.03904434" lat="47.52156923"><ele>2038.55</ele></trkpt>
<trkpt lon="13.03902558" lat="47.52158421"><ele>2038.78</ele></trkpt>
</trkseg><trkseg>
<trkpt lon="13.03902558" lat="47.52158421"><ele>2038.78</ele></trkpt>
<trkpt lon="13.03902594" lat="47.52158898"><ele>2037.77</ele></trkpt>
<trkpt lon="13.03900933" lat="47.52159968"><ele>2038.11</ele></trkpt>
<trkpt lon="13.03900497" lat="47.52160257"><ele>2036.05</ele></trkpt>
</trkseg><trkseg>
<trkpt lon="13.03900497" lat="47.52160257"><ele>2036.05</ele></trkpt>
<trkpt lon="13.03899076" lat="47.52160971"><ele>2036.29</ele></trkpt>
<trkpt lon="13.03897766" lat="47.52161533"><ele>2035.26</ele></trkpt>
</trkseg></trk>
</gpx>
