<?xml version="1.0" encoding="UTF-8"?>
<kml xmlns="http://www.opengis.net/kml/2.2">
<Document><name>German_1-master</name>
<Style id="fix"><IconStyle><Icon><href>https://maps.google.com/mapfiles/kml/paddle/red-blank.png</href></Icon><color>ff0000ff</color><hotSpot x="32" y="1" xunits="pixels" yunits="pixels"/></IconStyle></Style>
<Style id="exp"><IconStyle><Icon><href>https://maps.google.com/mapfiles/kml/paddle/blu-blank.png</href></Icon><color>ffff0000</color><hotSpot x="32" y="1" xunits="pixels" yunits="pixels"/></IconStyle></Style>
<Style id="ent"><IconStyle><Icon><href>https://maps.google.com/mapfiles/kml/paddle/grn-blank.png</href></Icon><color>ff00ff00</color><hotSpot x="32" y="1" xunits="pixels" yunits="pixels"/></IconStyle></Style>
<Style id="surf"><LineStyle><color>ff00ff00</color></LineStyle></Style>
<Style id="splay"><LineStyle><color>40ff00ff</color></LineStyle></Style>
<Placemark><MultiGeometry><LineString><altitudeMode>absolute</altitudeMode><coordinates>
13.03933337,47.52146664,2081.00
13.03932923,47.52147431,2078.83
13.03931913,47.52146730,2076.37
</coordinates></LineString>
<LineString><altitudeMode>absolute</altitudeMode><coordinates>
13.03931913,47.52146730,2076.37
13.03919803,47.52150158,2070.34
</coordinates></LineString>
<LineString><altitudeMode>absolute</altitudeMode><coordinates>
13.03919803,47.52150158,2070.34
13.03918645,47.52153072,2068.85
</coordinates></LineString>
<LineString><altitudeMode>absolute</altitudeMode><coordinates>
13.03918645,47.52153072,2068.85
13.03916258,47.52155119,2067.24
</coordinates></LineString>
<LineString><altitudeMode>absolute</altitudeMode><coordinates>
13.03916258,47.52155119,2067.24
13.03917207,47.52157456,2065.39
</coordinates></LineString>
<LineString><altitudeMode>absolute</altitudeMode><coordinates>
13.03917207,47.52157456,2065.39
13.03915383,47.52157551,2065.19
</coordinates></LineString>
<LineString><altitudeMode>absolute</altitudeMode><coordinates>
13.03915383,47.52157551,2065.19
13.03913357,47.52160594,2065.63
</coordinates></LineString>
<LineString><altitudeMode>absolute</altitudeMode><coordinates>
13.03916258,47.52155119,2067.24
13.03911266,47.52152550,2066.36
13.03912503,47.52151068,2066.83
13.03911306,47.52150760,2067.16
</coordinates></LineString>
<LineString><altitudeMode>absolute</altitudeMode><coordinates>
13.03911306,47.52150760,2067.16
13.03911470,47.52150286,2066.40
</coordinates></LineString>
<LineString><altitudeMode>absolute</altitudeMode><coordinates>
13.03911470,47.52150286,2066.40
13.03909688,47.52148896,2066.66
13.03909893,47.52148045,2067.40
13.03911049,47.52147309,2066.82
</coordinates></LineString>
<LineString><altitudeMode>absolute</altitudeMode><coordinates>
13.03911049,47.52147309,2066.82
13.03910350,47.52146478,2061.70
</coordinates></LineString>
<LineString><altitudeMode>absolute</altitudeMode><coordinates>
13.03910350,47.52146478,2061.70
13.03909592,47.52149354,2056.92
</coordinates></LineString>
<LineString><altitudeMode>absolute</altitudeMode><coordinates>
13.03909592,47.52149354,2056.92
13.03908697,47.52152326,2050.17
</coordinates></LineString>
<LineString><altitudeMode>absolute</altitudeMode><coordinates>
13.03908697,47.52152326,2050.17
13.03906613,47.52155503,2044.12
</coordinates></LineString>
<LineString><altitudeMode>absolute</altitudeMode><coordinates>
13.03906613,47.52155503,2044.12
13.03907500,47.52156651,2041.63
</coordinates></LineString>
<LineString><altitudeMode>absolute</altitudeMode><coordinates>
13.03907500,47.52156651,2041.63
13.03906163,47.52157232,2040.88
</coordinates></LineString>
<LineString><altitudeMode>absolute</altitudeMode><coordinates>
13.03906163,47.52157232,2040.88
13.03904434,47.52156923,2038.55
13.03902558,47.52158421,2038.78
</coordinates></LineString>
<LineString><altitudeMode>absolute</altitudeMode><coordinates>
13.03902558,47.52158421,2038.78
13.03902594,47.52158898,2037.77
13.03900933,47.52159968,2038.11
13.03900497,47.52160257,2036.05
</coordinates></LineString>
<LineString><altitudeMode>absolute</altitudeMode><coordinates>
13.03900497,47.52160257,2036.05
13.03899076,47.52160971,2036.29
13.03897766,47.52161533,2035.26
</coordinates></LineString></MultiGeometry></Placemark>
</Document></kml>
