<?xml version="1.0" encoding="UTF-8"?>
<gpx version="1.0" creator="survex 1.4.17 (aven) - https://survex.com/" xmlns:xsi="http://www.w3.org/2001/XMLSchema-instance" xmlns="http://www.topografix.com/GPX/1/0" xsi:schemaLocation="http://www.topografix.com/GPX/1/0 http://www.topografix.com/GPX/1/0/gpx.xsd">
<name>A4-1-master</name>
<time>2025-06-01T18:59:57Z</time>
<trk><name>A4-1-master</name><trkseg>
<trkpt lon="13.03621080" lat="47.53605169"><ele>2006.00</ele></trkpt>
<trkpt lon="13.03616826" lat="47.53603809"><ele>2002.58</ele></trkpt>
<trkpt lon="13.03616349" lat="47.53603756"><ele>1997.44</ele></trkpt>
<trkpt lon="13.03616020" lat="47.53601537"><ele>1996.12</ele></trkpt>
</trkseg></trk>
</gpx>
