<?xml version="1.0" encoding="UTF-8"?>
<gpx version="1.0" creator="survex 1.4.17 (aven) - https://survex.com/" xmlns:xsi="http://www.w3.org/2001/XMLSchema-instance" xmlns="http://www.topografix.com/GPX/1/0" xsi:schemaLocation="http://www.topografix.com/GPX/1/0 http://www.topografix.com/GPX/1/0/gpx.xsd">
<name>480-master</name>
<time>2025-06-23T19:15:28Z</time>
<trk><name>480-master</name><trkseg>
<trkpt lon="13.03979998" lat="47.53605003"><ele>1971.00</ele></trkpt>
<trkpt lon="13.03979186" lat="47.53603981"><ele>1970.12</ele></trkpt>
<trkpt lon="13.03982667" lat="47.53600415"><ele>1970.05</ele></trkpt>
<trkpt lon="13.03987735" lat="47.53602058"><ele>1968.30</ele></trkpt>
<trkpt lon="13.03996563" lat="47.53610127"><ele>1962.39</ele></trkpt>
<trkpt lon="13.03998509" lat="47.53614597"><ele>1960.52</ele></trkpt>
<trkpt lon="13.04001288" lat="47.53616318"><ele>1960.65</ele></trkpt>
<trkpt lon="13.04001523" lat="47.53616088"><ele>1961.30</ele></trkpt>
<trkpt lon="13.04007251" lat="47.53614638"><ele>1959.31</ele></trkpt>
<trkpt lon="13.04012032" lat="47.53609348"><ele>1958.44</ele></trkpt>
<trkpt lon="13.04011353" lat="47.53605836"><ele>1958.88</ele></trkpt>
<trkpt lon="13.04014614" lat="47.53606045"><ele>1957.81</ele></trkpt>
<trkpt lon="13.04018187" lat="47.53603586"><ele>1955.20</ele></trkpt>
<trkpt lon="13.04028599" lat="47.53605141"><ele>1950.62</ele></trkpt>
<trkpt lon="13.04032740" lat="47.53604924"><ele>1950.42</ele></trkpt>
<trkpt lon="13.04032757" lat="47.53603035"><ele>1948.95</ele></trkpt>
<trkpt lon="13.04033347" lat="47.53602190"><ele>1941.66</ele></trkpt>
<trkpt lon="13.04035003" lat="47.53601237"><ele>1942.00</ele></trkpt>
<trkpt lon="13.04035588" lat="47.53599088"><ele>1937.04</ele></trkpt>
<trkpt lon="13.04033762" lat="47.53598877"><ele>1936.75</ele></trkpt>
<trkpt lon="13.04032803" lat="47.53600732"><ele>1933.93</ele></trkpt>
<trkpt lon="13.04032340" lat="47.53600688"><ele>1932.25</ele></trkpt>
<trkpt lon="13.04032264" lat="47.53602720"><ele>1931.93</ele></trkpt>
<trkpt lon="13.04036471" lat="47.53602135"><ele>1929.33</ele></trkpt>
<trkpt lon="13.04037866" lat="47.53602159"><ele>1928.22</ele></trkpt>
</trkseg><trkseg>
<trkpt lon="13.04032757" lat="47.53603035"><ele>1948.95</ele></trkpt>
<trkpt lon="13.04038080" lat="47.53604601"><ele>1950.68</ele></trkpt>
<trkpt lon="13.04032656" lat="47.53604311"><ele>1954.52</ele></trkpt>
</trkseg><trkseg>
<trkpt lon="13.04038080" lat="47.53604601"><ele>1950.68</ele></trkpt>
<trkpt lon="13.04038112" lat="47.53607310"><ele>1951.10</ele></trkpt>
</trkseg><trkseg>
<trkpt lon="13.04038080" lat="47.53604601"><ele>1950.68</ele></trkpt>
<trkpt lon="13.04037796" lat="47.53603319"><ele>1948.15</ele></trkpt>
</trkseg><trkseg>
<trkpt lon="13.04028599" lat="47.53605141"><ele>1950.62</ele></trkpt>
<trkpt lon="13.04028280" lat="47.53606215"><ele>1951.73</ele></trkpt>
<trkpt lon="13.04028722" lat="47.53609327"><ele>1957.02</ele></trkpt>
</trkseg><trkseg>
<trkpt lon="13.04028599" lat="47.53605141"><ele>1950.62</ele></trkpt>
<trkpt lon="13.04025234" lat="47.53602744"><ele>1956.42</ele></trkpt>
</trkseg><trkseg>
<trkpt lon="13.04011353" lat="47.53605836"><ele>1958.88</ele></trkpt>
<trkpt lon="13.04008005" lat="47.53606166"><ele>1960.78</ele></trkpt>
</trkseg><trkseg>
<trkpt lon="13.04012032" lat="47.53609348"><ele>1958.44</ele></trkpt>
<trkpt lon="13.04002543" lat="47.53609411"><ele>1962.08</ele></trkpt>
</trkseg><trkseg>
<trkpt lon="13.04001523" lat="47.53616088"><ele>1961.30</ele></trkpt>
<trkpt lon="13.04002669" lat="47.53624197"><ele>1960.30</ele></trkpt>
<trkpt lon="13.04003279" lat="47.53627798"><ele>1959.54</ele></trkpt>
<trkpt lon="13.04003472" lat="47.53630816"><ele>1958.08</ele></trkpt>
</trkseg><trkseg>
<trkpt lon="13.03982667" lat="47.53600415"><ele>1970.05</ele></trkpt>
<trkpt lon="13.03981180" lat="47.53601829"><ele>1974.51</ele></trkpt>
</trkseg><trkseg>
<trkpt lon="13.04001288" lat="47.53616318"><ele>1960.65</ele></trkpt>
<trkpt lon="13.03994919" lat="47.53619998"><ele>1968.03</ele></trkpt>
<trkpt lon="13.03993203" lat="47.53623271"><ele>1969.22</ele></trkpt>
</trkseg></trk>
</gpx>
