<?xml version="1.0" encoding="UTF-8"?>
<kml xmlns="http://www.opengis.net/kml/2.2">
<Document><name>487-master</name>
<Style id="fix"><IconStyle><Icon><href>https://maps.google.com/mapfiles/kml/paddle/red-blank.png</href></Icon><color>ff0000ff</color><hotSpot x="32" y="1" xunits="pixels" yunits="pixels"/></IconStyle></Style>
<Style id="exp"><IconStyle><Icon><href>https://maps.google.com/mapfiles/kml/paddle/blu-blank.png</href></Icon><color>ffff0000</color><hotSpot x="32" y="1" xunits="pixels" yunits="pixels"/></IconStyle></Style>
<Style id="ent"><IconStyle><Icon><href>https://maps.google.com/mapfiles/kml/paddle/grn-blank.png</href></Icon><color>ff00ff00</color><hotSpot x="32" y="1" xunits="pixels" yunits="pixels"/></IconStyle></Style>
<Style id="surf"><LineStyle><color>ff00ff00</color></LineStyle></Style>
<Style id="splay"><LineStyle><color>40ff00ff</color></LineStyle></Style>
<Placemark><MultiGeometry><LineString><altitudeMode>absolute</altitudeMode><coordinates>
13.03811666,47.53608333,1968.00
13.03811538,47.53610706,1966.15
13.03811982,47.53620153,1954.48
13.03811266,47.53620483,1945.22
13.03816885,47.53618023,1938.54
13.03817584,47.53619592,1932.18
13.03816324,47.53618814,1929.54
13.03815997,47.53619025,1928.37
13.03812991,47.53619837,1905.15
13.03810747,47.53616577,1901.55
13.03807381,47.53621676,1897.97
13.03804973,47.53629238,1897.52
13.03800048,47.53630180,1897.38
13.03800048,47.53630180,1894.48
</coordinates></LineString>
<LineString><altitudeMode>absolute</altitudeMode><coordinates>
13.03804973,47.53629238,1897.52
13.03800442,47.53628522,1897.52
</coordinates></LineString>
<LineString><altitudeMode>absolute</altitudeMode><coordinates>
13.03817584,47.53619592,1932.18
13.03819247,47.53620610,1932.18
13.03819247,47.53620610,1927.78
13.03819861,47.53624094,1927.78
</coordinates></LineString></MultiGeometry></Placemark>
</Document></kml>
