<?xml version="1.0" encoding="UTF-8"?>
<kml xmlns="http://www.opengis.net/kml/2.2">
<Document><name>500-master</name>
<Style id="fix"><IconStyle><Icon><href>https://maps.google.com/mapfiles/kml/paddle/red-blank.png</href></Icon><color>ff0000ff</color><hotSpot x="32" y="1" xunits="pixels" yunits="pixels"/></IconStyle></Style>
<Style id="exp"><IconStyle><Icon><href>https://maps.google.com/mapfiles/kml/paddle/blu-blank.png</href></Icon><color>ffff0000</color><hotSpot x="32" y="1" xunits="pixels" yunits="pixels"/></IconStyle></Style>
<Style id="ent"><IconStyle><Icon><href>https://maps.google.com/mapfiles/kml/paddle/grn-blank.png</href></Icon><color>ff00ff00</color><hotSpot x="32" y="1" xunits="pixels" yunits="pixels"/></IconStyle></Style>
<Style id="surf"><LineStyle><color>ff00ff00</color></LineStyle></Style>
<Style id="splay"><LineStyle><color>40ff00ff</color></LineStyle></Style>
<Placemark><MultiGeometry><LineString><altitudeMode>absolute</altitudeMode><coordinates>
13.04755005,47.53071667,2009.00
13.04756087,47.53074384,2006.80
13.04756776,47.53074792,2006.03
13.04758330,47.53075520,2002.67
13.04760640,47.53072698,2001.32
13.04759442,47.53071679,2000.31
13.04758512,47.53071690,1991.72
13.04759485,47.53072328,1991.67
13.04758879,47.53071094,1975.49
13.04758296,47.53070706,1962.38
13.04758334,47.53070760,1962.93
13.04757655,47.53067563,1961.25
13.04757452,47.53066606,1960.43
13.04756979,47.53067174,1956.74
13.04756039,47.53068877,1950.77
13.04756621,47.53066439,1949.84
13.04756782,47.53064606,1944.75
</coordinates></LineString>
<LineString><altitudeMode>absolute</altitudeMode><coordinates>
13.04756782,47.53064606,1944.75
13.04758602,47.53063179,1942.97
13.04757412,47.53061575,1942.38
13.04757763,47.53060358,1942.33
</coordinates></LineString>
<LineString><altitudeMode>absolute</altitudeMode><coordinates>
13.04755005,47.53071667,2009.00
13.04755005,47.53071667,2009.00
</coordinates></LineString>
<LineString><altitudeMode>absolute</altitudeMode><coordinates>
13.04758334,47.53070760,1962.93
13.04759320,47.53067808,1958.58
</coordinates></LineString>
<LineString><altitudeMode>absolute</altitudeMode><coordinates>
13.04759320,47.53067808,1958.58
13.04758674,47.53067680,1952.83
</coordinates></LineString>
<LineString><altitudeMode>absolute</altitudeMode><coordinates>
13.04756979,47.53067174,1956.74
13.04754603,47.53069266,1956.62
13.04749603,47.53071871,1967.97
</coordinates></LineString>
<LineString><altitudeMode>absolute</altitudeMode><coordinates>
13.04754603,47.53069266,1956.62
13.04752061,47.53069718,1954.23
</coordinates></LineString>
<LineString><altitudeMode>absolute</altitudeMode><coordinates>
13.04752061,47.53069718,1954.23
13.04752569,47.53069654,1951.68
</coordinates></LineString>
<LineString><altitudeMode>absolute</altitudeMode><coordinates>
13.04752569,47.53069654,1951.68
13.04751736,47.53069883,1946.48
</coordinates></LineString>
<LineString><altitudeMode>absolute</altitudeMode><coordinates>
13.04752569,47.53069654,1951.68
13.04751477,47.53068997,1951.57
</coordinates></LineString>
<LineString><altitudeMode>absolute</altitudeMode><coordinates>
13.04751477,47.53068997,1951.57
13.04753405,47.53067536,1950.41
</coordinates></LineString>
<LineString><altitudeMode>absolute</altitudeMode><coordinates>
13.04753405,47.53067536,1950.41
13.04753897,47.53067166,1949.42
</coordinates></LineString>
<LineString><altitudeMode>absolute</altitudeMode><coordinates>
13.04753897,47.53067166,1949.42
13.04753661,47.53065642,1949.05
</coordinates></LineString>
<LineString><altitudeMode>absolute</altitudeMode><coordinates>
13.04753661,47.53065642,1949.05
13.04752404,47.53066205,1947.46
</coordinates></LineString>
<LineString><altitudeMode>absolute</altitudeMode><coordinates>
13.04752404,47.53066205,1947.46
13.04751566,47.53065156,1947.05
</coordinates></LineString>
<LineString><altitudeMode>absolute</altitudeMode><coordinates>
13.04751566,47.53065156,1947.05
13.04752146,47.53064932,1943.33
</coordinates></LineString>
<LineString><altitudeMode>absolute</altitudeMode><coordinates>
13.04752146,47.53064932,1943.33
13.04750412,47.53066900,1942.44
13.04749992,47.53066398,1942.39
</coordinates></LineString>
<LineString><altitudeMode>absolute</altitudeMode><coordinates>
13.04749992,47.53066398,1942.39
13.04748887,47.53065389,1941.52
</coordinates></LineString>
<LineString><altitudeMode>absolute</altitudeMode><coordinates>
13.04748887,47.53065389,1941.52
13.04746622,47.53063074,1940.68
</coordinates></LineString>
<LineString><altitudeMode>absolute</altitudeMode><coordinates>
13.04746622,47.53063074,1940.68
13.04745410,47.53063845,1937.97
</coordinates></LineString>
<LineString><altitudeMode>absolute</altitudeMode><coordinates>
13.04745410,47.53063845,1937.97
13.04745368,47.53064268,1936.10
</coordinates></LineString>
<LineString><altitudeMode>absolute</altitudeMode><coordinates>
13.04745368,47.53064268,1936.10
13.04745214,47.53062348,1933.71
</coordinates></LineString>
<LineString><altitudeMode>absolute</altitudeMode><coordinates>
13.04745214,47.53062348,1933.71
13.04746602,47.53060392,1925.06
</coordinates></LineString>
<LineString><altitudeMode>absolute</altitudeMode><coordinates>
13.04746602,47.53060392,1925.06
13.04748267,47.53063138,1927.28
</coordinates></LineString>
<LineString><altitudeMode>absolute</altitudeMode><coordinates>
13.04746602,47.53060392,1925.06
13.04746906,47.53062917,1925.55
</coordinates></LineString>
<LineString><altitudeMode>absolute</altitudeMode><coordinates>
13.04746906,47.53062917,1925.55
13.04745333,47.53063070,1920.43
</coordinates></LineString>
<LineString><altitudeMode>absolute</altitudeMode><coordinates>
13.04745333,47.53063070,1920.43
13.04744898,47.53065843,1917.61
</coordinates></LineString>
<LineString><altitudeMode>absolute</altitudeMode><coordinates>
13.04744898,47.53065843,1917.61
13.04747240,47.53066108,1914.41
</coordinates></LineString>
<LineString><altitudeMode>absolute</altitudeMode><coordinates>
13.04747240,47.53066108,1914.41
13.04749490,47.53066345,1913.10
</coordinates></LineString>
<LineString><altitudeMode>absolute</altitudeMode><coordinates>
13.04749490,47.53066345,1913.10
13.04748979,47.53068279,1912.56
</coordinates></LineString>
<LineString><altitudeMode>absolute</altitudeMode><coordinates>
13.04748979,47.53068279,1912.56
13.04750230,47.53070730,1911.54
</coordinates></LineString>
<LineString><altitudeMode>absolute</altitudeMode><coordinates>
13.04750230,47.53070730,1911.54
13.04749702,47.53072440,1909.97
</coordinates></LineString>
<LineString><altitudeMode>absolute</altitudeMode><coordinates>
13.04749702,47.53072440,1909.97
13.04751335,47.53073170,1909.72
</coordinates></LineString>
<LineString><altitudeMode>absolute</altitudeMode><coordinates>
13.04751335,47.53073170,1909.72
13.04752000,47.53074963,1909.22
</coordinates></LineString>
<LineString><altitudeMode>absolute</altitudeMode><coordinates>
13.04752000,47.53074963,1909.22
13.04751604,47.53075235,1908.32
</coordinates></LineString>
<LineString><altitudeMode>absolute</altitudeMode><coordinates>
13.04751604,47.53075235,1908.32
13.04755333,47.53076801,1901.21
</coordinates></LineString>
<LineString><altitudeMode>absolute</altitudeMode><coordinates>
13.04755333,47.53076801,1901.21
13.04753303,47.53077774,1899.95
</coordinates></LineString>
<LineString><altitudeMode>absolute</altitudeMode><coordinates>
13.04753303,47.53077774,1899.95
13.04755543,47.53078281,1898.90
</coordinates></LineString>
<LineString><altitudeMode>absolute</altitudeMode><coordinates>
13.04755543,47.53078281,1898.90
13.04757317,47.53079894,1892.76
</coordinates></LineString>
<LineString><altitudeMode>absolute</altitudeMode><coordinates>
13.04757317,47.53079894,1892.76
13.04759034,47.53078034,1892.02
</coordinates></LineString>
<LineString><altitudeMode>absolute</altitudeMode><coordinates>
13.04759034,47.53078034,1892.02
13.04762174,47.53077557,1878.26
</coordinates></LineString>
<LineString><altitudeMode>absolute</altitudeMode><coordinates>
13.04762174,47.53077557,1878.26
13.04762141,47.53080570,1877.52
</coordinates></LineString>
<LineString><altitudeMode>absolute</altitudeMode><coordinates>
13.04762141,47.53080570,1877.52
13.04760805,47.53080773,1876.90
</coordinates></LineString>
<LineString><altitudeMode>absolute</altitudeMode><coordinates>
13.04760805,47.53080773,1876.90
13.04760876,47.53081359,1876.32
</coordinates></LineString>
<LineString><altitudeMode>absolute</altitudeMode><coordinates>
13.04760876,47.53081359,1876.32
13.04758921,47.53081433,1875.42
</coordinates></LineString>
<LineString><altitudeMode>absolute</altitudeMode><coordinates>
13.04758921,47.53081433,1875.42
13.04757943,47.53083792,1871.81
</coordinates></LineString>
<LineString><altitudeMode>absolute</altitudeMode><coordinates>
13.04757943,47.53083792,1871.81
13.04755752,47.53083755,1870.28
</coordinates></LineString>
<LineString><altitudeMode>absolute</altitudeMode><coordinates>
13.04755752,47.53083755,1870.28
13.04754599,47.53082971,1868.55
</coordinates></LineString>
<LineString><altitudeMode>absolute</altitudeMode><coordinates>
13.04754599,47.53082971,1868.55
13.04754948,47.53083588,1868.44
13.04754624,47.53081216,1865.64
</coordinates></LineString>
<LineString><altitudeMode>absolute</altitudeMode><coordinates>
13.04754624,47.53081216,1865.64
13.04755302,47.53079401,1864.54
</coordinates></LineString>
<LineString><altitudeMode>absolute</altitudeMode><coordinates>
13.04755302,47.53079401,1864.54
13.04754268,47.53077926,1864.69
</coordinates></LineString>
<LineString><altitudeMode>absolute</altitudeMode><coordinates>
13.04754268,47.53077926,1864.69
13.04750632,47.53078521,1865.79
</coordinates></LineString>
<LineString><altitudeMode>absolute</altitudeMode><coordinates>
13.04755302,47.53079401,1864.54
13.04755981,47.53078297,1862.81
</coordinates></LineString>
<LineString><altitudeMode>absolute</altitudeMode><coordinates>
13.04755981,47.53078297,1862.81
13.04759639,47.53077459,1861.50
</coordinates></LineString>
<LineString><altitudeMode>absolute</altitudeMode><coordinates>
13.04759639,47.53077459,1861.50
13.04761503,47.53077716,1861.32
</coordinates></LineString>
<LineString><altitudeMode>absolute</altitudeMode><coordinates>
13.04761503,47.53077716,1861.32
13.04762282,47.53078215,1860.76
</coordinates></LineString>
<LineString><altitudeMode>absolute</altitudeMode><coordinates>
13.04762282,47.53078215,1860.76
13.04765821,47.53080237,1858.52
13.04765972,47.53080816,1858.67
</coordinates></LineString>
<LineString><altitudeMode>absolute</altitudeMode><coordinates>
13.04765972,47.53080816,1858.67
13.04769210,47.53080925,1857.51
</coordinates></LineString>
<LineString><altitudeMode>absolute</altitudeMode><coordinates>
13.04769210,47.53080925,1857.51
13.04770190,47.53083155,1855.17
</coordinates></LineString>
<LineString><altitudeMode>absolute</altitudeMode><coordinates>
13.04756782,47.53064606,1944.75
13.04756897,47.53066525,1949.76
13.04756315,47.53068953,1950.71
</coordinates></LineString>
<LineString><altitudeMode>absolute</altitudeMode><coordinates>
13.04757943,47.53083792,1871.81
13.04759077,47.53081508,1875.52
13.04761046,47.53081443,1876.39
13.04760989,47.53080839,1876.95
</coordinates></LineString></MultiGeometry></Placemark>
</Document></kml>
