<?xml version="1.0" encoding="UTF-8"?>
<gpx version="1.0" creator="survex 1.4.17 (aven) - https://survex.com/" xmlns:xsi="http://www.w3.org/2001/XMLSchema-instance" xmlns="http://www.topografix.com/GPX/1/0" xsi:schemaLocation="http://www.topografix.com/GPX/1/0 http://www.topografix.com/GPX/1/0/gpx.xsd">
<name>500-master</name>
<time>2025-05-15T00:15:56Z</time>
<trk><name>500-master</name><trkseg>
<trkpt lon="13.04755005" lat="47.53071667"><ele>2009.00</ele></trkpt>
<trkpt lon="13.04756087" lat="47.53074384"><ele>2006.80</ele></trkpt>
<trkpt lon="13.04756776" lat="47.53074792"><ele>2006.03</ele></trkpt>
<trkpt lon="13.04758330" lat="47.53075520"><ele>2002.67</ele></trkpt>
<trkpt lon="13.04760640" lat="47.53072698"><ele>2001.32</ele></trkpt>
<trkpt lon="13.04759442" lat="47.53071679"><ele>2000.31</ele></trkpt>
<trkpt lon="13.04758512" lat="47.53071690"><ele>1991.72</ele></trkpt>
<trkpt lon="13.04759485" lat="47.53072328"><ele>1991.67</ele></trkpt>
<trkpt lon="13.04758879" lat="47.53071094"><ele>1975.49</ele></trkpt>
<trkpt lon="13.04758296" lat="47.53070706"><ele>1962.38</ele></trkpt>
<trkpt lon="13.04758334" lat="47.53070760"><ele>1962.93</ele></trkpt>
<trkpt lon="13.04757655" lat="47.53067563"><ele>1961.25</ele></trkpt>
<trkpt lon="13.04757452" lat="47.53066606"><ele>1960.43</ele></trkpt>
<trkpt lon="13.04756979" lat="47.53067174"><ele>1956.74</ele></trkpt>
<trkpt lon="13.04756039" lat="47.53068877"><ele>1950.77</ele></trkpt>
<trkpt lon="13.04756621" lat="47.53066439"><ele>1949.84</ele></trkpt>
<trkpt lon="13.04756782" lat="47.53064606"><ele>1944.75</ele></trkpt>
</trkseg><trkseg>
<trkpt lon="13.04756782" lat="47.53064606"><ele>1944.75</ele></trkpt>
<trkpt lon="13.04758602" lat="47.53063179"><ele>1942.97</ele></trkpt>
<trkpt lon="13.04757412" lat="47.53061575"><ele>1942.38</ele></trkpt>
<trkpt lon="13.04757763" lat="47.53060358"><ele>1942.33</ele></trkpt>
</trkseg><trkseg>
<trkpt lon="13.04755005" lat="47.53071667"><ele>2009.00</ele></trkpt>
<trkpt lon="13.04755005" lat="47.53071667"><ele>2009.00</ele></trkpt>
</trkseg><trkseg>
<trkpt lon="13.04758334" lat="47.53070760"><ele>1962.93</ele></trkpt>
<trkpt lon="13.04759320" lat="47.53067808"><ele>1958.58</ele></trkpt>
</trkseg><trkseg>
<trkpt lon="13.04759320" lat="47.53067808"><ele>1958.58</ele></trkpt>
<trkpt lon="13.04758674" lat="47.53067680"><ele>1952.83</ele></trkpt>
</trkseg><trkseg>
<trkpt lon="13.04756979" lat="47.53067174"><ele>1956.74</ele></trkpt>
<trkpt lon="13.04754603" lat="47.53069266"><ele>1956.62</ele></trkpt>
<trkpt lon="13.04749603" lat="47.53071871"><ele>1967.97</ele></trkpt>
</trkseg><trkseg>
<trkpt lon="13.04754603" lat="47.53069266"><ele>1956.62</ele></trkpt>
<trkpt lon="13.04752061" lat="47.53069718"><ele>1954.23</ele></trkpt>
</trkseg><trkseg>
<trkpt lon="13.04752061" lat="47.53069718"><ele>1954.23</ele></trkpt>
<trkpt lon="13.04752569" lat="47.53069654"><ele>1951.68</ele></trkpt>
</trkseg><trkseg>
<trkpt lon="13.04752569" lat="47.53069654"><ele>1951.68</ele></trkpt>
<trkpt lon="13.04751736" lat="47.53069883"><ele>1946.48</ele></trkpt>
</trkseg><trkseg>
<trkpt lon="13.04752569" lat="47.53069654"><ele>1951.68</ele></trkpt>
<trkpt lon="13.04751477" lat="47.53068997"><ele>1951.57</ele></trkpt>
</trkseg><trkseg>
<trkpt lon="13.04751477" lat="47.53068997"><ele>1951.57</ele></trkpt>
<trkpt lon="13.04753405" lat="47.53067536"><ele>1950.41</ele></trkpt>
</trkseg><trkseg>
<trkpt lon="13.04753405" lat="47.53067536"><ele>1950.41</ele></trkpt>
<trkpt lon="13.04753897" lat="47.53067166"><ele>1949.42</ele></trkpt>
</trkseg><trkseg>
<trkpt lon="13.04753897" lat="47.53067166"><ele>1949.42</ele></trkpt>
<trkpt lon="13.04753661" lat="47.53065642"><ele>1949.05</ele></trkpt>
</trkseg><trkseg>
<trkpt lon="13.04753661" lat="47.53065642"><ele>1949.05</ele></trkpt>
<trkpt lon="13.04752404" lat="47.53066205"><ele>1947.46</ele></trkpt>
</trkseg><trkseg>
<trkpt lon="13.04752404" lat="47.53066205"><ele>1947.46</ele></trkpt>
<trkpt lon="13.04751566" lat="47.53065156"><ele>1947.05</ele></trkpt>
</trkseg><trkseg>
<trkpt lon="13.04751566" lat="47.53065156"><ele>1947.05</ele></trkpt>
<trkpt lon="13.04752146" lat="47.53064932"><ele>1943.33</ele></trkpt>
</trkseg><trkseg>
<trkpt lon="13.04752146" lat="47.53064932"><ele>1943.33</ele></trkpt>
<trkpt lon="13.04750412" lat="47.53066900"><ele>1942.44</ele></trkpt>
<trkpt lon="13.04749992" lat="47.53066398"><ele>1942.39</ele></trkpt>
</trkseg><trkseg>
<trkpt lon="13.04749992" lat="47.53066398"><ele>1942.39</ele></trkpt>
<trkpt lon="13.04748887" lat="47.53065389"><ele>1941.52</ele></trkpt>
</trkseg><trkseg>
<trkpt lon="13.04748887" lat="47.53065389"><ele>1941.52</ele></trkpt>
<trkpt lon="13.04746622" lat="47.53063074"><ele>1940.68</ele></trkpt>
</trkseg><trkseg>
<trkpt lon="13.04746622" lat="47.53063074"><ele>1940.68</ele></trkpt>
<trkpt lon="13.04745410" lat="47.53063845"><ele>1937.97</ele></trkpt>
</trkseg><trkseg>
<trkpt lon="13.04745410" lat="47.53063845"><ele>1937.97</ele></trkpt>
<trkpt lon="13.04745368" lat="47.53064268"><ele>1936.10</ele></trkpt>
</trkseg><trkseg>
<trkpt lon="13.04745368" lat="47.53064268"><ele>1936.10</ele></trkpt>
<trkpt lon="13.04745214" lat="47.53062348"><ele>1933.71</ele></trkpt>
</trkseg><trkseg>
<trkpt lon="13.04745214" lat="47.53062348"><ele>1933.71</ele></trkpt>
<trkpt lon="13.04746602" lat="47.53060392"><ele>1925.06</ele></trkpt>
</trkseg><trkseg>
<trkpt lon="13.04746602" lat="47.53060392"><ele>1925.06</ele></trkpt>
<trkpt lon="13.04748267" lat="47.53063138"><ele>1927.28</ele></trkpt>
</trkseg><trkseg>
<trkpt lon="13.04746602" lat="47.53060392"><ele>1925.06</ele></trkpt>
<trkpt lon="13.04746906" lat="47.53062917"><ele>1925.55</ele></trkpt>
</trkseg><trkseg>
<trkpt lon="13.04746906" lat="47.53062917"><ele>1925.55</ele></trkpt>
<trkpt lon="13.04745333" lat="47.53063070"><ele>1920.43</ele></trkpt>
</trkseg><trkseg>
<trkpt lon="13.04745333" lat="47.53063070"><ele>1920.43</ele></trkpt>
<trkpt lon="13.04744898" lat="47.53065843"><ele>1917.61</ele></trkpt>
</trkseg><trkseg>
<trkpt lon="13.04744898" lat="47.53065843"><ele>1917.61</ele></trkpt>
<trkpt lon="13.04747240" lat="47.53066108"><ele>1914.41</ele></trkpt>
</trkseg><trkseg>
<trkpt lon="13.04747240" lat="47.53066108"><ele>1914.41</ele></trkpt>
<trkpt lon="13.04749490" lat="47.53066345"><ele>1913.10</ele></trkpt>
</trkseg><trkseg>
<trkpt lon="13.04749490" lat="47.53066345"><ele>1913.10</ele></trkpt>
<trkpt lon="13.04748979" lat="47.53068279"><ele>1912.56</ele></trkpt>
</trkseg><trkseg>
<trkpt lon="13.04748979" lat="47.53068279"><ele>1912.56</ele></trkpt>
<trkpt lon="13.04750230" lat="47.53070730"><ele>1911.54</ele></trkpt>
</trkseg><trkseg>
<trkpt lon="13.04750230" lat="47.53070730"><ele>1911.54</ele></trkpt>
<trkpt lon="13.04749702" lat="47.53072440"><ele>1909.97</ele></trkpt>
</trkseg><trkseg>
<trkpt lon="13.04749702" lat="47.53072440"><ele>1909.97</ele></trkpt>
<trkpt lon="13.04751335" lat="47.53073170"><ele>1909.72</ele></trkpt>
</trkseg><trkseg>
<trkpt lon="13.04751335" lat="47.53073170"><ele>1909.72</ele></trkpt>
<trkpt lon="13.04752000" lat="47.53074963"><ele>1909.22</ele></trkpt>
</trkseg><trkseg>
<trkpt lon="13.04752000" lat="47.53074963"><ele>1909.22</ele></trkpt>
<trkpt lon="13.04751604" lat="47.53075235"><ele>1908.32</ele></trkpt>
</trkseg><trkseg>
<trkpt lon="13.04751604" lat="47.53075235"><ele>1908.32</ele></trkpt>
<trkpt lon="13.04755333" lat="47.53076801"><ele>1901.21</ele></trkpt>
</trkseg><trkseg>
<trkpt lon="13.04755333" lat="47.53076801"><ele>1901.21</ele></trkpt>
<trkpt lon="13.04753303" lat="47.53077774"><ele>1899.95</ele></trkpt>
</trkseg><trkseg>
<trkpt lon="13.04753303" lat="47.53077774"><ele>1899.95</ele></trkpt>
<trkpt lon="13.04755543" lat="47.53078281"><ele>1898.90</ele></trkpt>
</trkseg><trkseg>
<trkpt lon="13.04755543" lat="47.53078281"><ele>1898.90</ele></trkpt>
<trkpt lon="13.04757317" lat="47.53079894"><ele>1892.76</ele></trkpt>
</trkseg><trkseg>
<trkpt lon="13.04757317" lat="47.53079894"><ele>1892.76</ele></trkpt>
<trkpt lon="13.04759034" lat="47.53078034"><ele>1892.02</ele></trkpt>
</trkseg><trkseg>
<trkpt lon="13.04759034" lat="47.53078034"><ele>1892.02</ele></trkpt>
<trkpt lon="13.04762174" lat="47.53077557"><ele>1878.26</ele></trkpt>
</trkseg><trkseg>
<trkpt lon="13.04762174" lat="47.53077557"><ele>1878.26</ele></trkpt>
<trkpt lon="13.04762141" lat="47.53080570"><ele>1877.52</ele></trkpt>
</trkseg><trkseg>
<trkpt lon="13.04762141" lat="47.53080570"><ele>1877.52</ele></trkpt>
<trkpt lon="13.04760805" lat="47.53080773"><ele>1876.90</ele></trkpt>
</trkseg><trkseg>
<trkpt lon="13.04760805" lat="47.53080773"><ele>1876.90</ele></trkpt>
<trkpt lon="13.04760876" lat="47.53081359"><ele>1876.32</ele></trkpt>
</trkseg><trkseg>
<trkpt lon="13.04760876" lat="47.53081359"><ele>1876.32</ele></trkpt>
<trkpt lon="13.04758921" lat="47.53081433"><ele>1875.42</ele></trkpt>
</trkseg><trkseg>
<trkpt lon="13.04758921" lat="47.53081433"><ele>1875.42</ele></trkpt>
<trkpt lon="13.04757943" lat="47.53083792"><ele>1871.81</ele></trkpt>
</trkseg><trkseg>
<trkpt lon="13.04757943" lat="47.53083792"><ele>1871.81</ele></trkpt>
<trkpt lon="13.04755752" lat="47.53083755"><ele>1870.28</ele></trkpt>
</trkseg><trkseg>
<trkpt lon="13.04755752" lat="47.53083755"><ele>1870.28</ele></trkpt>
<trkpt lon="13.04754599" lat="47.53082971"><ele>1868.55</ele></trkpt>
</trkseg><trkseg>
<trkpt lon="13.04754599" lat="47.53082971"><ele>1868.55</ele></trkpt>
<trkpt lon="13.04754948" lat="47.53083588"><ele>1868.44</ele></trkpt>
<trkpt lon="13.04754624" lat="47.53081216"><ele>1865.64</ele></trkpt>
</trkseg><trkseg>
<trkpt lon="13.04754624" lat="47.53081216"><ele>1865.64</ele></trkpt>
<trkpt lon="13.04755302" lat="47.53079401"><ele>1864.54</ele></trkpt>
</trkseg><trkseg>
<trkpt lon="13.04755302" lat="47.53079401"><ele>1864.54</ele></trkpt>
<trkpt lon="13.04754268" lat="47.53077926"><ele>1864.69</ele></trkpt>
</trkseg><trkseg>
<trkpt lon="13.04754268" lat="47.53077926"><ele>1864.69</ele></trkpt>
<trkpt lon="13.04750632" lat="47.53078521"><ele>1865.79</ele></trkpt>
</trkseg><trkseg>
<trkpt lon="13.04755302" lat="47.53079401"><ele>1864.54</ele></trkpt>
<trkpt lon="13.04755981" lat="47.53078297"><ele>1862.81</ele></trkpt>
</trkseg><trkseg>
<trkpt lon="13.04755981" lat="47.53078297"><ele>1862.81</ele></trkpt>
<trkpt lon="13.04759639" lat="47.53077459"><ele>1861.50</ele></trkpt>
</trkseg><trkseg>
<trkpt lon="13.04759639" lat="47.53077459"><ele>1861.50</ele></trkpt>
<trkpt lon="13.04761503" lat="47.53077716"><ele>1861.32</ele></trkpt>
</trkseg><trkseg>
<trkpt lon="13.04761503" lat="47.53077716"><ele>1861.32</ele></trkpt>
<trkpt lon="13.04762282" lat="47.53078215"><ele>1860.76</ele></trkpt>
</trkseg><trkseg>
<trkpt lon="13.04762282" lat="47.53078215"><ele>1860.76</ele></trkpt>
<trkpt lon="13.04765821" lat="47.53080237"><ele>1858.52</ele></trkpt>
<trkpt lon="13.04765972" lat="47.53080816"><ele>1858.67</ele></trkpt>
</trkseg><trkseg>
<trkpt lon="13.04765972" lat="47.53080816"><ele>1858.67</ele></trkpt>
<trkpt lon="13.04769210" lat="47.53080925"><ele>1857.51</ele></trkpt>
</trkseg><trkseg>
<trkpt lon="13.04769210" lat="47.53080925"><ele>1857.51</ele></trkpt>
<trkpt lon="13.04770190" lat="47.53083155"><ele>1855.17</ele></trkpt>
</trkseg><trkseg>
<trkpt lon="13.04756782" lat="47.53064606"><ele>1944.75</ele></trkpt>
<trkpt lon="13.04756897" lat="47.53066525"><ele>1949.76</ele></trkpt>
<trkpt lon="13.04756315" lat="47.53068953"><ele>1950.71</ele></trkpt>
</trkseg><trkseg>
<trkpt lon="13.04757943" lat="47.53083792"><ele>1871.81</ele></trkpt>
<trkpt lon="13.04759077" lat="47.53081508"><ele>1875.52</ele></trkpt>
<trkpt lon="13.04761046" lat="47.53081443"><ele>1876.39</ele></trkpt>
<trkpt lon="13.04760989" lat="47.53080839"><ele>1876.95</ele></trkpt>
</trkseg></trk>
</gpx>
