<?xml version="1.0" encoding="UTF-8"?>
<kml xmlns="http://www.opengis.net/kml/2.2">
<Document><name>499-master</name>
<Style id="fix"><IconStyle><Icon><href>https://maps.google.com/mapfiles/kml/paddle/red-blank.png</href></Icon><color>ff0000ff</color><hotSpot x="32" y="1" xunits="pixels" yunits="pixels"/></IconStyle></Style>
<Style id="exp"><IconStyle><Icon><href>https://maps.google.com/mapfiles/kml/paddle/blu-blank.png</href></Icon><color>ffff0000</color><hotSpot x="32" y="1" xunits="pixels" yunits="pixels"/></IconStyle></Style>
<Style id="ent"><IconStyle><Icon><href>https://maps.google.com/mapfiles/kml/paddle/grn-blank.png</href></Icon><color>ff00ff00</color><hotSpot x="32" y="1" xunits="pixels" yunits="pixels"/></IconStyle></Style>
<Style id="surf"><LineStyle><color>ff00ff00</color></LineStyle></Style>
<Style id="splay"><LineStyle><color>40ff00ff</color></LineStyle></Style>
<Placemark><MultiGeometry><LineString><altitudeMode>absolute</altitudeMode><coordinates>
13.04019996,47.52795005,2145.00
13.04019479,47.52796391,2145.04
13.04021244,47.52796079,2140.55
13.04022144,47.52797615,2118.89
13.04023523,47.52798025,2118.79
13.04023042,47.52800951,2117.05
13.04021200,47.52802620,2101.38
13.04024779,47.52803896,2105.01
13.04026934,47.52802754,2105.52
13.04029265,47.52802605,2106.44
</coordinates></LineString>
<LineString><altitudeMode>absolute</altitudeMode><coordinates>
13.04021200,47.52802620,2101.38
13.04024947,47.52802594,2101.25
13.04029354,47.52801283,2096.99
</coordinates></LineString>
<LineString><altitudeMode>absolute</altitudeMode><coordinates>
13.04021200,47.52802620,2101.38
13.04022919,47.52798213,2097.66
13.04026134,47.52799636,2097.10
13.04027466,47.52797400,2092.28
</coordinates></LineString>
<LineString><altitudeMode>absolute</altitudeMode><coordinates>
13.04027466,47.52797400,2092.28
13.04027562,47.52796961,2091.42
13.04026456,47.52795277,2090.60
13.04032896,47.52791797,2081.46
</coordinates></LineString>
<LineString><altitudeMode>absolute</altitudeMode><coordinates>
13.04027466,47.52797400,2092.28
13.04031269,47.52798023,2091.42
13.04034717,47.52796417,2086.53
13.04040767,47.52793056,2078.27
13.04041420,47.52791951,2076.84
13.04044243,47.52792477,2075.31
13.04046699,47.52791448,2073.47
</coordinates></LineString></MultiGeometry></Placemark>
</Document></kml>
