<?xml version="1.0" encoding="UTF-8"?>
<gpx version="1.0" creator="survex 1.4.17 (aven) - https://survex.com/" xmlns:xsi="http://www.w3.org/2001/XMLSchema-instance" xmlns="http://www.topografix.com/GPX/1/0" xsi:schemaLocation="http://www.topografix.com/GPX/1/0 http://www.topografix.com/GPX/1/0/gpx.xsd">
<name>568-master</name>
<time>2025-06-23T19:15:41Z</time>
<trk><name>568-master</name><trkseg>
<trkpt lon="13.05006506" lat="47.51405171"><ele>2077.00</ele></trkpt>
<trkpt lon="13.05014286" lat="47.51406689"><ele>2076.48</ele></trkpt>
<trkpt lon="13.05021916" lat="47.51411920"><ele>2077.78</ele></trkpt>
<trkpt lon="13.05022432" lat="47.51415898"><ele>2078.13</ele></trkpt>
<trkpt lon="13.05021999" lat="47.51419337"><ele>2075.87</ele></trkpt>
<trkpt lon="13.05026273" lat="47.51423018"><ele>2073.62</ele></trkpt>
<trkpt lon="13.05031279" lat="47.51426261"><ele>2074.57</ele></trkpt>
<trkpt lon="13.05031413" lat="47.51433759"><ele>2071.56</ele></trkpt>
<trkpt lon="13.05036584" lat="47.51432938"><ele>2071.73</ele></trkpt>
<trkpt lon="13.05039780" lat="47.51439525"><ele>2075.56</ele></trkpt>
<trkpt lon="13.05041083" lat="47.51444137"><ele>2075.00</ele></trkpt>
<trkpt lon="13.05047081" lat="47.51443951"><ele>2075.32</ele></trkpt>
<trkpt lon="13.05050779" lat="47.51447379"><ele>2075.80</ele></trkpt>
<trkpt lon="13.05055110" lat="47.51447696"><ele>2077.30</ele></trkpt>
</trkseg><trkseg>
<trkpt lon="13.05036584" lat="47.51432938"><ele>2071.73</ele></trkpt>
<trkpt lon="13.05039369" lat="47.51438430"><ele>2067.05</ele></trkpt>
</trkseg><trkseg>
<trkpt lon="13.05039369" lat="47.51438430"><ele>2067.05</ele></trkpt>
<trkpt lon="13.05041852" lat="47.51438814"><ele>2062.34</ele></trkpt>
</trkseg><trkseg>
<trkpt lon="13.05041852" lat="47.51438814"><ele>2062.34</ele></trkpt>
<trkpt lon="13.05033247" lat="47.51433394"><ele>2060.75</ele></trkpt>
</trkseg><trkseg>
<trkpt lon="13.05033247" lat="47.51433394"><ele>2060.75</ele></trkpt>
<trkpt lon="13.05031824" lat="47.51435575"><ele>2058.27</ele></trkpt>
</trkseg><trkseg>
<trkpt lon="13.05031824" lat="47.51435575"><ele>2058.27</ele></trkpt>
<trkpt lon="13.05026200" lat="47.51440743"><ele>2052.89</ele></trkpt>
</trkseg><trkseg>
<trkpt lon="13.05031824" lat="47.51435575"><ele>2058.27</ele></trkpt>
<trkpt lon="13.05022952" lat="47.51431987"><ele>2057.99</ele></trkpt>
</trkseg><trkseg>
<trkpt lon="13.05022952" lat="47.51431987"><ele>2057.99</ele></trkpt>
<trkpt lon="13.05012594" lat="47.51426915"><ele>2054.73</ele></trkpt>
</trkseg><trkseg>
<trkpt lon="13.05012594" lat="47.51426915"><ele>2054.73</ele></trkpt>
<trkpt lon="13.05010627" lat="47.51427674"><ele>2054.44</ele></trkpt>
</trkseg><trkseg>
<trkpt lon="13.05010627" lat="47.51427674"><ele>2054.44</ele></trkpt>
<trkpt lon="13.05010127" lat="47.51423940"><ele>2056.80</ele></trkpt>
</trkseg><trkseg>
<trkpt lon="13.05010127" lat="47.51423940"><ele>2056.80</ele></trkpt>
<trkpt lon="13.05009653" lat="47.51418461"><ele>2063.83</ele></trkpt>
</trkseg></trk>
</gpx>
